,Unnamed: 0,Unnamed: 0.1,city,country,housenumber,postcode,street,region,has_latitude,has_longitude,has_province,has_administrativeArea;;;;;;;;;;;;;;;;
0,0.0,0.0,Rovereto,it,,38068.0,,Trentino-Alto Adige,45.89232635498047,11.03329849243164,TN,22161;;;;;;;;;;;;;;;;
1,1.0,1.0,,it,,,,Trentino-Alto Adige,45.84537506103516,11.013041496276855,TN,22205;;;;;;;;;;;;;;;;
2,2.0,2.0,,it,,,,Trentino-Alto Adige,45.89741897583008,11.045305252075195,TN,22205;;;;;;;;;;;;;;;;
3,3.0,3.0,,it,,,,Trentino-Alto Adige,45.873985290527344,11.038881301879885,TN,22205;;;;;;;;;;;;;;;;
4,4.0,4.0,,it,,,,Trentino-Alto Adige,45.913536071777344,11.039809226989746,TN,22205;;;;;;;;;;;;;;;;
5,5.0,5.0,,it,,,,Trentino-Alto Adige,45.88018035888672,11.019862174987791,TN,22205;;;;;;;;;;;;;;;;
6,6.0,6.0,,it,,,,Trentino-Alto Adige,45.877471923828125,11.018155097961426,TN,22205;;;;;;;;;;;;;;;;
7,7.0,7.0,,it,,,,Trentino-Alto Adige,45.86643600463867,11.00608253479004,TN,22205;;;;;;;;;;;;;;;;
8,8.0,8.0,,it,,,,Trentino-Alto Adige,45.88118743896485,11.070011138916016,TN,22205;;;;;;;;;;;;;;;;
9,9.0,9.0,,it,,,,Trentino-Alto Adige,45.88426971435547,11.072999000549316,TN,22205;;;;;;;;;;;;;;;;
10,10.0,10.0,Rovereto,it,14,38068.0,Piazza Cesare Battisti,Trentino-Alto Adige,45.89007186889648,11.043947219848633,TN,22161;;;;;;;;;;;;;;;;
11,11.0,11.0,,it,,,,Trentino-Alto Adige,45.87514114379883,11.033567428588867,TN,22205;;;;;;;;;;;;;;;;
12,12.0,12.0,,it,,,,Trentino-Alto Adige,45.90397644042969,11.078351020812988,TN,22205;;;;;;;;;;;;;;;;
13,13.0,13.0,,it,,,,Trentino-Alto Adige,45.90674209594727,11.105379104614258,TN,22205;;;;;;;;;;;;;;;;
14,14.0,14.0,,it,,,,Trentino-Alto Adige,45.874847412109375,11.033246994018556,TN,22205;;;;;;;;;;;;;;;;
15,15.0,15.0,,it,,,,Trentino-Alto Adige,45.89010620117188,11.109387397766112,TN,22205;;;;;;;;;;;;;;;;
16,16.0,16.0,,it,,,,Trentino-Alto Adige,45.84833526611328,11.00319480895996,TN,22205;;;;;;;;;;;;;;;;
17,17.0,17.0,,it,,,,Trentino-Alto Adige,45.88969421386719,11.01616668701172,TN,22205;;;;;;;;;;;;;;;;
18,18.0,18.0,,it,,,,Trentino-Alto Adige,45.88903045654297,11.016215324401855,TN,22205;;;;;;;;;;;;;;;;
19,19.0,19.0,,it,,,,Trentino-Alto Adige,45.90138244628906,11.02995491027832,TN,22205;;;;;;;;;;;;;;;;
20,20.0,20.0,,it,,,,Trentino-Alto Adige,45.89918899536133,11.027949333190918,TN,22205;;;;;;;;;;;;;;;;
21,21.0,21.0,,it,,,,Trentino-Alto Adige,45.898956298828125,11.027665138244627,TN,22205;;;;;;;;;;;;;;;;
22,22.0,22.0,,it,,,,Trentino-Alto Adige,45.8624267578125,10.99949073791504,TN,22205;;;;;;;;;;;;;;;;
23,23.0,23.0,,it,,,,Trentino-Alto Adige,45.83891296386719,11.001465797424316,TN,22205;;;;;;;;;;;;;;;;
24,24.0,24.0,,it,,,,Trentino-Alto Adige,45.91416931152344,11.040568351745604,TN,22205;;;;;;;;;;;;;;;;
25,25.0,25.0,,it,,,,Trentino-Alto Adige,45.85211944580078,11.010229110717772,TN,22205;;;;;;;;;;;;;;;;
26,26.0,26.0,,it,,,,Trentino-Alto Adige,45.85438919067383,11.012250900268556,TN,22205;;;;;;;;;;;;;;;;
27,27.0,27.0,,it,,,,Trentino-Alto Adige,45.85491180419922,11.014522552490234,TN,22205;;;;;;;;;;;;;;;;
28,28.0,28.0,,it,,,,Trentino-Alto Adige,45.856910705566406,11.019243240356444,TN,22205;;;;;;;;;;;;;;;;
29,29.0,29.0,,it,,,,Trentino-Alto Adige,45.8524169921875,11.010878562927246,TN,22205;;;;;;;;;;;;;;;;
30,30.0,30.0,,it,,,,Trentino-Alto Adige,45.85580825805664,11.018006324768066,TN,22205;;;;;;;;;;;;;;;;
31,31.0,31.0,,it,,,,Trentino-Alto Adige,45.86246490478516,11.033446311950684,TN,22205;;;;;;;;;;;;;;;;
32,32.0,32.0,,it,,,,Trentino-Alto Adige,45.89097595214844,11.034255027770996,TN,22205;;;;;;;;;;;;;;;;
33,33.0,33.0,,it,,,,Trentino-Alto Adige,45.88184356689453,11.024230003356934,TN,22205;;;;;;;;;;;;;;;;
34,34.0,34.0,,it,,,,Trentino-Alto Adige,45.88199234008789,11.024859428405762,TN,22205;;;;;;;;;;;;;;;;
35,35.0,35.0,,it,,,,Trentino-Alto Adige,45.84357833862305,11.008539199829102,TN,22205;;;;;;;;;;;;;;;;
36,36.0,36.0,,it,,,,Trentino-Alto Adige,45.902130126953125,11.066655158996582,TN,22205;;;;;;;;;;;;;;;;
37,37.0,37.0,,it,,,,Trentino-Alto Adige,45.9041748046875,11.043258666992188,TN,22205;;;;;;;;;;;;;;;;
38,38.0,38.0,Rovereto,it,20E,38068.0,Via Paoli,Trentino-Alto Adige,45.89273452758789,11.04003620147705,TN,22161;;;;;;;;;;;;;;;;
39,39.0,39.0,,it,,,,Trentino-Alto Adige,45.88872528076172,11.043112754821776,TN,22205;;;;;;;;;;;;;;;;
40,40.0,40.0,Rovereto,it,40,38068.0,Via Dante Alighieri,Trentino-Alto Adige,45.888370513916016,11.040579795837402,TN,22161;;;;;;;;;;;;;;;;
41,41.0,41.0,,it,,,,Trentino-Alto Adige,45.88531875610352,11.03002643585205,TN,22205;;;;;;;;;;;;;;;;
42,42.0,42.0,,it,,,,Trentino-Alto Adige,45.86443710327149,11.028525352478027,TN,22205;;;;;;;;;;;;;;;;
43,43.0,43.0,,it,,,,Trentino-Alto Adige,45.87255859375,11.024307250976562,TN,22205;;;;;;;;;;;;;;;;
44,44.0,44.0,,it,,,,Trentino-Alto Adige,45.84086990356445,11.045178413391112,TN,22205;;;;;;;;;;;;;;;;
45,45.0,45.0,,it,,,,Trentino-Alto Adige,45.85215759277344,11.033161163330078,TN,22205;;;;;;;;;;;;;;;;
46,46.0,46.0,,it,,,,Trentino-Alto Adige,45.85567855834961,11.026084899902344,TN,22205;;;;;;;;;;;;;;;;
47,47.0,47.0,,it,,,,Trentino-Alto Adige,45.86088943481445,11.014381408691406,TN,22205;;;;;;;;;;;;;;;;
48,48.0,48.0,,it,,,,Trentino-Alto Adige,45.84551239013672,11.037425994873049,TN,22205;;;;;;;;;;;;;;;;
49,49.0,49.0,,it,,,,Trentino-Alto Adige,45.84576797485352,11.036543846130373,TN,22205;;;;;;;;;;;;;;;;
50,50.0,50.0,,it,,,,Trentino-Alto Adige,45.9085578918457,11.04050636291504,TN,22205;;;;;;;;;;;;;;;;
51,51.0,51.0,,it,,,,Trentino-Alto Adige,45.9084358215332,11.04045867919922,TN,22205;;;;;;;;;;;;;;;;
52,52.0,52.0,,it,,,,Trentino-Alto Adige,45.894527435302734,11.04323387145996,TN,22205;;;;;;;;;;;;;;;;
53,53.0,53.0,,it,,,,Trentino-Alto Adige,45.84428024291992,11.049418449401855,TN,22205;;;;;;;;;;;;;;;;
54,54.0,54.0,,it,,,,Trentino-Alto Adige,45.90739440917969,11.059138298034668,TN,22205;;;;;;;;;;;;;;;;
55,55.0,55.0,,it,,,,Trentino-Alto Adige,45.87721252441406,11.033884048461914,TN,22205;;;;;;;;;;;;;;;;
56,56.0,56.0,,it,,,,Trentino-Alto Adige,45.857421875,11.001477241516112,TN,22205;;;;;;;;;;;;;;;;
57,57.0,57.0,Rovereto,it,20,38068.0,Borgo Santa Caterina,Trentino-Alto Adige,45.88980865478516,11.039705276489258,TN,22161;;;;;;;;;;;;;;;;
58,58.0,58.0,,it,,,,Trentino-Alto Adige,45.88731002807617,11.062677383422852,TN,22205;;;;;;;;;;;;;;;;
59,59.0,59.0,,it,,,,Trentino-Alto Adige,45.89644241333008,11.040804862976074,TN,22205;;;;;;;;;;;;;;;;
60,60.0,60.0,,it,,,,Trentino-Alto Adige,45.8961296081543,11.11950969696045,TN,22205;;;;;;;;;;;;;;;;
61,61.0,61.0,,it,,,,Trentino-Alto Adige,45.8878288269043,11.068081855773926,TN,22205;;;;;;;;;;;;;;;;
62,62.0,62.0,,it,,,,Trentino-Alto Adige,45.80276870727539,11.057520866394045,TN,22205;;;;;;;;;;;;;;;;
63,63.0,63.0,,it,,,,Trentino-Alto Adige,45.84274291992188,11.007575035095217,TN,22205;;;;;;;;;;;;;;;;
64,64.0,64.0,Rovereto,it,18,38068.0,Santa Maria,Trentino-Alto Adige,45.88547134399414,11.04470157623291,TN,22161;;;;;;;;;;;;;;;;
65,65.0,65.0,Rovereto,it,38,38068.0,Via Portici,Trentino-Alto Adige,45.88695907592773,11.045169830322266,TN,22161;;;;;;;;;;;;;;;;
66,66.0,66.0,,it,,,,Trentino-Alto Adige,45.87535858154297,11.033438682556152,TN,22205;;;;;;;;;;;;;;;;
67,67.0,67.0,,it,,,,Trentino-Alto Adige,45.8900032043457,11.029582023620604,TN,22205;;;;;;;;;;;;;;;;
68,68.0,68.0,,it,,,,Trentino-Alto Adige,45.88917922973633,11.044614791870115,TN,22205;;;;;;;;;;;;;;;;
69,69.0,69.0,,it,,,,Trentino-Alto Adige,45.889495849609375,11.044875144958496,TN,22205;;;;;;;;;;;;;;;;
70,70.0,70.0,Rovereto,it,18,38068.0,Via Roma,Trentino-Alto Adige,45.88963317871094,11.043471336364746,TN,22161;;;;;;;;;;;;;;;;
71,71.0,71.0,Rovereto,it,24,38068.0,Corso Bettini,Trentino-Alto Adige,45.89158248901367,11.043752670288086,TN,22161;;;;;;;;;;;;;;;;
72,72.0,72.0,,it,,,,Trentino-Alto Adige,45.88816833496094,11.052062034606934,TN,22205;;;;;;;;;;;;;;;;
73,73.0,73.0,,it,,,,Trentino-Alto Adige,45.89948654174805,11.041558265686035,TN,22205;;;;;;;;;;;;;;;;
74,74.0,74.0,Rovereto,it,31 E,38068.0,Viale Trento,Trentino-Alto Adige,45.90085983276367,11.042067527770996,TN,22161;;;;;;;;;;;;;;;;
75,75.0,75.0,,it,,,,Trentino-Alto Adige,45.88776779174805,11.100862503051758,TN,22205;;;;;;;;;;;;;;;;
76,76.0,76.0,Rovereto,it,18,38068.0,Via delle Scuole,Trentino-Alto Adige,45.88988876342773,11.04219913482666,TN,22161;;;;;;;;;;;;;;;;
77,77.0,77.0,,it,,,,Trentino-Alto Adige,45.89108657836914,11.04336166381836,TN,22205;;;;;;;;;;;;;;;;
78,78.0,78.0,Rovereto,it,28,38068.0,Via Giuseppe Garibaldi,Trentino-Alto Adige,45.89018249511719,11.041335105895996,TN,22161;;;;;;;;;;;;;;;;
79,79.0,79.0,Rovereto,it,14,38068.0,Via delle Scuole,Trentino-Alto Adige,45.88995361328125,11.04220199584961,TN,22161;;;;;;;;;;;;;;;;
80,80.0,80.0,Rovereto,it,7,38068.0,Via della Croce,Trentino-Alto Adige,45.88996887207031,11.04133415222168,TN,22161;;;;;;;;;;;;;;;;
81,81.0,81.0,,it,,,,Trentino-Alto Adige,45.88912963867188,11.042221069335938,TN,22205;;;;;;;;;;;;;;;;
82,82.0,82.0,,it,,,,Trentino-Alto Adige,45.88837432861328,11.041534423828123,TN,22205;;;;;;;;;;;;;;;;
83,83.0,83.0,,it,,,,Trentino-Alto Adige,45.888519287109375,11.044824600219728,TN,22205;;;;;;;;;;;;;;;;
84,84.0,84.0,,it,,,,Trentino-Alto Adige,45.89102554321289,11.041471481323242,TN,22205;;;;;;;;;;;;;;;;
85,85.0,85.0,,it,,,,Trentino-Alto Adige,45.89107894897461,11.04373836517334,TN,22205;;;;;;;;;;;;;;;;
86,86.0,86.0,,it,,,,Trentino-Alto Adige,45.8858528137207,11.045780181884766,TN,22205;;;;;;;;;;;;;;;;
87,87.0,87.0,,it,,,,Trentino-Alto Adige,45.88587188720703,11.045747756958008,TN,22205;;;;;;;;;;;;;;;;
88,88.0,88.0,,it,,,,Trentino-Alto Adige,45.889286041259766,11.04222297668457,TN,22205;;;;;;;;;;;;;;;;
89,89.0,89.0,Rovereto,it,82/d,38068.0,Corso Antonio Rosmini,Trentino-Alto Adige,45.89076232910156,11.037881851196287,TN,22161;;;;;;;;;;;;;;;;
90,90.0,90.0,Rovereto,it,,38068.0,Viale Trento,Trentino-Alto Adige,45.90494918823242,11.040772438049316,TN,22161;;;;;;;;;;;;;;;;
91,91.0,91.0,Rovereto,it,20,,Piazza Malfatti,Trentino-Alto Adige,45.887794494628906,11.04454231262207,TN,22161;;;;;;;;;;;;;;;;
92,92.0,92.0,,it,,,,Trentino-Alto Adige,45.90833282470703,11.040472030639648,TN,22205;;;;;;;;;;;;;;;;
93,93.0,93.0,Rovereto,it,8,38068.0,Via Fortunato Zeni,Trentino-Alto Adige,45.89059448242188,11.032063484191896,TN,22161;;;;;;;;;;;;;;;;
94,94.0,94.0,Rovereto,it,77,38068.0,Viale Trento,Trentino-Alto Adige,45.90771484375,11.040985107421877,TN,22161;;;;;;;;;;;;;;;;
95,95.0,95.0,Rovereto,it,9,38068.0,Via Abetone,Trentino-Alto Adige,45.8890495300293,11.033533096313477,TN,22161;;;;;;;;;;;;;;;;
96,96.0,96.0,,it,,,,Trentino-Alto Adige,45.904052734375,11.03700828552246,TN,22205;;;;;;;;;;;;;;;;
97,97.0,97.0,,it,,,,Trentino-Alto Adige,45.82794570922852,11.050745964050291,TN,22205;;;;;;;;;;;;;;;;
98,98.0,98.0,,it,,,,Trentino-Alto Adige,45.82769775390625,11.05189609527588,TN,22205;;;;;;;;;;;;;;;;
99,99.0,99.0,,it,,,,Trentino-Alto Adige,45.81632995605469,11.053653717041016,TN,22205;;;;;;;;;;;;;;;;
100,100.0,100.0,,it,,,,Trentino-Alto Adige,45.81509017944336,11.056804656982422,TN,22205;;;;;;;;;;;;;;;;
101,101.0,101.0,,it,,,,Trentino-Alto Adige,45.84098434448242,11.046082496643066,TN,22205;;;;;;;;;;;;;;;;
102,102.0,102.0,Rovereto,it,8,38068.0,Piazza Malfatti,Trentino-Alto Adige,45.88800048828125,11.044631004333496,TN,22161;;;;;;;;;;;;;;;;
103,103.0,103.0,Rovereto,it,51,38068.0,Via Paganini,Trentino-Alto Adige,45.89183044433594,11.04212474822998,TN,22161;;;;;;;;;;;;;;;;
104,104.0,104.0,Rovereto,it,2/F,38068.0,Via Campagnole,Trentino-Alto Adige,45.88882827758789,11.03594970703125,TN,22161;;;;;;;;;;;;;;;;
105,105.0,105.0,Rovereto,it,9,38068.0,Via Roma,Trentino-Alto Adige,45.889923095703125,11.043506622314451,TN,22161;;;;;;;;;;;;;;;;
106,106.0,106.0,Rovereto,it,37,38068.0,Via Dante Alighieri,Trentino-Alto Adige,45.88804626464844,11.040311813354492,TN,22161;;;;;;;;;;;;;;;;
107,107.0,107.0,,it,,,,Trentino-Alto Adige,45.88631820678711,11.04631233215332,TN,22205;;;;;;;;;;;;;;;;
108,108.0,108.0,Rovereto,it,42,38068.0,Via Giosuè Carducci,Trentino-Alto Adige,45.88928985595703,11.041951179504396,TN,22161;;;;;;;;;;;;;;;;
109,109.0,109.0,,it,,,,Trentino-Alto Adige,45.8072395324707,11.058968544006348,TN,22205;;;;;;;;;;;;;;;;
110,110.0,110.0,Rovereto,it,12,38068.0,Piazza Malfatti,Trentino-Alto Adige,45.887813568115234,11.044767379760742,TN,22161;;;;;;;;;;;;;;;;
111,111.0,111.0,Rovereto,it,12,38068.0,Via Piomarta,Trentino-Alto Adige,45.8955307006836,11.039850234985352,TN,22161;;;;;;;;;;;;;;;;
112,112.0,112.0,,it,30,,Via Montecorno,Trentino-Alto Adige,45.89493560791016,11.038039207458496,TN,22205;;;;;;;;;;;;;;;;
113,113.0,113.0,Rovereto,it,18,38068.0,Via Azzolini,Trentino-Alto Adige,45.89554977416992,11.037134170532228,TN,22161;;;;;;;;;;;;;;;;
114,114.0,114.0,,it,,,,Trentino-Alto Adige,45.90307235717773,11.042699813842772,TN,22205;;;;;;;;;;;;;;;;
115,115.0,115.0,Rovereto,it,17/C,38068.0,Via Parteli,Trentino-Alto Adige,45.896278381347656,11.037278175354004,TN,22161;;;;;;;;;;;;;;;;
116,116.0,116.0,,it,,,,Trentino-Alto Adige,45.88691329956055,11.043563842773438,TN,22205;;;;;;;;;;;;;;;;
117,117.0,117.0,,it,,,,Trentino-Alto Adige,45.85226440429688,11.033066749572754,TN,22205;;;;;;;;;;;;;;;;
118,118.0,118.0,,it,,,,Trentino-Alto Adige,45.84255599975586,11.033524513244627,TN,22205;;;;;;;;;;;;;;;;
119,119.0,119.0,,it,,,,Trentino-Alto Adige,45.84506607055664,11.031564712524414,TN,22205;;;;;;;;;;;;;;;;
120,120.0,120.0,,it,,,,Trentino-Alto Adige,45.84507369995117,11.031442642211914,TN,22205;;;;;;;;;;;;;;;;
121,121.0,121.0,,it,,,,Trentino-Alto Adige,45.8476791381836,11.034431457519531,TN,22205;;;;;;;;;;;;;;;;
122,122.0,122.0,,it,,,,Trentino-Alto Adige,45.8497314453125,11.035041809082031,TN,22205;;;;;;;;;;;;;;;;
123,123.0,123.0,,it,,,,Trentino-Alto Adige,45.85065841674805,11.033910751342772,TN,22205;;;;;;;;;;;;;;;;
124,124.0,124.0,,it,,,,Trentino-Alto Adige,45.8507194519043,11.033164024353027,TN,22205;;;;;;;;;;;;;;;;
125,125.0,125.0,,it,,,,Trentino-Alto Adige,45.85161590576172,11.032987594604492,TN,22205;;;;;;;;;;;;;;;;
126,126.0,126.0,,it,,,,Trentino-Alto Adige,45.85204315185547,11.03319263458252,TN,22205;;;;;;;;;;;;;;;;
127,127.0,127.0,,it,,,,Trentino-Alto Adige,45.91127014160156,11.053194999694824,TN,22205;;;;;;;;;;;;;;;;
128,128.0,128.0,,it,,,,Trentino-Alto Adige,45.80731201171875,11.058351516723633,TN,22205;;;;;;;;;;;;;;;;
129,129.0,129.0,,it,,,,Trentino-Alto Adige,45.83642578125,11.050061225891112,TN,22205;;;;;;;;;;;;;;;;
130,130.0,130.0,Rovereto,it,67,38068.0,Via Giuseppe Garibaldi,Trentino-Alto Adige,45.89018630981445,11.040602684020996,TN,22161;;;;;;;;;;;;;;;;
131,131.0,131.0,,it,,,,Trentino-Alto Adige,45.900657653808594,11.041279792785645,TN,22205;;;;;;;;;;;;;;;;
132,132.0,132.0,,it,,,,Trentino-Alto Adige,45.89483642578125,11.086979866027832,TN,22205;;;;;;;;;;;;;;;;
133,133.0,133.0,,it,,,,Trentino-Alto Adige,45.88793563842773,11.055824279785156,TN,22205;;;;;;;;;;;;;;;;
134,134.0,134.0,Rovereto,it,4,38068.0,Scala del Redentore,Trentino-Alto Adige,45.887577056884766,11.045056343078612,TN,22161;;;;;;;;;;;;;;;;
135,135.0,135.0,,it,,,,Trentino-Alto Adige,45.84165573120117,11.048730850219728,TN,22205;;;;;;;;;;;;;;;;
136,136.0,136.0,,it,,,,Trentino-Alto Adige,45.86713790893555,11.02069854736328,TN,22205;;;;;;;;;;;;;;;;
137,137.0,137.0,,it,,,,Trentino-Alto Adige,45.86706161499024,11.020427703857422,TN,22205;;;;;;;;;;;;;;;;
138,138.0,138.0,,it,,,,Trentino-Alto Adige,45.89473724365234,11.044673919677734,TN,22205;;;;;;;;;;;;;;;;
139,139.0,139.0,,it,,,,Trentino-Alto Adige,45.89480209350586,11.044933319091797,TN,22205;;;;;;;;;;;;;;;;
140,140.0,140.0,,it,,,,Trentino-Alto Adige,45.89469528198242,11.044866561889648,TN,22205;;;;;;;;;;;;;;;;
141,141.0,141.0,,it,,,,Trentino-Alto Adige,45.89488983154297,11.044845581054688,TN,22205;;;;;;;;;;;;;;;;
142,142.0,142.0,,it,,,,Trentino-Alto Adige,45.89457702636719,11.04450798034668,TN,22205;;;;;;;;;;;;;;;;
143,143.0,143.0,,it,,,,Trentino-Alto Adige,45.89867401123047,11.042306900024414,TN,22205;;;;;;;;;;;;;;;;
144,144.0,144.0,,it,,,,Trentino-Alto Adige,45.89360427856445,11.035881042480469,TN,22205;;;;;;;;;;;;;;;;
145,145.0,145.0,,it,,,,Trentino-Alto Adige,45.89496612548828,11.038947105407717,TN,22205;;;;;;;;;;;;;;;;
146,146.0,146.0,Rovereto,it,3/b,38068.0,Via Metteo del Ben,Trentino-Alto Adige,45.89252853393555,11.03658676147461,TN,22161;;;;;;;;;;;;;;;;
147,147.0,147.0,,it,,,,Trentino-Alto Adige,45.90158081054688,11.046422004699709,TN,22205;;;;;;;;;;;;;;;;
148,148.0,148.0,,it,,,,Trentino-Alto Adige,45.900390625,11.045092582702637,TN,22205;;;;;;;;;;;;;;;;
149,149.0,149.0,,it,,,,Trentino-Alto Adige,45.90103912353516,11.045011520385742,TN,22205;;;;;;;;;;;;;;;;
150,150.0,150.0,,it,,,,Trentino-Alto Adige,45.89531707763672,11.026555061340332,TN,22205;;;;;;;;;;;;;;;;
151,151.0,151.0,,it,,,,Trentino-Alto Adige,45.88515472412109,11.046161651611328,TN,22205;;;;;;;;;;;;;;;;
152,152.0,152.0,Rovereto,it,44/0,38068.0,Via del Garda,Trentino-Alto Adige,45.86716079711914,11.012873649597168,TN,22161;;;;;;;;;;;;;;;;
153,153.0,153.0,,it,,,,Trentino-Alto Adige,45.867652893066406,11.013091087341309,TN,22205;;;;;;;;;;;;;;;;
154,154.0,154.0,Rovereto,it,44bis,38068.0,Via del Garda,Trentino-Alto Adige,45.86751174926758,11.012245178222656,TN,22161;;;;;;;;;;;;;;;;
155,155.0,155.0,,it,,,,Trentino-Alto Adige,45.8842887878418,11.033403396606444,TN,22205;;;;;;;;;;;;;;;;
156,156.0,156.0,Rovereto,it,42,,Via San Giorgio,Trentino-Alto Adige,45.9003791809082,11.03428554534912,TN,22161;;;;;;;;;;;;;;;;
157,157.0,157.0,,it,50,,Via Benacense,Trentino-Alto Adige,45.87820053100586,11.033763885498049,TN,22205;;;;;;;;;;;;;;;;
158,158.0,158.0,,it,,,,Trentino-Alto Adige,45.891090393066406,11.040419578552246,TN,22205;;;;;;;;;;;;;;;;
159,159.0,159.0,,it,,,,Trentino-Alto Adige,45.87607192993164,11.0989990234375,TN,22205;;;;;;;;;;;;;;;;
160,160.0,160.0,,it,,,,Trentino-Alto Adige,45.87969970703125,11.019882202148438,TN,22205;;;;;;;;;;;;;;;;
161,161.0,161.0,,it,,,,Trentino-Alto Adige,45.87739944458008,11.01810359954834,TN,22205;;;;;;;;;;;;;;;;
162,162.0,162.0,,it,,,,Trentino-Alto Adige,45.87752532958984,11.01820182800293,TN,22205;;;;;;;;;;;;;;;;
163,163.0,163.0,,it,,,,Trentino-Alto Adige,45.88151168823242,11.023289680480955,TN,22205;;;;;;;;;;;;;;;;
164,164.0,164.0,,it,,,,Trentino-Alto Adige,45.87960433959961,11.019805908203123,TN,22205;;;;;;;;;;;;;;;;
165,165.0,165.0,,it,,,,Trentino-Alto Adige,45.90039825439453,11.04024887084961,TN,22205;;;;;;;;;;;;;;;;
166,166.0,166.0,,it,13,38068.0,Via San Giovanni Bosco,Trentino-Alto Adige,45.89212417602539,11.041484832763672,TN,22205;;;;;;;;;;;;;;;;
167,167.0,167.0,,it,68/b,,Via Unione,Trentino-Alto Adige,45.893531799316406,11.027170181274414,TN,22205;;;;;;;;;;;;;;;;
168,168.0,168.0,,it,,,,Trentino-Alto Adige,45.888668060302734,11.016222953796388,TN,22205;;;;;;;;;;;;;;;;
169,169.0,169.0,,it,,,,Trentino-Alto Adige,45.88717269897461,11.030943870544434,TN,22205;;;;;;;;;;;;;;;;
170,170.0,170.0,,it,,,,Trentino-Alto Adige,45.88702392578125,11.03331184387207,TN,22205;;;;;;;;;;;;;;;;
171,171.0,171.0,,it,,,,Trentino-Alto Adige,45.88362884521485,11.02064323425293,TN,22205;;;;;;;;;;;;;;;;
172,172.0,172.0,,it,,,,Trentino-Alto Adige,45.88900375366211,11.033660888671877,TN,22205;;;;;;;;;;;;;;;;
173,173.0,173.0,,it,,,,Trentino-Alto Adige,45.85540771484375,11.048439025878906,TN,22205;;;;;;;;;;;;;;;;
174,174.0,174.0,,it,,,,Trentino-Alto Adige,45.848419189453125,11.003241539001465,TN,22205;;;;;;;;;;;;;;;;
175,175.0,175.0,,it,,,,Trentino-Alto Adige,45.84835433959961,11.003290176391602,TN,22205;;;;;;;;;;;;;;;;
176,176.0,176.0,,it,,,,Trentino-Alto Adige,45.85359573364258,11.034873008728027,TN,22205;;;;;;;;;;;;;;;;
177,177.0,177.0,,it,,,,Trentino-Alto Adige,45.853614807128906,11.034921646118164,TN,22205;;;;;;;;;;;;;;;;
178,178.0,178.0,,it,,,,Trentino-Alto Adige,45.85322189331055,11.03496551513672,TN,22205;;;;;;;;;;;;;;;;
179,179.0,179.0,,it,,,,Trentino-Alto Adige,45.85333633422852,11.034781455993652,TN,22205;;;;;;;;;;;;;;;;
180,180.0,180.0,,it,64,,Via delle Maioliche,Trentino-Alto Adige,45.882850646972656,11.036678314208984,TN,22205;;;;;;;;;;;;;;;;
181,181.0,181.0,,it,,,,Trentino-Alto Adige,45.90423583984375,11.052472114562988,TN,22205;;;;;;;;;;;;;;;;
182,182.0,182.0,,it,,,,Trentino-Alto Adige,45.902156829833984,11.05670166015625,TN,22205;;;;;;;;;;;;;;;;
183,183.0,183.0,,it,,,,Trentino-Alto Adige,45.90410614013672,11.052762031555176,TN,22205;;;;;;;;;;;;;;;;
184,184.0,184.0,Rovereto,it,17,38068.0,Vicolo dei Conciatori,Trentino-Alto Adige,45.88824844360352,11.042268753051758,TN,22161;;;;;;;;;;;;;;;;
185,185.0,185.0,,it,,,,Trentino-Alto Adige,45.89600372314453,11.030356407165527,TN,22205;;;;;;;;;;;;;;;;
186,186.0,186.0,,it,,,,Trentino-Alto Adige,45.89547348022461,11.087693214416504,TN,22205;;;;;;;;;;;;;;;;
187,187.0,187.0,,it,,,,Trentino-Alto Adige,45.90973663330078,11.054281234741213,TN,22205;;;;;;;;;;;;;;;;
188,188.0,188.0,,it,,,,Trentino-Alto Adige,45.90797805786133,11.052316665649414,TN,22205;;;;;;;;;;;;;;;;
189,189.0,189.0,,it,,,,Trentino-Alto Adige,45.90397644042969,11.03860092163086,TN,22205;;;;;;;;;;;;;;;;
190,190.0,190.0,,it,,,,Trentino-Alto Adige,45.904056549072266,11.038284301757812,TN,22205;;;;;;;;;;;;;;;;
191,191.0,191.0,Rovereto,it,43,38068.0,Corso Bettini,Trentino-Alto Adige,45.89414596557617,11.043793678283691,TN,22161;;;;;;;;;;;;;;;;
192,192.0,192.0,,it,,,,Trentino-Alto Adige,45.87702560424805,11.017799377441406,TN,22205;;;;;;;;;;;;;;;;
193,193.0,193.0,Rovereto,it,,38068.0,,Trentino-Alto Adige,45.877960205078125,11.086078643798828,TN,22161;;;;;;;;;;;;;;;;
194,194.0,194.0,,it,2,38068.0,Via Valbusa Grande,Trentino-Alto Adige,45.88949203491211,11.04482364654541,TN,22205;;;;;;;;;;;;;;;;
195,195.0,195.0,Rovereto,it,7/A,38068.0,Via delle Zigherane,Trentino-Alto Adige,45.88053998811196,11.022060015714745,TN,22161;;;;;;;;;;;;;;;;
196,196.0,196.0,Rovereto,it,61,38068.0,Corso Antonio Rosmini,Trentino-Alto Adige,45.89102998184555,11.038249996974258,TN,22161;;;;;;;;;;;;;;;;
197,197.0,197.0,Rovereto,it,28,38068.0,Via Silvio Pellico,Trentino-Alto Adige,45.90573066917486,11.042396096085165,TN,22161;;;;;;;;;;;;;;;;
198,198.0,198.0,Rovereto,it,22,38068.0,Via Giacomo Puccini,Trentino-Alto Adige,45.904430004723565,11.044220007510944,TN,22161;;;;;;;;;;;;;;;;
199,199.0,199.0,Rovereto,it,4,38068.0,Via del Teatro,Trentino-Alto Adige,45.893250012720586,11.041850024388111,TN,22161;;;;;;;;;;;;;;;;
200,200.0,200.0,Rovereto,it,175,38068.0,Via Del Garda,Trentino-Alto Adige,45.86951398485317,11.015513858306276,TN,22161;;;;;;;;;;;;;;;;
201,201.0,201.0,Rovereto,it,40,38068.0,Strada degli Artiglieri,Trentino-Alto Adige,45.86190999292859,11.039499990194798,TN,22161;;;;;;;;;;;;;;;;
202,202.0,202.0,Rovereto,it,86,38068.0,Corso Bettini,Trentino-Alto Adige,45.89589001885423,11.043200013713545,TN,22161;;;;;;;;;;;;;;;;
203,203.0,203.0,Rovereto,it,71,38068.0,Corso Bettini,Trentino-Alto Adige,45.89686998906399,11.043330017031792,TN,22161;;;;;;;;;;;;;;;;
204,204.0,204.0,,it,,,,Trentino-Alto Adige,46.07182693481445,11.14046859741211,TN,22205;;;;;;;;;;;;;;;;
205,205.0,205.0,Trento,it,2,,Via del Lavaron,Trentino-Alto Adige,46.10961151123047,11.140262603759766,TN,22205;;;;;;;;;;;;;;;;
206,206.0,206.0,,it,,,,Trentino-Alto Adige,46.0457878112793,11.133090019226074,TN,22205;;;;;;;;;;;;;;;;
207,207.0,207.0,,it,,,,Trentino-Alto Adige,46.06376266479492,11.128729820251465,TN,22205;;;;;;;;;;;;;;;;
208,208.0,208.0,,it,,,,Trentino-Alto Adige,46.07389068603516,11.150733947753906,TN,22205;;;;;;;;;;;;;;;;
209,209.0,209.0,,it,,,,Trentino-Alto Adige,46.04878234863281,11.145864486694336,TN,22205;;;;;;;;;;;;;;;;
210,210.0,210.0,Trento,it,18,38122.0,Piazza del Duomo,Trentino-Alto Adige,46.06748580932617,11.12187957763672,TN,22205;;;;;;;;;;;;;;;;
211,211.0,211.0,Trento,it,40,38122.0,Piazza del Duomo,Trentino-Alto Adige,46.06772613525391,11.121012687683104,TN,22205;;;;;;;;;;;;;;;;
212,212.0,212.0,Trento,it,1,38122.0,Piazza Mario Pasi,Trentino-Alto Adige,46.067752838134766,11.12206745147705,TN,22205;;;;;;;;;;;;;;;;
213,213.0,213.0,Trento,it,8,38122.0,Via Roggia Grande,Trentino-Alto Adige,46.0674057006836,11.12438678741455,TN,22205;;;;;;;;;;;;;;;;
214,214.0,214.0,,it,,,,Trentino-Alto Adige,46.0672721862793,11.12564182281494,TN,22205;;;;;;;;;;;;;;;;
215,215.0,215.0,Trento,it,29,38122.0,Via Calepina,Trentino-Alto Adige,46.06711196899414,11.124260902404783,TN,22205;;;;;;;;;;;;;;;;
216,216.0,216.0,Trento,it,10,38122.0,Via Santissima Trinitá,Trentino-Alto Adige,46.06626510620117,11.122992515563965,TN,22205;;;;;;;;;;;;;;;;
217,217.0,217.0,Trento,it,2,38122.0,Via Roccabruna,Trentino-Alto Adige,46.0665283203125,11.123342514038086,TN,22205;;;;;;;;;;;;;;;;
218,218.0,218.0,Trento,it,15,38122.0,Piazza Giovanni Battista Garzetti,Trentino-Alto Adige,46.06597518920898,11.12388038635254,TN,22205;;;;;;;;;;;;;;;;
219,219.0,219.0,Trento,it,20,38122.0,Prima Androna di Borgo Nuovo,Trentino-Alto Adige,46.06583023071289,11.123634338378906,TN,22205;;;;;;;;;;;;;;;;
220,220.0,220.0,Trento,it,5,38122.0,Piazza Giovanni Battista Garzetti,Trentino-Alto Adige,46.06562423706055,11.12449550628662,TN,22205;;;;;;;;;;;;;;;;
221,221.0,221.0,Trento,it,11,38122.0,Largo Porta Nuova,Trentino-Alto Adige,46.06755828857422,11.126537322998049,TN,22205;;;;;;;;;;;;;;;;
222,222.0,222.0,Trento,it,2/2,38122.0,Via Francesco Ferruccio,Trentino-Alto Adige,46.06881332397461,11.126178741455078,TN,22205;;;;;;;;;;;;;;;;
223,223.0,223.0,,it,,,,Trentino-Alto Adige,46.05666732788086,11.119877815246582,TN,22205;;;;;;;;;;;;;;;;
224,224.0,224.0,,it,,,,Trentino-Alto Adige,46.04372024536133,11.039022445678713,TN,22205;;;;;;;;;;;;;;;;
225,225.0,225.0,,it,,,,Trentino-Alto Adige,46.121952056884766,11.105649948120115,TN,22205;;;;;;;;;;;;;;;;
226,226.0,226.0,,it,,,,Trentino-Alto Adige,46.0694580078125,11.123644828796388,TN,22205;;;;;;;;;;;;;;;;
227,227.0,227.0,,it,,,,Trentino-Alto Adige,46.0698356628418,11.12405490875244,TN,22205;;;;;;;;;;;;;;;;
228,228.0,228.0,,it,,,,Trentino-Alto Adige,46.07341003417969,11.126572608947754,TN,22205;;;;;;;;;;;;;;;;
229,229.0,229.0,Trento,it,103,38122.0,Via della Malvasia,Trentino-Alto Adige,46.07523727416992,11.125131607055664,TN,22205;;;;;;;;;;;;;;;;
230,230.0,230.0,Trento,it,13,38122.0,Piazza di Fiera,Trentino-Alto Adige,46.06476974487305,11.1234130859375,TN,22205;;;;;;;;;;;;;;;;
231,231.0,231.0,Trento,it,16,38122.0,Via Santa Croce,Trentino-Alto Adige,46.06447982788086,11.123230934143066,TN,22205;;;;;;;;;;;;;;;;
232,232.0,232.0,Trento,it,92,38122.0,Via del Suffragio,Trentino-Alto Adige,46.07072830200195,11.124653816223145,TN,22205;;;;;;;;;;;;;;;;
233,233.0,233.0,,it,,,,Trentino-Alto Adige,46.06576156616211,11.136981010437012,TN,22205;;;;;;;;;;;;;;;;
234,234.0,234.0,,it,,,,Trentino-Alto Adige,46.01945877075195,11.105284690856934,TN,22205;;;;;;;;;;;;;;;;
235,235.0,235.0,,it,,,,Trentino-Alto Adige,46.07114791870117,11.185904502868652,TN,22205;;;;;;;;;;;;;;;;
236,236.0,236.0,,it,,,,Trentino-Alto Adige,46.01973342895508,11.108115196228027,TN,22205;;;;;;;;;;;;;;;;
237,237.0,237.0,,it,,,,Trentino-Alto Adige,46.01673126220703,11.107073783874512,TN,22205;;;;;;;;;;;;;;;;
238,238.0,238.0,,it,,,,Trentino-Alto Adige,46.01179504394531,11.105475425720217,TN,22205;;;;;;;;;;;;;;;;
239,239.0,239.0,,it,,,,Trentino-Alto Adige,46.01573944091797,11.105806350708008,TN,22205;;;;;;;;;;;;;;;;
240,240.0,240.0,,it,,,,Trentino-Alto Adige,46.0178337097168,11.10744571685791,TN,22205;;;;;;;;;;;;;;;;
241,241.0,241.0,,it,,,,Trentino-Alto Adige,46.01913070678711,11.104949951171877,TN,22205;;;;;;;;;;;;;;;;
242,242.0,242.0,,it,,,,Trentino-Alto Adige,46.0709114074707,11.189905166625977,TN,22205;;;;;;;;;;;;;;;;
243,243.0,243.0,,it,,,,Trentino-Alto Adige,46.067474365234375,11.184715270996094,TN,22205;;;;;;;;;;;;;;;;
244,244.0,244.0,,it,,,,Trentino-Alto Adige,46.06622695922852,11.156039237976074,TN,22205;;;;;;;;;;;;;;;;
245,245.0,245.0,,it,,,,Trentino-Alto Adige,46.01767349243164,11.105069160461426,TN,22205;;;;;;;;;;;;;;;;
246,246.0,246.0,,it,,,,Trentino-Alto Adige,46.09129333496094,11.166438102722168,TN,22205;;;;;;;;;;;;;;;;
247,247.0,247.0,,it,,,,Trentino-Alto Adige,46.13203430175781,11.141654014587402,TN,22205;;;;;;;;;;;;;;;;
248,248.0,248.0,,it,,,,Trentino-Alto Adige,46.131797790527344,11.141878128051758,TN,22205;;;;;;;;;;;;;;;;
249,249.0,249.0,Trento,it,10,38123.0,Via Sommarive,Trentino-Alto Adige,46.06475830078125,11.150452613830566,TN,22205;;;;;;;;;;;;;;;;
250,250.0,250.0,Povo,it,14,38123.0,Piazza Giannatonio Manci,Trentino-Alto Adige,46.06612396240234,11.15481948852539,TN,22205;;;;;;;;;;;;;;;;
251,251.0,251.0,,it,,,,Trentino-Alto Adige,46.06029891967773,11.158148765563965,TN,22205;;;;;;;;;;;;;;;;
252,252.0,252.0,,it,,,,Trentino-Alto Adige,46.02384948730469,11.180241584777832,TN,22205;;;;;;;;;;;;;;;;
253,253.0,253.0,Cognola,it,2,38122.0,Piazza dell'Argentario,Trentino-Alto Adige,46.07697296142578,11.141749382019045,TN,22205;;;;;;;;;;;;;;;;
254,254.0,254.0,Trento,it,36,38121.0,Via San Vito,Trentino-Alto Adige,46.07527160644531,11.13790225982666,TN,22205;;;;;;;;;;;;;;;;
255,255.0,255.0,,it,,,,Trentino-Alto Adige,46.0760498046875,11.146743774414062,TN,22205;;;;;;;;;;;;;;;;
256,256.0,256.0,,it,,,,Trentino-Alto Adige,46.06932067871094,11.075325965881348,TN,22205;;;;;;;;;;;;;;;;
257,257.0,257.0,,it,,,,Trentino-Alto Adige,46.05065536499024,11.069311141967772,TN,22205;;;;;;;;;;;;;;;;
258,258.0,258.0,,it,,,,Trentino-Alto Adige,46.05016326904297,11.067954063415527,TN,22205;;;;;;;;;;;;;;;;
259,259.0,259.0,,it,,,,Trentino-Alto Adige,46.04823303222656,11.065044403076172,TN,22205;;;;;;;;;;;;;;;;
260,260.0,260.0,,it,,,,Trentino-Alto Adige,46.0429573059082,11.06399917602539,TN,22205;;;;;;;;;;;;;;;;
261,261.0,261.0,,it,,,,Trentino-Alto Adige,46.04452896118164,11.06091022491455,TN,22205;;;;;;;;;;;;;;;;
262,262.0,262.0,,it,,,,Trentino-Alto Adige,46.041542053222656,11.06017780303955,TN,22205;;;;;;;;;;;;;;;;
263,263.0,263.0,,it,,,,Trentino-Alto Adige,46.06504440307617,11.041987419128418,TN,22205;;;;;;;;;;;;;;;;
264,264.0,264.0,,it,,,,Trentino-Alto Adige,46.089115142822266,11.131258964538574,TN,22205;;;;;;;;;;;;;;;;
265,265.0,265.0,Martignano,it,12/6,38121.0,Via ai Bolleri,Trentino-Alto Adige,46.093971252441406,11.130589485168455,TN,22205;;;;;;;;;;;;;;;;
266,266.0,266.0,,it,,,,Trentino-Alto Adige,45.9627571105957,11.01158046722412,TN,22205;;;;;;;;;;;;;;;;
267,267.0,267.0,,it,,,,Trentino-Alto Adige,45.97666931152344,11.15127658843994,TN,22205;;;;;;;;;;;;;;;;
268,268.0,268.0,,it,,,,Trentino-Alto Adige,46.06135940551758,11.150179862976074,TN,22205;;;;;;;;;;;;;;;;
269,269.0,269.0,Trento,it,52,38122.0,Via Torre Verde,Trentino-Alto Adige,46.07114410400391,11.124173164367676,TN,22205;;;;;;;;;;;;;;;;
270,270.0,270.0,,it,,,,Trentino-Alto Adige,46.08648300170898,11.121068000793455,TN,22205;;;;;;;;;;;;;;;;
271,271.0,271.0,Trento,it,36,38121.0,Via dei Solteri,Trentino-Alto Adige,46.08723068237305,11.12135887145996,TN,22205;;;;;;;;;;;;;;;;
272,272.0,272.0,,it,,,,Trentino-Alto Adige,46.04070281982422,11.154743194580078,TN,22205;;;;;;;;;;;;;;;;
273,273.0,273.0,,it,,,,Trentino-Alto Adige,46.0540885925293,11.169154167175291,TN,22205;;;;;;;;;;;;;;;;
274,274.0,274.0,,it,,,,Trentino-Alto Adige,46.091434478759766,11.160911560058594,TN,22205;;;;;;;;;;;;;;;;
275,275.0,275.0,,it,,,,Trentino-Alto Adige,46.07389068603516,11.184059143066406,TN,22205;;;;;;;;;;;;;;;;
276,276.0,276.0,,it,,,,Trentino-Alto Adige,46.04288101196289,11.180010795593262,TN,22205;;;;;;;;;;;;;;;;
277,277.0,277.0,,it,71,,Via alla Ca,Trentino-Alto Adige,46.06456756591797,11.095208168029783,TN,22205;;;;;;;;;;;;;;;;
278,278.0,278.0,,it,,,,Trentino-Alto Adige,46.0532455444336,11.181929588317873,TN,22205;;;;;;;;;;;;;;;;
279,279.0,279.0,,it,,,,Trentino-Alto Adige,46.04315185546875,11.037962913513184,TN,22205;;;;;;;;;;;;;;;;
280,280.0,280.0,Trento,it,,38122.0,Largo Medaglie d'Oro,Trentino-Alto Adige,46.05796813964844,11.132525444030762,TN,22205;;;;;;;;;;;;;;;;
281,281.0,281.0,,it,,,,Trentino-Alto Adige,46.044918060302734,11.128463745117188,TN,22205;;;;;;;;;;;;;;;;
282,282.0,282.0,,it,,,,Trentino-Alto Adige,46.04830932617188,11.12391757965088,TN,22205;;;;;;;;;;;;;;;;
283,283.0,283.0,Trento,it,2/1,38123.0,Via la Clarina,Trentino-Alto Adige,46.05174255371094,11.127649307250977,TN,22205;;;;;;;;;;;;;;;;
284,284.0,284.0,,it,,,,Trentino-Alto Adige,46.04923629760742,11.1295804977417,TN,22205;;;;;;;;;;;;;;;;
285,285.0,285.0,,it,,,,Trentino-Alto Adige,46.04821014404297,11.12411880493164,TN,22205;;;;;;;;;;;;;;;;
286,286.0,286.0,Trento,it,9,38123.0,Via Enrico Fermi,Trentino-Alto Adige,46.047508239746094,11.126131057739258,TN,22205;;;;;;;;;;;;;;;;
287,287.0,287.0,Trento,it,62,38122.0,Via Gocciadoro,Trentino-Alto Adige,46.05600357055664,11.131473541259766,TN,22205;;;;;;;;;;;;;;;;
288,288.0,288.0,Trento,it,73,38123.0,Viale Verona,Trentino-Alto Adige,46.05632019042969,11.128761291503906,TN,22205;;;;;;;;;;;;;;;;
289,289.0,289.0,Trento,it,14,38123.0,Piazza Perini Quintilio,Trentino-Alto Adige,46.00675582885742,11.12857723236084,TN,22205;;;;;;;;;;;;;;;;
290,290.0,290.0,Trento,it,33/1,38122.0,Via Rodolfo Belenzani,Trentino-Alto Adige,46.06840133666992,11.121418952941896,TN,22205;;;;;;;;;;;;;;;;
291,291.0,291.0,,it,24,,Piazza Dante,Trentino-Alto Adige,46.07036972045898,11.12121295928955,TN,22205;;;;;;;;;;;;;;;;
292,292.0,292.0,Trento,it,36/2,38122.0,Via San Giovanni,Trentino-Alto Adige,46.06892776489258,11.119061470031738,TN,22205;;;;;;;;;;;;;;;;
293,293.0,293.0,Trento,it,15,38122.0,Via Prepositura,Trentino-Alto Adige,46.06907653808594,11.118671417236328,TN,22205;;;;;;;;;;;;;;;;
294,294.0,294.0,Trento,it,48,38122.0,Via Roma,Trentino-Alto Adige,46.06947708129883,11.119979858398438,TN,22205;;;;;;;;;;;;;;;;
295,295.0,295.0,Trento,it,86,38122.0,Via Giannantonio Manci,Trentino-Alto Adige,46.06991195678711,11.124310493469238,TN,22205;;;;;;;;;;;;;;;;
296,296.0,296.0,Trento,it,16,38123.0,Piazzale Europa,Trentino-Alto Adige,46.04060363769531,11.13290309906006,TN,22205;;;;;;;;;;;;;;;;
297,297.0,297.0,Trento,it,29,38121.0,Via Antonio Stoppani,Trentino-Alto Adige,46.07734680175781,11.120283126831056,TN,22205;;;;;;;;;;;;;;;;
298,298.0,298.0,,it,,,,Trentino-Alto Adige,46.07101058959961,11.117009162902832,TN,22205;;;;;;;;;;;;;;;;
299,299.0,299.0,Trento,it,39/4,38123.0,Via Roberto da Sanseverino,Trentino-Alto Adige,46.06499481201172,11.114105224609377,TN,22205;;;;;;;;;;;;;;;;
300,300.0,300.0,Trento,it,15/B,38122.0,Via Giuseppe Verdi,Trentino-Alto Adige,46.06657028198242,11.117168426513672,TN,22205;;;;;;;;;;;;;;;;
301,301.0,301.0,Trento,it,1,38122.0,Via degli Orti,Trentino-Alto Adige,46.06574249267578,11.121244430541992,TN,22205;;;;;;;;;;;;;;;;
302,302.0,302.0,Trento,it,19,38122.0,Via degli Orti,Trentino-Alto Adige,46.06558609008789,11.12226676940918,TN,22205;;;;;;;;;;;;;;;;
303,303.0,303.0,,it,148,,Via Milano,Trentino-Alto Adige,46.06357192993164,11.131049156188965,TN,22205;;;;;;;;;;;;;;;;
304,304.0,304.0,Trento,it,48,38122.0,Via Santa Croce,Trentino-Alto Adige,46.06398391723633,11.123347282409668,TN,22205;;;;;;;;;;;;;;;;
305,305.0,305.0,Trento,it,100,38121.0,Via Giambattista Unterveger,Trentino-Alto Adige,46.09454345703125,11.109881401062012,TN,22205;;;;;;;;;;;;;;;;
306,306.0,306.0,,it,,,,Trentino-Alto Adige,46.03774642944336,11.10538101196289,TN,22205;;;;;;;;;;;;;;;;
307,307.0,307.0,,it,,,,Trentino-Alto Adige,46.03452301025391,11.153945922851562,TN,22205;;;;;;;;;;;;;;;;
308,308.0,308.0,,it,,,,Trentino-Alto Adige,46.03913879394531,11.154175758361816,TN,22205;;;;;;;;;;;;;;;;
309,309.0,309.0,,it,,,,Trentino-Alto Adige,46.04104232788086,11.155292510986328,TN,22205;;;;;;;;;;;;;;;;
310,310.0,310.0,Trento,it,25,38122.0,Largo Giosuè Carducci,Trentino-Alto Adige,46.06843566894531,11.124621391296388,TN,22205;;;;;;;;;;;;;;;;
311,311.0,311.0,Trento,it,41,38122.0,Via Paolo Oss Mazzurana,Trentino-Alto Adige,46.06891632080078,11.122626304626465,TN,22205;;;;;;;;;;;;;;;;
312,312.0,312.0,,it,,,,Trentino-Alto Adige,46.04746627807617,11.145161628723145,TN,22205;;;;;;;;;;;;;;;;
313,313.0,313.0,Trento,it,40,,Via Mesiano,Trentino-Alto Adige,46.06680679321289,11.140582084655762,TN,22205;;;;;;;;;;;;;;;;
314,314.0,314.0,,it,,,,Trentino-Alto Adige,46.07175827026367,11.113531112670898,TN,22205;;;;;;;;;;;;;;;;
315,315.0,315.0,,it,,,,Trentino-Alto Adige,46.02056503295898,11.04226016998291,TN,22205;;;;;;;;;;;;;;;;
316,316.0,316.0,,it,,,,Trentino-Alto Adige,46.04524993896485,11.14963722229004,TN,22205;;;;;;;;;;;;;;;;
317,317.0,317.0,,it,,,,Trentino-Alto Adige,46.02312469482422,11.038593292236328,TN,22205;;;;;;;;;;;;;;;;
318,318.0,318.0,Trento,it,1,38122.0,Piazza Santa Teresa Verzeri,Trentino-Alto Adige,46.06757736206055,11.120266914367676,TN,22205;;;;;;;;;;;;;;;;
319,319.0,319.0,,it,,,,Trentino-Alto Adige,46.07609939575195,11.124073028564451,TN,22205;;;;;;;;;;;;;;;;
320,320.0,320.0,,it,,,,Trentino-Alto Adige,46.05375289916992,11.169840812683104,TN,22205;;;;;;;;;;;;;;;;
321,321.0,321.0,,it,,,,Trentino-Alto Adige,46.05204391479492,11.170937538146973,TN,22205;;;;;;;;;;;;;;;;
322,322.0,322.0,,it,,,,Trentino-Alto Adige,46.04172134399414,11.181706428527832,TN,22205;;;;;;;;;;;;;;;;
323,323.0,323.0,,it,,,,Trentino-Alto Adige,46.04840087890625,11.183282852172852,TN,22205;;;;;;;;;;;;;;;;
324,324.0,324.0,,it,,,,Trentino-Alto Adige,46.04999923706055,11.18496799468994,TN,22205;;;;;;;;;;;;;;;;
325,325.0,325.0,,it,,,,Trentino-Alto Adige,46.050907135009766,11.184489250183104,TN,22205;;;;;;;;;;;;;;;;
326,326.0,326.0,,it,,,,Trentino-Alto Adige,46.051029205322266,11.185395240783691,TN,22205;;;;;;;;;;;;;;;;
327,327.0,327.0,,it,,,,Trentino-Alto Adige,46.04447555541992,11.033751487731934,TN,22205;;;;;;;;;;;;;;;;
328,328.0,328.0,,it,,,,Trentino-Alto Adige,46.04497909545898,11.034229278564451,TN,22205;;;;;;;;;;;;;;;;
329,329.0,329.0,,it,,,,Trentino-Alto Adige,46.045188903808594,11.034136772155762,TN,22205;;;;;;;;;;;;;;;;
330,330.0,330.0,,it,,,,Trentino-Alto Adige,46.04179763793945,11.037330627441406,TN,22205;;;;;;;;;;;;;;;;
331,331.0,331.0,,it,,,,Trentino-Alto Adige,46.043060302734375,11.038509368896484,TN,22205;;;;;;;;;;;;;;;;
332,332.0,332.0,,it,,,,Trentino-Alto Adige,46.04376983642578,11.038569450378418,TN,22205;;;;;;;;;;;;;;;;
333,333.0,333.0,,it,,,,Trentino-Alto Adige,46.046993255615234,11.04308795928955,TN,22205;;;;;;;;;;;;;;;;
334,334.0,334.0,,it,,,,Trentino-Alto Adige,46.05400466918945,11.041089057922363,TN,22205;;;;;;;;;;;;;;;;
335,335.0,335.0,,it,,,,Trentino-Alto Adige,46.05064010620117,11.046772956848145,TN,22205;;;;;;;;;;;;;;;;
336,336.0,336.0,,it,,,,Trentino-Alto Adige,46.05653381347656,11.061649322509766,TN,22205;;;;;;;;;;;;;;;;
337,337.0,337.0,Trento,it,1,38122.0,Via dei Ventuno,Trentino-Alto Adige,46.06982803344727,11.127410888671877,TN,22205;;;;;;;;;;;;;;;;
338,338.0,338.0,,it,,,,Trentino-Alto Adige,46.054290771484375,11.13302230834961,TN,22205;;;;;;;;;;;;;;;;
339,339.0,339.0,,it,,,,Trentino-Alto Adige,46.047393798828125,11.087862014770508,TN,22205;;;;;;;;;;;;;;;;
340,340.0,340.0,Trento,it,29,38122.0,Via Torre Verde,Trentino-Alto Adige,46.07195663452149,11.12444019317627,TN,22205;;;;;;;;;;;;;;;;
341,341.0,341.0,,it,,,,Trentino-Alto Adige,46.06414031982422,11.14805507659912,TN,22205;;;;;;;;;;;;;;;;
342,342.0,342.0,,it,,,,Trentino-Alto Adige,46.06196594238281,11.151573181152344,TN,22205;;;;;;;;;;;;;;;;
343,343.0,343.0,,it,,,,Trentino-Alto Adige,46.06731414794922,11.165980339050291,TN,22205;;;;;;;;;;;;;;;;
344,344.0,344.0,,it,,,,Trentino-Alto Adige,46.06787872314453,11.123148918151855,TN,22205;;;;;;;;;;;;;;;;
345,345.0,345.0,Trento,it,4,38122.0,Via delle Orne,Trentino-Alto Adige,46.06884002685547,11.121569633483888,TN,22205;;;;;;;;;;;;;;;;
346,346.0,346.0,Trento,it,5,38122.0,Via delle Orfane,Trentino-Alto Adige,46.06925964355469,11.120014190673828,TN,22205;;;;;;;;;;;;;;;;
347,347.0,347.0,Trento,it,34,38122.0,Piazza del Duomo,Trentino-Alto Adige,46.06754684448242,11.120908737182615,TN,22205;;;;;;;;;;;;;;;;
348,348.0,348.0,,it,,,,Trentino-Alto Adige,46.068336486816406,11.119847297668455,TN,22205;;;;;;;;;;;;;;;;
349,349.0,349.0,Trento,it,4,38122.0,Vicolo Colico,Trentino-Alto Adige,46.06868362426758,11.120248794555664,TN,22205;;;;;;;;;;;;;;;;
350,350.0,350.0,Trento,it,11/1,38122.0,Via Don Giovanni Battista Zanella,Trentino-Alto Adige,46.06745529174805,11.117881774902344,TN,22205;;;;;;;;;;;;;;;;
351,351.0,351.0,Trento,it,77,38122.0,Via Giuseppe Verdi,Trentino-Alto Adige,46.06692123413086,11.12063694000244,TN,22205;;;;;;;;;;;;;;;;
352,352.0,352.0,,it,,,,Trentino-Alto Adige,46.07182693481445,11.119355201721191,TN,22205;;;;;;;;;;;;;;;;
353,353.0,353.0,Trento,it,17,38122.0,Via delle Orfane,Trentino-Alto Adige,46.06893539428711,11.120061874389648,TN,22205;;;;;;;;;;;;;;;;
354,354.0,354.0,Trento,it,34,38122.0,Via del Travai,Trentino-Alto Adige,46.06449890136719,11.12119483947754,TN,22205;;;;;;;;;;;;;;;;
355,355.0,355.0,,it,,,,Trentino-Alto Adige,46.070194244384766,11.125069618225098,TN,22205;;;;;;;;;;;;;;;;
356,356.0,356.0,,it,,,,Trentino-Alto Adige,46.07305145263672,11.113516807556152,TN,22205;;;;;;;;;;;;;;;;
357,357.0,357.0,,it,,,,Trentino-Alto Adige,46.06515502929688,11.102514266967772,TN,22205;;;;;;;;;;;;;;;;
358,358.0,358.0,,it,,,,Trentino-Alto Adige,46.06778717041016,11.121268272399902,TN,22205;;;;;;;;;;;;;;;;
359,359.0,359.0,Trento,it,76,38122.0,Via Rodolfo Belenzani,Trentino-Alto Adige,46.06786346435547,11.121313095092772,TN,22205;;;;;;;;;;;;;;;;
360,360.0,360.0,,it,,,,Trentino-Alto Adige,46.06794738769531,11.121254920959473,TN,22205;;;;;;;;;;;;;;;;
361,361.0,361.0,Trento,it,20,38122.0,Via Malpaga,Trentino-Alto Adige,46.06850814819336,11.123405456542969,TN,22205;;;;;;;;;;;;;;;;
362,362.0,362.0,Trento,it,6,38122.0,Vicolo San Marco,Trentino-Alto Adige,46.06977081298828,11.125435829162598,TN,22205;;;;;;;;;;;;;;;;
363,363.0,363.0,Trento,it,13,38122.0,Piazza della Mostra,Trentino-Alto Adige,46.07109832763672,11.125843048095703,TN,22205;;;;;;;;;;;;;;;;
364,364.0,364.0,,it,,,,Trentino-Alto Adige,46.09039306640625,11.087020874023438,TN,22205;;;;;;;;;;;;;;;;
365,365.0,365.0,Trento,it,21,38122.0,Via Rodolfo Belenzani,Trentino-Alto Adige,46.06881332397461,11.121342658996582,TN,22205;;;;;;;;;;;;;;;;
366,366.0,366.0,Trento,it,14,38122.0,Via del Simonino,Trentino-Alto Adige,46.06853485107422,11.123724937438965,TN,22205;;;;;;;;;;;;;;;;
367,367.0,367.0,,it,,,,Trentino-Alto Adige,46.07429122924805,11.135143280029297,TN,22205;;;;;;;;;;;;;;;;
368,368.0,368.0,Trento,it,65,38122.0,Via alle Laste,Trentino-Alto Adige,46.07369995117188,11.134199142456056,TN,22205;;;;;;;;;;;;;;;;
369,369.0,369.0,,it,,,,Trentino-Alto Adige,46.07231140136719,11.077422142028809,TN,22205;;;;;;;;;;;;;;;;
370,370.0,370.0,,it,,,,Trentino-Alto Adige,46.07100677490234,11.122320175170898,TN,22205;;;;;;;;;;;;;;;;
371,371.0,371.0,,it,,,,Trentino-Alto Adige,46.03388595581055,11.138250350952148,TN,22205;;;;;;;;;;;;;;;;
372,372.0,372.0,,it,,,,Trentino-Alto Adige,46.03240966796875,11.13936710357666,TN,22205;;;;;;;;;;;;;;;;
373,373.0,373.0,,it,,,,Trentino-Alto Adige,46.03423690795898,11.141754150390623,TN,22205;;;;;;;;;;;;;;;;
374,374.0,374.0,,it,,,,Trentino-Alto Adige,46.03108978271485,11.186412811279297,TN,22205;;;;;;;;;;;;;;;;
375,375.0,375.0,,it,,,,Trentino-Alto Adige,46.03184509277344,11.18777561187744,TN,22205;;;;;;;;;;;;;;;;
376,376.0,376.0,,it,,,,Trentino-Alto Adige,46.07189178466797,11.162327766418455,TN,22205;;;;;;;;;;;;;;;;
377,377.0,377.0,,it,,,,Trentino-Alto Adige,46.07602691650391,11.12334442138672,TN,22205;;;;;;;;;;;;;;;;
378,378.0,378.0,,it,,,,Trentino-Alto Adige,46.09624099731445,11.130300521850586,TN,22205;;;;;;;;;;;;;;;;
379,379.0,379.0,,it,,,,Trentino-Alto Adige,46.09640121459961,11.130080223083496,TN,22205;;;;;;;;;;;;;;;;
380,380.0,380.0,,it,,,,Trentino-Alto Adige,46.099369049072266,11.132895469665527,TN,22205;;;;;;;;;;;;;;;;
381,381.0,381.0,,it,,,,Trentino-Alto Adige,46.0996208190918,11.132919311523438,TN,22205;;;;;;;;;;;;;;;;
382,382.0,382.0,,it,,,,Trentino-Alto Adige,46.09979248046875,11.139825820922852,TN,22205;;;;;;;;;;;;;;;;
383,383.0,383.0,,it,,,,Trentino-Alto Adige,46.09864044189453,11.142087936401367,TN,22205;;;;;;;;;;;;;;;;
384,384.0,384.0,,it,,,,Trentino-Alto Adige,46.099491119384766,11.144087791442873,TN,22205;;;;;;;;;;;;;;;;
385,385.0,385.0,,it,,,,Trentino-Alto Adige,46.090065002441406,11.123714447021484,TN,22205;;;;;;;;;;;;;;;;
386,386.0,386.0,,it,,,,Trentino-Alto Adige,46.09196090698242,11.124109268188477,TN,22205;;;;;;;;;;;;;;;;
387,387.0,387.0,,it,,,,Trentino-Alto Adige,46.07950210571289,11.114675521850586,TN,22205;;;;;;;;;;;;;;;;
388,388.0,388.0,,it,,,,Trentino-Alto Adige,46.09606552124024,11.128417015075684,TN,22205;;;;;;;;;;;;;;;;
389,389.0,389.0,,it,,,,Trentino-Alto Adige,46.095436096191406,11.1422119140625,TN,22205;;;;;;;;;;;;;;;;
390,390.0,390.0,,it,,,,Trentino-Alto Adige,46.09419631958008,11.125543594360352,TN,22205;;;;;;;;;;;;;;;;
391,391.0,391.0,,it,,,,Trentino-Alto Adige,46.03554916381836,11.104649543762209,TN,22205;;;;;;;;;;;;;;;;
392,392.0,392.0,,it,,,,Trentino-Alto Adige,46.03680419921875,11.105207443237305,TN,22205;;;;;;;;;;;;;;;;
393,393.0,393.0,,it,,,,Trentino-Alto Adige,46.033180236816406,11.097238540649414,TN,22205;;;;;;;;;;;;;;;;
394,394.0,394.0,,it,,,,Trentino-Alto Adige,46.033424377441406,11.10039520263672,TN,22205;;;;;;;;;;;;;;;;
395,395.0,395.0,,it,,,,Trentino-Alto Adige,46.03727722167969,11.107239723205566,TN,22205;;;;;;;;;;;;;;;;
396,396.0,396.0,,it,,,,Trentino-Alto Adige,46.09466171264648,11.07196044921875,TN,22205;;;;;;;;;;;;;;;;
397,397.0,397.0,,it,,,,Trentino-Alto Adige,46.02902221679688,11.164979934692385,TN,22205;;;;;;;;;;;;;;;;
398,398.0,398.0,,it,,,,Trentino-Alto Adige,46.03493118286133,11.154296875,TN,22205;;;;;;;;;;;;;;;;
399,399.0,399.0,,it,,,,Trentino-Alto Adige,46.02947998046875,11.1652193069458,TN,22205;;;;;;;;;;;;;;;;
400,400.0,400.0,,it,,,,Trentino-Alto Adige,46.02830505371094,11.16512680053711,TN,22205;;;;;;;;;;;;;;;;
401,401.0,401.0,,it,,,,Trentino-Alto Adige,46.03633117675781,11.151429176330566,TN,22205;;;;;;;;;;;;;;;;
402,402.0,402.0,,it,,,,Trentino-Alto Adige,46.03963851928711,11.15928077697754,TN,22205;;;;;;;;;;;;;;;;
403,403.0,403.0,,it,,,,Trentino-Alto Adige,46.03634262084961,11.154216766357422,TN,22205;;;;;;;;;;;;;;;;
404,404.0,404.0,,it,,,,Trentino-Alto Adige,46.03506851196289,11.151529312133787,TN,22205;;;;;;;;;;;;;;;;
405,405.0,405.0,,it,,,,Trentino-Alto Adige,46.03369903564453,11.16009521484375,TN,22205;;;;;;;;;;;;;;;;
406,406.0,406.0,,it,,,,Trentino-Alto Adige,46.061649322509766,11.091317176818848,TN,22205;;;;;;;;;;;;;;;;
407,407.0,407.0,,it,2,,Via Lodovico de Balzani,Trentino-Alto Adige,46.06422424316406,11.096343040466309,TN,22205;;;;;;;;;;;;;;;;
408,408.0,408.0,,it,,,,Trentino-Alto Adige,46.10419845581055,11.123380661010742,TN,22205;;;;;;;;;;;;;;;;
409,409.0,409.0,,it,,,,Trentino-Alto Adige,46.05599212646485,11.100350379943848,TN,22205;;;;;;;;;;;;;;;;
410,410.0,410.0,,it,,,,Trentino-Alto Adige,46.050514221191406,11.101564407348633,TN,22205;;;;;;;;;;;;;;;;
411,411.0,411.0,,it,,,,Trentino-Alto Adige,46.06365585327149,11.097708702087402,TN,22205;;;;;;;;;;;;;;;;
412,412.0,412.0,,it,,,,Trentino-Alto Adige,46.02696990966797,11.058716773986816,TN,22205;;;;;;;;;;;;;;;;
413,413.0,413.0,Trento,it,11,38122.0,Vicolo del Vò,Trentino-Alto Adige,46.07075881958008,11.12403392791748,TN,22205;;;;;;;;;;;;;;;;
414,414.0,414.0,Trento,it,38,38122.0,Via San Pietro,Trentino-Alto Adige,46.06918716430664,11.124276161193848,TN,22205;;;;;;;;;;;;;;;;
415,415.0,415.0,Trento,it,11,38122.0,Via Don Arcangelo Rizzi,Trentino-Alto Adige,46.06693649291992,11.12027072906494,TN,22205;;;;;;;;;;;;;;;;
416,416.0,416.0,,it,,,,Trentino-Alto Adige,46.06830596923828,11.116679191589355,TN,22205;;;;;;;;;;;;;;;;
417,417.0,417.0,,it,,,,Trentino-Alto Adige,46.07475662231445,11.12386417388916,TN,22205;;;;;;;;;;;;;;;;
418,418.0,418.0,,it,,,,Trentino-Alto Adige,46.06386947631836,11.123412132263184,TN,22205;;;;;;;;;;;;;;;;
419,419.0,419.0,,it,,,,Trentino-Alto Adige,46.02609634399414,11.18294906616211,TN,22205;;;;;;;;;;;;;;;;
420,420.0,420.0,Trento,it,15,38122.0,Via dei Paradisi,Trentino-Alto Adige,46.06633377075195,11.127476692199709,TN,22205;;;;;;;;;;;;;;;;
421,421.0,421.0,Trento,it,35,38122.0,Via Giuseppe Grazioli,Trentino-Alto Adige,46.06638717651367,11.130599975585938,TN,22205;;;;;;;;;;;;;;;;
422,422.0,422.0,,it,,,,Trentino-Alto Adige,46.066707611083984,11.12917709350586,TN,22205;;;;;;;;;;;;;;;;
423,423.0,423.0,Trento,it,73,38122.0,Via Giuseppe Grazioli,Trentino-Alto Adige,46.06587219238281,11.131909370422363,TN,22205;;;;;;;;;;;;;;;;
424,424.0,424.0,Trento,it,50,38122.0,Via Giuseppe Mazzini,Trentino-Alto Adige,46.0655403137207,11.12296199798584,TN,22205;;;;;;;;;;;;;;;;
425,425.0,425.0,,it,,,,Trentino-Alto Adige,46.06771469116211,11.125653266906738,TN,22205;;;;;;;;;;;;;;;;
426,426.0,426.0,,it,,,,Trentino-Alto Adige,46.09954833984375,11.119163513183594,TN,22205;;;;;;;;;;;;;;;;
427,427.0,427.0,,it,,,,Trentino-Alto Adige,46.07296752929688,11.12018871307373,TN,22205;;;;;;;;;;;;;;;;
428,428.0,428.0,,it,133,,Via Brescia,Trentino-Alto Adige,46.07306671142578,11.103894233703612,TN,22205;;;;;;;;;;;;;;;;
429,429.0,429.0,,it,,,,Trentino-Alto Adige,46.01731872558594,11.157930374145508,TN,22205;;;;;;;;;;;;;;;;
430,430.0,430.0,,it,,,,Trentino-Alto Adige,46.053993225097656,11.16917896270752,TN,22205;;;;;;;;;;;;;;;;
431,431.0,431.0,Trento,it,29,38122.0,Piazza del Duomo,Trentino-Alto Adige,46.06736755371094,11.120866775512695,TN,22205;;;;;;;;;;;;;;;;
432,432.0,432.0,Trento,it,35,38122.0,Via Camillo Benso Cavour,Trentino-Alto Adige,46.06803131103516,11.120702743530272,TN,22205;;;;;;;;;;;;;;;;
433,433.0,433.0,Trento,it,42,38122.0,Via Camillo Benso Cavour,Trentino-Alto Adige,46.06776428222656,11.120774269104004,TN,22205;;;;;;;;;;;;;;;;
434,434.0,434.0,,it,,,,Trentino-Alto Adige,46.0688591003418,11.120758056640623,TN,22205;;;;;;;;;;;;;;;;
435,435.0,435.0,Trento,it,56,38123.0,Corso III Novembre,Trentino-Alto Adige,46.06159591674805,11.123995780944824,TN,22205;;;;;;;;;;;;;;;;
436,436.0,436.0,Trento,it,2,38122.0,Corso III Novembre,Trentino-Alto Adige,46.06292724609375,11.123586654663086,TN,22205;;;;;;;;;;;;;;;;
437,437.0,437.0,Trento,it,40,38122.0,Corso III Novembre,Trentino-Alto Adige,46.061988830566406,11.123802185058594,TN,22205;;;;;;;;;;;;;;;;
438,438.0,438.0,Trento,it,29,38122.0,Corso III Novembre,Trentino-Alto Adige,46.06149673461914,11.124653816223145,TN,22205;;;;;;;;;;;;;;;;
439,439.0,439.0,,it,,,,Trentino-Alto Adige,46.0601692199707,11.113259315490724,TN,22205;;;;;;;;;;;;;;;;
440,440.0,440.0,,it,,,,Trentino-Alto Adige,46.08356857299805,11.17451286315918,TN,22205;;;;;;;;;;;;;;;;
441,441.0,441.0,Trento,it,47,38122.0,Via Rodolfo Belenzani,Trentino-Alto Adige,46.06806564331055,11.121479034423828,TN,22205;;;;;;;;;;;;;;;;
442,442.0,442.0,,it,,,,Trentino-Alto Adige,46.07260513305664,11.120288848876951,TN,22205;;;;;;;;;;;;;;;;
443,443.0,443.0,,it,,,,Trentino-Alto Adige,46.0654182434082,11.1231689453125,TN,22205;;;;;;;;;;;;;;;;
444,444.0,444.0,Trento,it,19,38122.0,Via Antonio Rosmini,Trentino-Alto Adige,46.06793975830078,11.119074821472168,TN,22205;;;;;;;;;;;;;;;;
445,445.0,445.0,Trento,it,1/4,38122.0,Via Francesco Petrarca,Trentino-Alto Adige,46.07328414916992,11.124237060546877,TN,22205;;;;;;;;;;;;;;;;
446,446.0,446.0,,it,,,,Trentino-Alto Adige,46.07350540161133,11.120290756225586,TN,22205;;;;;;;;;;;;;;;;
447,447.0,447.0,,it,,,,Trentino-Alto Adige,46.07174301147461,11.121200561523438,TN,22205;;;;;;;;;;;;;;;;
448,448.0,448.0,Trento,it,20/1,38122.0,Via Giannantonio Manci,Trentino-Alto Adige,46.06973648071289,11.12221336364746,TN,22205;;;;;;;;;;;;;;;;
449,449.0,449.0,Trento,it,5,38122.0,Piazzetta Bruno Lunelli,Trentino-Alto Adige,46.06947326660156,11.125216484069824,TN,22205;;;;;;;;;;;;;;;;
450,450.0,450.0,Trento,it,6,38122.0,Vicolo della S.A.T.,Trentino-Alto Adige,46.07047271728516,11.123143196105955,TN,22205;;;;;;;;;;;;;;;;
451,451.0,451.0,Trento,it,10,38122.0,Piazzetta Anfiteatro,Trentino-Alto Adige,46.0692253112793,11.125534057617188,TN,22205;;;;;;;;;;;;;;;;
452,452.0,452.0,,it,,,,Trentino-Alto Adige,46.06634140014648,11.175214767456056,TN,22205;;;;;;;;;;;;;;;;
453,453.0,453.0,Trento,it,39,38122.0,Via Mantova,Trentino-Alto Adige,46.06764602661133,11.124109268188477,TN,22205;;;;;;;;;;;;;;;;
454,454.0,454.0,Trento,it,3,38122.0,Vicolo dell'Adige,Trentino-Alto Adige,46.07085037231445,11.123564720153809,TN,22205;;;;;;;;;;;;;;;;
"455,455.0,455.0,Trento,it,19,38121.0,""Piazza del """"Tridente"""""",Trentino-Alto Adige,46.08649063110352,11.119877815246582,TN,22205";;;;;;;;;;;;;;;;
456,456.0,456.0,Trento,it,260/C,38121.0,Via del Brennero,Trentino-Alto Adige,46.0863151550293,11.118727684020996,TN,22205;;;;;;;;;;;;;;;;
457,457.0,457.0,Trento,it,57,38122.0,Via Fratelli Perini,Trentino-Alto Adige,46.06014251708984,11.120509147644045,TN,22205;;;;;;;;;;;;;;;;
458,458.0,458.0,Trento,it,5,38122.0,Via Monsignor Celestino Endrici,Trentino-Alto Adige,46.06048202514648,11.121834754943848,TN,22205;;;;;;;;;;;;;;;;
459,459.0,459.0,Trento,it,131,38122.0,Via Fratelli Perini,Trentino-Alto Adige,46.06038665771485,11.12168788909912,TN,22205;;;;;;;;;;;;;;;;
460,460.0,460.0,Trento,it,35,38122.0,Via Dietro le Mura A,Trentino-Alto Adige,46.06550216674805,11.12464714050293,TN,22205;;;;;;;;;;;;;;;;
461,461.0,461.0,,it,,,,Trentino-Alto Adige,46.05741882324219,11.12635898590088,TN,22205;;;;;;;;;;;;;;;;
462,462.0,462.0,,it,,,,Trentino-Alto Adige,46.07449722290039,11.122780799865724,TN,22205;;;;;;;;;;;;;;;;
463,463.0,463.0,Trento,it,42,38121.0,Via Padre Emilio Chiocchetti,Trentino-Alto Adige,46.09419631958008,11.118745803833008,TN,22205;;;;;;;;;;;;;;;;
464,464.0,464.0,,it,,,,Trentino-Alto Adige,46.00929641723633,11.043197631835938,TN,22205;;;;;;;;;;;;;;;;
465,465.0,465.0,,it,,,,Trentino-Alto Adige,46.01559829711914,11.038656234741213,TN,22205;;;;;;;;;;;;;;;;
466,466.0,466.0,,it,,,,Trentino-Alto Adige,45.99606323242188,11.044498443603516,TN,22205;;;;;;;;;;;;;;;;
467,467.0,467.0,,it,,,,Trentino-Alto Adige,46.00772857666016,11.040693283081056,TN,22205;;;;;;;;;;;;;;;;
468,468.0,468.0,,it,,,,Trentino-Alto Adige,45.99087142944336,11.039446830749512,TN,22205;;;;;;;;;;;;;;;;
469,469.0,469.0,,it,,,,Trentino-Alto Adige,46.01557540893555,11.038689613342283,TN,22205;;;;;;;;;;;;;;;;
470,470.0,470.0,,it,,,,Trentino-Alto Adige,46.0157470703125,11.03835105895996,TN,22205;;;;;;;;;;;;;;;;
471,471.0,471.0,,it,,,,Trentino-Alto Adige,46.00624847412109,11.039005279541016,TN,22205;;;;;;;;;;;;;;;;
472,472.0,472.0,,it,,,,Trentino-Alto Adige,46.02008056640625,11.043200492858888,TN,22205;;;;;;;;;;;;;;;;
473,473.0,473.0,,it,,,,Trentino-Alto Adige,45.9898796081543,11.039239883422852,TN,22205;;;;;;;;;;;;;;;;
474,474.0,474.0,,it,,,,Trentino-Alto Adige,45.991249084472656,11.039688110351562,TN,22205;;;;;;;;;;;;;;;;
475,475.0,475.0,,it,,,,Trentino-Alto Adige,46.02017974853516,11.04326629638672,TN,22205;;;;;;;;;;;;;;;;
476,476.0,476.0,,it,,,,Trentino-Alto Adige,45.98922348022461,11.036324501037598,TN,22205;;;;;;;;;;;;;;;;
477,477.0,477.0,,it,,,,Trentino-Alto Adige,45.9890022277832,11.035049438476562,TN,22205;;;;;;;;;;;;;;;;
478,478.0,478.0,Trento,it,10,38122.0,Via Calepina,Trentino-Alto Adige,46.06678771972656,11.122673034667969,TN,22205;;;;;;;;;;;;;;;;
479,479.0,479.0,Trento,it,123,38122.0,Via Venezia,Trentino-Alto Adige,46.06972885131836,11.136301040649414,TN,22205;;;;;;;;;;;;;;;;
480,480.0,480.0,Trento,it,79,38122.0,Via dei Giardini,Trentino-Alto Adige,46.07264709472656,11.13807201385498,TN,22205;;;;;;;;;;;;;;;;
481,481.0,481.0,Trento,it,22,38122.0,Via alle Laste,Trentino-Alto Adige,46.07342147827149,11.134002685546877,TN,22205;;;;;;;;;;;;;;;;
482,482.0,482.0,Trento,it,76,38122.0,Corso III Novembre,Trentino-Alto Adige,46.06123733520508,11.124349594116213,TN,22205;;;;;;;;;;;;;;;;
483,483.0,483.0,Trento,it,179,38122.0,Via Fratelli Perini,Trentino-Alto Adige,46.060916900634766,11.124345779418944,TN,22205;;;;;;;;;;;;;;;;
484,484.0,484.0,,it,,,,Trentino-Alto Adige,46.05524826049805,11.12592315673828,TN,22205;;;;;;;;;;;;;;;;
485,485.0,485.0,,it,,,,Trentino-Alto Adige,46.07199096679688,11.1206693649292,TN,22205;;;;;;;;;;;;;;;;
486,486.0,486.0,,it,,,,Trentino-Alto Adige,46.06515121459961,11.12327003479004,TN,22205;;;;;;;;;;;;;;;;
487,487.0,487.0,,it,,,,Trentino-Alto Adige,46.07192611694336,11.119726181030272,TN,22205;;;;;;;;;;;;;;;;
488,488.0,488.0,,it,,,,Trentino-Alto Adige,46.08907318115234,11.12993049621582,TN,22205;;;;;;;;;;;;;;;;
489,489.0,489.0,,it,,,,Trentino-Alto Adige,46.06666946411133,11.12110996246338,TN,22205;;;;;;;;;;;;;;;;
490,490.0,490.0,,it,,,,Trentino-Alto Adige,46.04060363769531,11.134984970092772,TN,22205;;;;;;;;;;;;;;;;
491,491.0,491.0,,it,,,,Trentino-Alto Adige,46.06341552734375,11.125910758972168,TN,22205;;;;;;;;;;;;;;;;
492,492.0,492.0,,it,,,,Trentino-Alto Adige,46.06876754760742,11.120282173156738,TN,22205;;;;;;;;;;;;;;;;
493,493.0,493.0,,it,,,,Trentino-Alto Adige,46.07110977172852,11.11866855621338,TN,22205;;;;;;;;;;;;;;;;
494,494.0,494.0,,it,,,,Trentino-Alto Adige,46.071285247802734,11.11896800994873,TN,22205;;;;;;;;;;;;;;;;
495,495.0,495.0,,it,,,,Trentino-Alto Adige,46.07244110107422,11.119714736938477,TN,22205;;;;;;;;;;;;;;;;
496,496.0,496.0,,it,,,,Trentino-Alto Adige,46.13351058959961,11.12503433227539,TN,22205;;;;;;;;;;;;;;;;
497,497.0,497.0,Trento,it,79,38121.0,Via Ponte Alto,Trentino-Alto Adige,46.07364654541016,11.1486234664917,TN,22205;;;;;;;;;;;;;;;;
498,498.0,498.0,,it,,,,Trentino-Alto Adige,46.05865097045898,11.118030548095703,TN,22205;;;;;;;;;;;;;;;;
499,499.0,499.0,Trento,it,7,38122.0,Piazza del Duomo,Trentino-Alto Adige,46.06769180297852,11.121760368347168,TN,22205;;;;;;;;;;;;;;;;
500,500.0,500.0,Mattarello,it,10,38123.0,Via Pomeranos,Trentino-Alto Adige,46.014793395996094,11.132620811462402,TN,22205;;;;;;;;;;;;;;;;
501,501.0,501.0,Mattarello,it,46,38123.0,Via Pomeranos,Trentino-Alto Adige,46.01436614990234,11.132543563842772,TN,22205;;;;;;;;;;;;;;;;
502,502.0,502.0,,it,,,,Trentino-Alto Adige,46.09357833862305,11.120654106140137,TN,22205;;;;;;;;;;;;;;;;
503,503.0,503.0,Trento,it,7,38122.0,Via Antonio Gazzoletti,Trentino-Alto Adige,46.07216262817383,11.122224807739258,TN,22205;;;;;;;;;;;;;;;;
504,504.0,504.0,,it,,,,Trentino-Alto Adige,46.06224060058594,11.125654220581056,TN,22205;;;;;;;;;;;;;;;;
505,505.0,505.0,Trento,it,46,38121.0,Via Antonio Pranzelores,Trentino-Alto Adige,46.0868034362793,11.119915962219238,TN,22205;;;;;;;;;;;;;;;;
506,506.0,506.0,,it,2,38121.0,Via Klagenfurt,Trentino-Alto Adige,46.11690902709961,11.09338092803955,TN,22205;;;;;;;;;;;;;;;;
507,507.0,507.0,,it,,,,Trentino-Alto Adige,46.07172775268555,11.119091987609863,TN,22205;;;;;;;;;;;;;;;;
508,508.0,508.0,Trento,it,1,38122.0,Piazza Adamo D'Arogno,Trentino-Alto Adige,46.06671524047852,11.122114181518556,TN,22205;;;;;;;;;;;;;;;;
509,509.0,509.0,Trento,it,44,38122.0,Via Rodolfo Belenzani,Trentino-Alto Adige,46.06846237182617,11.121234893798828,TN,22205;;;;;;;;;;;;;;;;
510,510.0,510.0,Trento,it,26,38122.0,Corso Michelangelo Buonarroti,Trentino-Alto Adige,46.074825286865234,11.118711471557615,TN,22205;;;;;;;;;;;;;;;;
511,511.0,511.0,Trento,it,21,38122.0,Via Carlo Dordi,Trentino-Alto Adige,46.06732940673828,11.12295913696289,TN,22205;;;;;;;;;;;;;;;;
512,512.0,512.0,Trento,it,60,38122.0,Via Rodolfo Belenzani,Trentino-Alto Adige,46.068115234375,11.121280670166016,TN,22205;;;;;;;;;;;;;;;;
513,513.0,513.0,,it,,,,Trentino-Alto Adige,46.09147262573242,11.128446578979492,TN,22205;;;;;;;;;;;;;;;;
514,514.0,514.0,,it,,,,Trentino-Alto Adige,46.08207702636719,11.148896217346191,TN,22205;;;;;;;;;;;;;;;;
515,515.0,515.0,,it,,,,Trentino-Alto Adige,46.08198165893555,11.150261878967283,TN,22205;;;;;;;;;;;;;;;;
516,516.0,516.0,,it,,,,Trentino-Alto Adige,46.08927917480469,11.13406753540039,TN,22205;;;;;;;;;;;;;;;;
517,517.0,517.0,,it,,,,Trentino-Alto Adige,46.08148956298828,11.15459442138672,TN,22205;;;;;;;;;;;;;;;;
518,518.0,518.0,,it,,,,Trentino-Alto Adige,46.08951187133789,11.133453369140623,TN,22205;;;;;;;;;;;;;;;;
519,519.0,519.0,,it,,,,Trentino-Alto Adige,46.08182907104492,11.15391731262207,TN,22205;;;;;;;;;;;;;;;;
520,520.0,520.0,,it,,,,Trentino-Alto Adige,46.08481216430664,11.138132095336914,TN,22205;;;;;;;;;;;;;;;;
521,521.0,521.0,,it,,,,Trentino-Alto Adige,46.082122802734375,11.141545295715332,TN,22205;;;;;;;;;;;;;;;;
522,522.0,522.0,,it,,,,Trentino-Alto Adige,46.080596923828125,11.147929191589355,TN,22205;;;;;;;;;;;;;;;;
523,523.0,523.0,,it,,,,Trentino-Alto Adige,46.081817626953125,11.14648723602295,TN,22205;;;;;;;;;;;;;;;;
524,524.0,524.0,,it,,,,Trentino-Alto Adige,46.092315673828125,11.137213706970217,TN,22205;;;;;;;;;;;;;;;;
525,525.0,525.0,,it,,,,Trentino-Alto Adige,46.08974838256836,11.140369415283203,TN,22205;;;;;;;;;;;;;;;;
526,526.0,526.0,Trento,it,72,38122.0,Via del Brennero,Trentino-Alto Adige,46.07786178588867,11.12340259552002,TN,22205;;;;;;;;;;;;;;;;
527,527.0,527.0,,it,,,,Trentino-Alto Adige,46.0669174194336,11.12612533569336,TN,22205;;;;;;;;;;;;;;;;
528,528.0,528.0,Trento,it,31,38122.0,Piazza del Duomo,Trentino-Alto Adige,46.06745147705078,11.120959281921388,TN,22205;;;;;;;;;;;;;;;;
529,529.0,529.0,,it,,,,Trentino-Alto Adige,46.0912971496582,11.128515243530272,TN,22205;;;;;;;;;;;;;;;;
530,530.0,530.0,,it,,,,Trentino-Alto Adige,46.06263732910156,11.122037887573242,TN,22205;;;;;;;;;;;;;;;;
531,531.0,531.0,,it,,,,Trentino-Alto Adige,46.06325912475586,11.121500015258787,TN,22205;;;;;;;;;;;;;;;;
532,532.0,532.0,,it,,,,Trentino-Alto Adige,46.06880569458008,11.120591163635254,TN,22205;;;;;;;;;;;;;;;;
533,533.0,533.0,Trento,it,39,38122.0,Via Calepina,Trentino-Alto Adige,46.06712341308594,11.12458610534668,TN,22205;;;;;;;;;;;;;;;;
534,534.0,534.0,,it,,,,Trentino-Alto Adige,46.065731048583984,11.12453269958496,TN,22205;;;;;;;;;;;;;;;;
535,535.0,535.0,,it,,,,Trentino-Alto Adige,46.067138671875,11.120015144348145,TN,22205;;;;;;;;;;;;;;;;
536,536.0,536.0,,it,,,,Trentino-Alto Adige,46.07071304321289,11.121747970581056,TN,22205;;;;;;;;;;;;;;;;
537,537.0,537.0,Trento,it,320,38121.0,Via del Brennero,Trentino-Alto Adige,46.09025955200195,11.117280006408691,TN,22205;;;;;;;;;;;;;;;;
538,538.0,538.0,Trento,it,320,38121.0,Via del Brennero,Trentino-Alto Adige,46.09029769897461,11.11695957183838,TN,22205;;;;;;;;;;;;;;;;
539,539.0,539.0,,it,,,,Trentino-Alto Adige,46.06371307373047,11.126235961914062,TN,22205;;;;;;;;;;;;;;;;
540,540.0,540.0,Trento,it,28,,Viale Verona,Trentino-Alto Adige,46.05728149414063,11.127976417541504,TN,22205;;;;;;;;;;;;;;;;
541,541.0,541.0,Trento,it,56/A,38122.0,Corso Michelangelo Buonarroti,Trentino-Alto Adige,46.07216262817383,11.117451667785645,TN,22205;;;;;;;;;;;;;;;;
542,542.0,542.0,Trento,it,38,38122.0,Via Paolo Oss Mazzurana,Trentino-Alto Adige,46.06875228881836,11.1224946975708,TN,22205;;;;;;;;;;;;;;;;
543,543.0,543.0,Trento,it,10,38122.0,Via San Vigilio,Trentino-Alto Adige,46.06654357910156,11.12234115600586,TN,22205;;;;;;;;;;;;;;;;
544,544.0,544.0,Trento,it,29,38122.0,Via Oriola,Trentino-Alto Adige,46.06826019287109,11.123208045959473,TN,22205;;;;;;;;;;;;;;;;
545,545.0,545.0,,it,,,,Trentino-Alto Adige,46.06926727294922,11.122299194335938,TN,22205;;;;;;;;;;;;;;;;
546,546.0,546.0,,it,,,,Trentino-Alto Adige,46.10107421875,11.118219375610352,TN,22205;;;;;;;;;;;;;;;;
547,547.0,547.0,,it,,,,Trentino-Alto Adige,46.10734176635742,11.120741844177246,TN,22205;;;;;;;;;;;;;;;;
548,548.0,548.0,,it,,,,Trentino-Alto Adige,46.1118392944336,11.109721183776855,TN,22205;;;;;;;;;;;;;;;;
549,549.0,549.0,,it,,,,Trentino-Alto Adige,46.11284255981445,11.11140251159668,TN,22205;;;;;;;;;;;;;;;;
550,550.0,550.0,,it,,,,Trentino-Alto Adige,46.11172866821289,11.109251022338867,TN,22205;;;;;;;;;;;;;;;;
551,551.0,551.0,,it,,,,Trentino-Alto Adige,46.117149353027344,11.12001609802246,TN,22205;;;;;;;;;;;;;;;;
552,552.0,552.0,,it,,,,Trentino-Alto Adige,46.08208465576172,11.102932929992676,TN,22205;;;;;;;;;;;;;;;;
553,553.0,553.0,Trento,it,46,38122.0,Via del Brennero,Trentino-Alto Adige,46.076602935791016,11.124096870422363,TN,22205;;;;;;;;;;;;;;;;
554,554.0,554.0,,it,,,,Trentino-Alto Adige,46.06614303588867,11.11856746673584,TN,22205;;;;;;;;;;;;;;;;
555,555.0,555.0,Trento,it,34,38122.0,Piazza Santa Maria Maggiore,Trentino-Alto Adige,46.06839370727539,11.118813514709473,TN,22205;;;;;;;;;;;;;;;;
556,556.0,556.0,Trento,it,32/1,38122.0,Via Francesco Petrarca,Trentino-Alto Adige,46.07221984863281,11.123445510864258,TN,22205;;;;;;;;;;;;;;;;
557,557.0,557.0,Trento,it,24,38122.0,Prima Androna di Borgo Nuovo,Trentino-Alto Adige,46.06584930419922,11.123845100402832,TN,22205;;;;;;;;;;;;;;;;
558,558.0,558.0,,it,,,,Trentino-Alto Adige,46.06988143920898,11.115958213806152,TN,22205;;;;;;;;;;;;;;;;
559,559.0,559.0,Trento,it,15,38122.0,Via 24 Maggio 1915,Trentino-Alto Adige,46.06431579589844,11.121356010437012,TN,22205;;;;;;;;;;;;;;;;
560,560.0,560.0,,it,,,,Trentino-Alto Adige,46.03544616699219,11.150315284729004,TN,22205;;;;;;;;;;;;;;;;
561,561.0,561.0,,it,,,,Trentino-Alto Adige,46.03411102294922,11.150571823120115,TN,22205;;;;;;;;;;;;;;;;
562,562.0,562.0,,it,,,,Trentino-Alto Adige,46.035152435302734,11.147997856140137,TN,22205;;;;;;;;;;;;;;;;
563,563.0,563.0,,it,,,,Trentino-Alto Adige,46.0247917175293,11.085745811462402,TN,22205;;;;;;;;;;;;;;;;
564,564.0,564.0,,it,,,,Trentino-Alto Adige,46.08967208862305,11.115435600280762,TN,22205;;;;;;;;;;;;;;;;
565,565.0,565.0,,it,,,,Trentino-Alto Adige,46.09004974365234,11.115548133850098,TN,22205;;;;;;;;;;;;;;;;
566,566.0,566.0,,it,,,,Trentino-Alto Adige,46.08076095581055,11.12200164794922,TN,22205;;;;;;;;;;;;;;;;
567,567.0,567.0,,it,,,,Trentino-Alto Adige,46.07342147827149,11.112980842590332,TN,22205;;;;;;;;;;;;;;;;
568,568.0,568.0,,it,,,,Trentino-Alto Adige,46.07086563110352,11.111549377441406,TN,22205;;;;;;;;;;;;;;;;
569,569.0,569.0,,it,,,,Trentino-Alto Adige,46.09772109985352,11.143872261047363,TN,22205;;;;;;;;;;;;;;;;
570,570.0,570.0,,it,,,,Trentino-Alto Adige,46.09892272949219,11.135706901550291,TN,22205;;;;;;;;;;;;;;;;
571,571.0,571.0,Trento,it,80,38122.0,Via Milano,Trentino-Alto Adige,46.061126708984375,11.12846565246582,TN,22205;;;;;;;;;;;;;;;;
572,572.0,572.0,,it,,,,Trentino-Alto Adige,46.08678436279297,11.12017059326172,TN,22205;;;;;;;;;;;;;;;;
573,573.0,573.0,,it,,,,Trentino-Alto Adige,46.0920295715332,11.118823051452637,TN,22205;;;;;;;;;;;;;;;;
574,574.0,574.0,Trento,it,203,38121.0,Via Ezio Maccani,Trentino-Alto Adige,46.09362411499024,11.10561752319336,TN,22205;;;;;;;;;;;;;;;;
575,575.0,575.0,,it,,,,Trentino-Alto Adige,46.08620071411133,11.121225357055664,TN,22205;;;;;;;;;;;;;;;;
576,576.0,576.0,,it,,,,Trentino-Alto Adige,46.08705139160156,11.120862007141112,TN,22205;;;;;;;;;;;;;;;;
577,577.0,577.0,,it,,,,Trentino-Alto Adige,46.08915710449219,11.12191390991211,TN,22205;;;;;;;;;;;;;;;;
578,578.0,578.0,,it,,,,Trentino-Alto Adige,46.08793640136719,11.12147045135498,TN,22205;;;;;;;;;;;;;;;;
579,579.0,579.0,,it,,,,Trentino-Alto Adige,46.08855056762695,11.121071815490724,TN,22205;;;;;;;;;;;;;;;;
580,580.0,580.0,,it,,,,Trentino-Alto Adige,46.05889892578125,11.124801635742188,TN,22205;;;;;;;;;;;;;;;;
581,581.0,581.0,,it,,,,Trentino-Alto Adige,46.05967712402344,11.12399959564209,TN,22205;;;;;;;;;;;;;;;;
582,582.0,582.0,,it,,,,Trentino-Alto Adige,46.1079216003418,11.104606628417969,TN,22205;;;;;;;;;;;;;;;;
583,583.0,583.0,Trento,it,7,38122.0,Piazza Ezio Mosna,Trentino-Alto Adige,46.06650161743164,11.114703178405762,TN,22205;;;;;;;;;;;;;;;;
584,584.0,584.0,,it,,,,Trentino-Alto Adige,46.0830192565918,11.121431350708008,TN,22205;;;;;;;;;;;;;;;;
585,585.0,585.0,,it,,,,Trentino-Alto Adige,46.08658599853516,11.121295928955078,TN,22205;;;;;;;;;;;;;;;;
586,586.0,586.0,,it,,,,Trentino-Alto Adige,46.08452987670898,11.122742652893066,TN,22205;;;;;;;;;;;;;;;;
587,587.0,587.0,,it,,,,Trentino-Alto Adige,46.04024505615234,11.13685131072998,TN,22205;;;;;;;;;;;;;;;;
588,588.0,588.0,,it,,,,Trentino-Alto Adige,46.10816192626953,11.112020492553713,TN,22205;;;;;;;;;;;;;;;;
589,589.0,589.0,,it,,,,Trentino-Alto Adige,46.10848236083984,11.111946105957031,TN,22205;;;;;;;;;;;;;;;;
590,590.0,590.0,,it,,,,Trentino-Alto Adige,46.07164001464844,11.119335174560549,TN,22205;;;;;;;;;;;;;;;;
591,591.0,591.0,,it,,,,Trentino-Alto Adige,46.06816101074219,11.18307399749756,TN,22205;;;;;;;;;;;;;;;;
592,592.0,592.0,,it,,,,Trentino-Alto Adige,46.06884765625,11.183345794677734,TN,22205;;;;;;;;;;;;;;;;
593,593.0,593.0,,it,,,,Trentino-Alto Adige,46.073524475097656,11.171733856201172,TN,22205;;;;;;;;;;;;;;;;
594,594.0,594.0,,it,,,,Trentino-Alto Adige,46.07367706298828,11.169105529785156,TN,22205;;;;;;;;;;;;;;;;
595,595.0,595.0,,it,,,,Trentino-Alto Adige,46.07375717163086,11.131939888000488,TN,22205;;;;;;;;;;;;;;;;
596,596.0,596.0,,it,,,,Trentino-Alto Adige,46.0915412902832,11.116374015808104,TN,22205;;;;;;;;;;;;;;;;
597,597.0,597.0,,it,,,,Trentino-Alto Adige,46.07185745239258,11.121288299560549,TN,22205;;;;;;;;;;;;;;;;
598,598.0,598.0,,it,,,,Trentino-Alto Adige,46.09160232543945,11.116607666015623,TN,22205;;;;;;;;;;;;;;;;
599,599.0,599.0,,it,,,,Trentino-Alto Adige,46.05778884887695,11.133106231689451,TN,22205;;;;;;;;;;;;;;;;
600,600.0,600.0,,it,,,,Trentino-Alto Adige,46.05799102783203,11.133037567138672,TN,22205;;;;;;;;;;;;;;;;
601,601.0,601.0,Trento,it,,38122.0,Largo Medaglie d'Oro,Trentino-Alto Adige,46.05773162841797,11.132390975952148,TN,22205;;;;;;;;;;;;;;;;
602,602.0,602.0,,it,,,,Trentino-Alto Adige,46.090087890625,11.11305809020996,TN,22205;;;;;;;;;;;;;;;;
603,603.0,603.0,,it,,,,Trentino-Alto Adige,46.07049179077149,11.121326446533203,TN,22205;;;;;;;;;;;;;;;;
604,604.0,604.0,,it,,,,Trentino-Alto Adige,46.07183074951172,11.119884490966797,TN,22205;;;;;;;;;;;;;;;;
605,605.0,605.0,Trento,it,33,38122.0,Via Giuseppe Mazzini,Trentino-Alto Adige,46.0657958984375,11.123001098632812,TN,22205;;;;;;;;;;;;;;;;
606,606.0,606.0,,it,,,,Trentino-Alto Adige,46.06940841674805,11.128796577453612,TN,22205;;;;;;;;;;;;;;;;
607,607.0,607.0,,it,,,,Trentino-Alto Adige,46.065696716308594,11.123916625976562,TN,22205;;;;;;;;;;;;;;;;
608,608.0,608.0,,it,,,,Trentino-Alto Adige,46.06342697143555,11.125784873962402,TN,22205;;;;;;;;;;;;;;;;
609,609.0,609.0,,it,,,,Trentino-Alto Adige,46.08916091918945,11.086734771728516,TN,22205;;;;;;;;;;;;;;;;
610,610.0,610.0,,it,,,,Trentino-Alto Adige,46.08250427246094,11.087865829467772,TN,22205;;;;;;;;;;;;;;;;
611,611.0,611.0,,it,,,,Trentino-Alto Adige,46.08449172973633,11.097929954528809,TN,22205;;;;;;;;;;;;;;;;
612,612.0,612.0,,it,,,,Trentino-Alto Adige,46.00666427612305,11.127668380737305,TN,22205;;;;;;;;;;;;;;;;
613,613.0,613.0,,it,,,,Trentino-Alto Adige,46.02108383178711,11.149750709533691,TN,22205;;;;;;;;;;;;;;;;
614,614.0,614.0,Villazzano,it,25,38123.0,Via Pianizza,Trentino-Alto Adige,46.02134704589844,11.149862289428713,TN,22205;;;;;;;;;;;;;;;;
615,615.0,615.0,Villazzano,it,27,38123.0,Via Pianizza,Trentino-Alto Adige,46.0212516784668,11.14967441558838,TN,22205;;;;;;;;;;;;;;;;
616,616.0,616.0,,it,,,,Trentino-Alto Adige,46.11634063720703,11.118393898010254,TN,22205;;;;;;;;;;;;;;;;
617,617.0,617.0,,it,,,,Trentino-Alto Adige,46.11761474609375,11.121112823486328,TN,22205;;;;;;;;;;;;;;;;
618,618.0,618.0,,it,,,,Trentino-Alto Adige,46.11906814575195,11.119900703430176,TN,22205;;;;;;;;;;;;;;;;
619,619.0,619.0,,it,,,,Trentino-Alto Adige,46.12263870239258,11.116947174072266,TN,22205;;;;;;;;;;;;;;;;
620,620.0,620.0,,it,,,,Trentino-Alto Adige,46.12042617797852,11.120768547058104,TN,22205;;;;;;;;;;;;;;;;
621,621.0,621.0,,it,,,,Trentino-Alto Adige,46.11592864990234,11.11716365814209,TN,22205;;;;;;;;;;;;;;;;
622,622.0,622.0,,it,,,,Trentino-Alto Adige,46.12181854248047,11.117730140686035,TN,22205;;;;;;;;;;;;;;;;
623,623.0,623.0,,it,,,,Trentino-Alto Adige,46.04583358764648,11.065401077270508,TN,22205;;;;;;;;;;;;;;;;
624,624.0,624.0,,it,,,,Trentino-Alto Adige,46.0190315246582,11.04054355621338,TN,22205;;;;;;;;;;;;;;;;
625,625.0,625.0,Gardolo,it,164/B,38121.0,Via Alto Adige,Trentino-Alto Adige,46.12789535522461,11.109411239624023,TN,22205;;;;;;;;;;;;;;;;
626,626.0,626.0,,it,,,,Trentino-Alto Adige,46.023345947265625,11.038459777832031,TN,22205;;;;;;;;;;;;;;;;
627,627.0,627.0,,it,,,,Trentino-Alto Adige,46.065555572509766,11.09888744354248,TN,22205;;;;;;;;;;;;;;;;
628,628.0,628.0,,it,,,,Trentino-Alto Adige,46.07096099853516,11.05991268157959,TN,22205;;;;;;;;;;;;;;;;
629,629.0,629.0,Sopramonte,it,17,38123.0,Via di Revolta,Trentino-Alto Adige,46.07172393798828,11.059633255004885,TN,22205;;;;;;;;;;;;;;;;
630,630.0,630.0,,it,,,,Trentino-Alto Adige,46.13325119018555,11.121381759643556,TN,22205;;;;;;;;;;;;;;;;
631,631.0,631.0,Trento,it,110,38123.0,Strada di Vason,Trentino-Alto Adige,46.03923034667969,11.057024955749512,TN,22205;;;;;;;;;;;;;;;;
632,632.0,632.0,,it,,,,Trentino-Alto Adige,46.03186798095703,11.045564651489258,TN,22205;;;;;;;;;;;;;;;;
633,633.0,633.0,,it,,,,Trentino-Alto Adige,46.03289031982422,11.04723834991455,TN,22205;;;;;;;;;;;;;;;;
634,634.0,634.0,,it,,,,Trentino-Alto Adige,46.04094314575195,11.058489799499512,TN,22205;;;;;;;;;;;;;;;;
635,635.0,635.0,,it,,,,Trentino-Alto Adige,46.0427131652832,11.061810493469238,TN,22205;;;;;;;;;;;;;;;;
636,636.0,636.0,,it,,,,Trentino-Alto Adige,46.04656982421875,11.063828468322754,TN,22205;;;;;;;;;;;;;;;;
637,637.0,637.0,,it,,,,Trentino-Alto Adige,46.04798126220703,11.06548023223877,TN,22205;;;;;;;;;;;;;;;;
638,638.0,638.0,,it,,,,Trentino-Alto Adige,46.04930114746094,11.06773853302002,TN,22205;;;;;;;;;;;;;;;;
639,639.0,639.0,,it,,,,Trentino-Alto Adige,46.065765380859375,11.095165252685549,TN,22205;;;;;;;;;;;;;;;;
640,640.0,640.0,Trento,it,13,38122.0,Via Livio Marchetti,Trentino-Alto Adige,46.06953048706055,11.126693725585938,TN,22205;;;;;;;;;;;;;;;;
641,641.0,641.0,Trento,it,22,38122.0,Via San Marco,Trentino-Alto Adige,46.07008743286133,11.124937057495115,TN,22205;;;;;;;;;;;;;;;;
642,642.0,642.0,,it,,,,Trentino-Alto Adige,46.06968688964844,11.126272201538086,TN,22205;;;;;;;;;;;;;;;;
643,643.0,643.0,,it,,,,Trentino-Alto Adige,46.06996536254883,11.126203536987305,TN,22205;;;;;;;;;;;;;;;;
644,644.0,644.0,,it,,,,Trentino-Alto Adige,46.0731201171875,11.128219604492188,TN,22205;;;;;;;;;;;;;;;;
645,645.0,645.0,,it,,,,Trentino-Alto Adige,46.07406997680664,11.13528823852539,TN,22205;;;;;;;;;;;;;;;;
646,646.0,646.0,,it,,,,Trentino-Alto Adige,46.12207412719727,11.121726036071776,TN,22205;;;;;;;;;;;;;;;;
647,647.0,647.0,Trento,it,20,38122.0,Via Roggia Grande,Trentino-Alto Adige,46.06775665283203,11.124911308288574,TN,22205;;;;;;;;;;;;;;;;
648,648.0,648.0,Trento,it,28,38122.0,Via Calepina,Trentino-Alto Adige,46.06702423095703,11.124519348144531,TN,22205;;;;;;;;;;;;;;;;
649,649.0,649.0,,it,,,,Trentino-Alto Adige,46.0679931640625,11.126446723937988,TN,22205;;;;;;;;;;;;;;;;
650,650.0,650.0,,it,,,,Trentino-Alto Adige,46.05094528198242,11.072355270385742,TN,22205;;;;;;;;;;;;;;;;
651,651.0,651.0,,it,,,,Trentino-Alto Adige,46.05218505859375,11.072431564331056,TN,22205;;;;;;;;;;;;;;;;
652,652.0,652.0,,it,,,,Trentino-Alto Adige,46.04970550537109,11.07376766204834,TN,22205;;;;;;;;;;;;;;;;
653,653.0,653.0,,it,,,,Trentino-Alto Adige,46.05060577392578,11.073081970214844,TN,22205;;;;;;;;;;;;;;;;
654,654.0,654.0,,it,,,,Trentino-Alto Adige,46.050724029541016,11.072758674621582,TN,22205;;;;;;;;;;;;;;;;
655,655.0,655.0,,it,,,,Trentino-Alto Adige,46.05073165893555,11.083544731140137,TN,22205;;;;;;;;;;;;;;;;
656,656.0,656.0,,it,,,,Trentino-Alto Adige,46.052547454833984,11.071606636047363,TN,22205;;;;;;;;;;;;;;;;
657,657.0,657.0,,it,,,,Trentino-Alto Adige,46.06865692138672,11.077178955078123,TN,22205;;;;;;;;;;;;;;;;
658,658.0,658.0,,it,,,,Trentino-Alto Adige,46.06882095336914,11.056547164916992,TN,22205;;;;;;;;;;;;;;;;
659,659.0,659.0,,it,,,,Trentino-Alto Adige,46.06904983520508,11.05666446685791,TN,22205;;;;;;;;;;;;;;;;
660,660.0,660.0,,it,,,,Trentino-Alto Adige,46.06947708129883,11.078184127807615,TN,22205;;;;;;;;;;;;;;;;
661,661.0,661.0,,it,,,,Trentino-Alto Adige,46.06990814208984,11.077260971069336,TN,22205;;;;;;;;;;;;;;;;
662,662.0,662.0,,it,,,,Trentino-Alto Adige,46.07067489624024,11.11195468902588,TN,22205;;;;;;;;;;;;;;;;
663,663.0,663.0,,it,,,,Trentino-Alto Adige,46.05144882202149,11.124164581298828,TN,22205;;;;;;;;;;;;;;;;
664,664.0,664.0,,it,,,,Trentino-Alto Adige,46.048587799072266,11.113081932067873,TN,22205;;;;;;;;;;;;;;;;
665,665.0,665.0,,it,,,,Trentino-Alto Adige,46.06443786621094,11.079870223999023,TN,22205;;;;;;;;;;;;;;;;
666,666.0,666.0,,it,,,,Trentino-Alto Adige,46.073360443115234,11.105475425720217,TN,22205;;;;;;;;;;;;;;;;
667,667.0,667.0,,it,,,,Trentino-Alto Adige,46.05937957763672,11.11849308013916,TN,22205;;;;;;;;;;;;;;;;
668,668.0,668.0,,it,,,,Trentino-Alto Adige,46.03620147705078,11.153823852539062,TN,22205;;;;;;;;;;;;;;;;
669,669.0,669.0,,it,,,,Trentino-Alto Adige,46.03532028198242,11.15363883972168,TN,22205;;;;;;;;;;;;;;;;
670,670.0,670.0,,it,,,,Trentino-Alto Adige,46.09992218017578,11.111976623535156,TN,22205;;;;;;;;;;;;;;;;
671,671.0,671.0,,it,,,,Trentino-Alto Adige,46.099891662597656,11.111892700195312,TN,22205;;;;;;;;;;;;;;;;
672,672.0,672.0,,it,,,,Trentino-Alto Adige,46.02372741699219,11.03900146484375,TN,22205;;;;;;;;;;;;;;;;
673,673.0,673.0,,it,,,,Trentino-Alto Adige,46.03847122192383,11.058862686157228,TN,22205;;;;;;;;;;;;;;;;
674,674.0,674.0,,it,,,,Trentino-Alto Adige,46.04810333251953,11.063632011413574,TN,22205;;;;;;;;;;;;;;;;
675,675.0,675.0,,it,,,,Trentino-Alto Adige,46.05099105834961,11.124616622924805,TN,22205;;;;;;;;;;;;;;;;
676,676.0,676.0,,it,,,,Trentino-Alto Adige,46.05102157592773,11.124869346618652,TN,22205;;;;;;;;;;;;;;;;
677,677.0,677.0,,it,,,,Trentino-Alto Adige,46.05758666992188,11.125375747680664,TN,22205;;;;;;;;;;;;;;;;
678,678.0,678.0,,it,,,,Trentino-Alto Adige,46.09379959106445,11.120162963867188,TN,22205;;;;;;;;;;;;;;;;
679,679.0,679.0,,it,,,,Trentino-Alto Adige,46.102317810058594,11.116744041442873,TN,22205;;;;;;;;;;;;;;;;
680,680.0,680.0,,it,,,,Trentino-Alto Adige,46.102535247802734,11.116158485412598,TN,22205;;;;;;;;;;;;;;;;
681,681.0,681.0,,it,,,,Trentino-Alto Adige,46.10296249389648,11.11619472503662,TN,22205;;;;;;;;;;;;;;;;
682,682.0,682.0,Trento,it,34/2,38121.0,Via Luigi Caneppele,Trentino-Alto Adige,46.10074996948242,11.101485252380373,TN,22205;;;;;;;;;;;;;;;;
683,683.0,683.0,,it,,,,Trentino-Alto Adige,46.10198974609375,11.100278854370115,TN,22205;;;;;;;;;;;;;;;;
684,684.0,684.0,,it,41/1,,Piazza Venezia,Trentino-Alto Adige,46.06888961791992,11.128771781921388,TN,22205;;;;;;;;;;;;;;;;
685,685.0,685.0,Trento,it,14,38122.0,Via Malpaga,Trentino-Alto Adige,46.068809509277344,11.12315845489502,TN,22205;;;;;;;;;;;;;;;;
686,686.0,686.0,,it,105,38121.0,Via Ezio Maccani,Trentino-Alto Adige,46.08140182495117,11.11594295501709,TN,22205;;;;;;;;;;;;;;;;
687,687.0,687.0,,it,,,,Trentino-Alto Adige,46.06521224975586,11.12203884124756,TN,22205;;;;;;;;;;;;;;;;
688,688.0,688.0,Trento,it,29,38122.0,Via San Pio X,Trentino-Alto Adige,46.05604553222656,11.120261192321776,TN,22205;;;;;;;;;;;;;;;;
689,689.0,689.0,,it,,,,Trentino-Alto Adige,46.08892059326172,11.134102821350098,TN,22205;;;;;;;;;;;;;;;;
690,690.0,690.0,,it,,,,Trentino-Alto Adige,46.08933639526367,11.063140869140623,TN,22205;;;;;;;;;;;;;;;;
691,691.0,691.0,,it,,,,Trentino-Alto Adige,46.08104705810547,11.043416023254396,TN,22205;;;;;;;;;;;;;;;;
692,692.0,692.0,,it,,,,Trentino-Alto Adige,46.062232971191406,11.127952575683594,TN,22205;;;;;;;;;;;;;;;;
693,693.0,693.0,Trento,it,1,38122.0,Via dei Mille,Trentino-Alto Adige,46.062965393066406,11.127571105957031,TN,22205;;;;;;;;;;;;;;;;
694,694.0,694.0,Trento,it,1,38122.0,Via Andrea Maffei,Trentino-Alto Adige,46.06652069091797,11.120380401611328,TN,22205;;;;;;;;;;;;;;;;
695,695.0,695.0,,it,,,,Trentino-Alto Adige,46.06365203857422,11.12487506866455,TN,22205;;;;;;;;;;;;;;;;
696,696.0,696.0,,it,,,,Trentino-Alto Adige,46.03843688964844,11.107827186584473,TN,22205;;;;;;;;;;;;;;;;
697,697.0,697.0,,it,,,,Trentino-Alto Adige,46.07008361816406,11.125388145446776,TN,22205;;;;;;;;;;;;;;;;
698,698.0,698.0,,it,,,,Trentino-Alto Adige,46.07271957397461,11.058568000793455,TN,22205;;;;;;;;;;;;;;;;
699,699.0,699.0,,it,,,,Trentino-Alto Adige,46.07876205444336,11.060236930847168,TN,22205;;;;;;;;;;;;;;;;
700,700.0,700.0,,it,,,,Trentino-Alto Adige,46.07902145385742,11.05998992919922,TN,22205;;;;;;;;;;;;;;;;
701,701.0,701.0,,it,,,,Trentino-Alto Adige,46.07343292236328,11.051868438720703,TN,22205;;;;;;;;;;;;;;;;
702,702.0,702.0,,it,,,,Trentino-Alto Adige,46.07688522338867,11.051353454589844,TN,22205;;;;;;;;;;;;;;;;
703,703.0,703.0,,it,,,,Trentino-Alto Adige,46.07170867919922,11.06018352508545,TN,22205;;;;;;;;;;;;;;;;
704,704.0,704.0,,it,,,,Trentino-Alto Adige,46.068695068359375,11.117114067077637,TN,22205;;;;;;;;;;;;;;;;
705,705.0,705.0,,it,,,,Trentino-Alto Adige,46.06442642211914,11.138906478881836,TN,22205;;;;;;;;;;;;;;;;
706,706.0,706.0,Trento,it,77,38121.0,Via Mesiano,Trentino-Alto Adige,46.0663948059082,11.138856887817385,TN,22205;;;;;;;;;;;;;;;;
707,707.0,707.0,,it,,,,Trentino-Alto Adige,46.08919525146485,11.120326042175291,TN,22205;;;;;;;;;;;;;;;;
708,708.0,708.0,,it,,,,Trentino-Alto Adige,46.08934783935547,11.120637893676758,TN,22205;;;;;;;;;;;;;;;;
709,709.0,709.0,,it,,,,Trentino-Alto Adige,46.089752197265625,11.120844841003418,TN,22205;;;;;;;;;;;;;;;;
710,710.0,710.0,,it,,,,Trentino-Alto Adige,46.0994758605957,11.118341445922852,TN,22205;;;;;;;;;;;;;;;;
711,711.0,711.0,,it,,,,Trentino-Alto Adige,46.062496185302734,11.125455856323242,TN,22205;;;;;;;;;;;;;;;;
712,712.0,712.0,,it,,,,Trentino-Alto Adige,46.0800666809082,11.130393981933594,TN,22205;;;;;;;;;;;;;;;;
713,713.0,713.0,,it,,,,Trentino-Alto Adige,46.08120727539063,11.129239082336426,TN,22205;;;;;;;;;;;;;;;;
714,714.0,714.0,Trento,it,5,38122.0,Via Galileo Galilei,Trentino-Alto Adige,46.06794738769531,11.125752449035645,TN,22205;;;;;;;;;;;;;;;;
715,715.0,715.0,,it,,,,Trentino-Alto Adige,46.06453323364258,11.11991024017334,TN,22205;;;;;;;;;;;;;;;;
716,716.0,716.0,,it,,,,Trentino-Alto Adige,46.06539535522461,11.119681358337402,TN,22205;;;;;;;;;;;;;;;;
717,717.0,717.0,,it,,,,Trentino-Alto Adige,46.100616455078125,11.101602554321287,TN,22205;;;;;;;;;;;;;;;;
718,718.0,718.0,,it,,,,Trentino-Alto Adige,46.100772857666016,11.102706909179688,TN,22205;;;;;;;;;;;;;;;;
719,719.0,719.0,Mattarello,it,6,38123.0,Via Guido Poli,Trentino-Alto Adige,46.00606155395508,11.127803802490234,TN,22205;;;;;;;;;;;;;;;;
720,720.0,720.0,Romagnano,it,26,38123.0,Via dei Rimoni,Trentino-Alto Adige,46.01764678955078,11.107122421264648,TN,22205;;;;;;;;;;;;;;;;
721,721.0,721.0,,it,,,,Trentino-Alto Adige,46.03841018676758,11.110037803649902,TN,22205;;;;;;;;;;;;;;;;
722,722.0,722.0,,it,,,,Trentino-Alto Adige,46.038909912109375,11.110556602478027,TN,22205;;;;;;;;;;;;;;;;
723,723.0,723.0,Trento,it,,38121.0,Via Giambattista Unterveger,Trentino-Alto Adige,46.09441375732422,11.109947204589844,TN,22205;;;;;;;;;;;;;;;;
724,724.0,724.0,Trento,it,104,38121.0,Via Giambattista Unterveger,Trentino-Alto Adige,46.094635009765625,11.110076904296877,TN,22205;;;;;;;;;;;;;;;;
725,725.0,725.0,,it,,,,Trentino-Alto Adige,46.07188415527344,11.123749732971191,TN,22205;;;;;;;;;;;;;;;;
726,726.0,726.0,Trento,it,60,38122.0,Via Torre Verde,Trentino-Alto Adige,46.07146072387695,11.12460708618164,TN,22205;;;;;;;;;;;;;;;;
727,727.0,727.0,Trento,it,7,38122.0,Piazzetta Nicolò Rasmo,Trentino-Alto Adige,46.07112121582031,11.124722480773926,TN,22205;;;;;;;;;;;;;;;;
728,728.0,728.0,,it,,,,Trentino-Alto Adige,46.054962158203125,11.13632869720459,TN,22205;;;;;;;;;;;;;;;;
729,729.0,729.0,,it,,,,Trentino-Alto Adige,46.01940536499024,11.040093421936035,TN,22205;;;;;;;;;;;;;;;;
730,730.0,730.0,,it,,,,Trentino-Alto Adige,46.0207633972168,11.041003227233888,TN,22205;;;;;;;;;;;;;;;;
731,731.0,731.0,,it,,,,Trentino-Alto Adige,46.02088165283203,11.04190158843994,TN,22205;;;;;;;;;;;;;;;;
732,732.0,732.0,Trento,it,6,38122.0,Via Bartolameo da Trento,Trentino-Alto Adige,46.07607269287109,11.124643325805664,TN,22205;;;;;;;;;;;;;;;;
733,733.0,733.0,,it,,,,Trentino-Alto Adige,46.072486877441406,11.122031211853027,TN,22205;;;;;;;;;;;;;;;;
734,734.0,734.0,,it,,,,Trentino-Alto Adige,46.07311630249024,11.120603561401367,TN,22205;;;;;;;;;;;;;;;;
735,735.0,735.0,,it,,,,Trentino-Alto Adige,46.00666427612305,11.127509117126465,TN,22205;;;;;;;;;;;;;;;;
736,736.0,736.0,,it,,,,Trentino-Alto Adige,46.10002899169922,11.084920883178713,TN,22205;;;;;;;;;;;;;;;;
737,737.0,737.0,,it,,,,Trentino-Alto Adige,46.09461212158203,11.072049140930176,TN,22205;;;;;;;;;;;;;;;;
738,738.0,738.0,,it,,,,Trentino-Alto Adige,46.09449768066406,11.071698188781738,TN,22205;;;;;;;;;;;;;;;;
739,739.0,739.0,,it,,,,Trentino-Alto Adige,46.09840774536133,11.085265159606934,TN,22205;;;;;;;;;;;;;;;;
740,740.0,740.0,,it,,,,Trentino-Alto Adige,46.1008415222168,11.082667350769045,TN,22205;;;;;;;;;;;;;;;;
741,741.0,741.0,,it,,,,Trentino-Alto Adige,46.10302734375,11.07852268218994,TN,22205;;;;;;;;;;;;;;;;
742,742.0,742.0,,it,,,,Trentino-Alto Adige,46.10319519042969,11.078207015991213,TN,22205;;;;;;;;;;;;;;;;
743,743.0,743.0,,it,,,,Trentino-Alto Adige,46.103660583496094,11.078451156616213,TN,22205;;;;;;;;;;;;;;;;
744,744.0,744.0,,it,,,,Trentino-Alto Adige,46.0543098449707,11.120749473571776,TN,22205;;;;;;;;;;;;;;;;
745,745.0,745.0,Trento,it,6,38122.0,Via del Brennero,Trentino-Alto Adige,46.07558822631836,11.124710083007812,TN,22205;;;;;;;;;;;;;;;;
746,746.0,746.0,,it,,,,Trentino-Alto Adige,46.07657241821289,11.123007774353027,TN,22205;;;;;;;;;;;;;;;;
747,747.0,747.0,,it,,,,Trentino-Alto Adige,46.062744140625,11.124290466308594,TN,22205;;;;;;;;;;;;;;;;
748,748.0,748.0,,it,,,,Trentino-Alto Adige,46.061153411865234,11.176032066345217,TN,22205;;;;;;;;;;;;;;;;
749,749.0,749.0,,it,,,,Trentino-Alto Adige,46.06345748901367,11.182859420776367,TN,22205;;;;;;;;;;;;;;;;
750,750.0,750.0,,it,,,,Trentino-Alto Adige,46.07099151611328,11.123865127563477,TN,22205;;;;;;;;;;;;;;;;
751,751.0,751.0,,it,,,,Trentino-Alto Adige,46.06531524658203,11.125126838684082,TN,22205;;;;;;;;;;;;;;;;
752,752.0,752.0,,it,,,,Trentino-Alto Adige,46.03447723388672,11.143027305603027,TN,22205;;;;;;;;;;;;;;;;
753,753.0,753.0,,it,,,,Trentino-Alto Adige,46.08226013183594,11.115896224975586,TN,22205;;;;;;;;;;;;;;;;
754,754.0,754.0,,it,,,,Trentino-Alto Adige,46.04383850097656,11.130804061889648,TN,22205;;;;;;;;;;;;;;;;
755,755.0,755.0,,it,,,,Trentino-Alto Adige,46.09119415283203,11.16313934326172,TN,22205;;;;;;;;;;;;;;;;
756,756.0,756.0,,it,,,,Trentino-Alto Adige,46.0913314819336,11.163419723510742,TN,22205;;;;;;;;;;;;;;;;
757,757.0,757.0,,it,,,,Trentino-Alto Adige,46.09214782714844,11.160600662231444,TN,22205;;;;;;;;;;;;;;;;
758,758.0,758.0,,it,,,,Trentino-Alto Adige,46.09409332275391,11.14619255065918,TN,22205;;;;;;;;;;;;;;;;
759,759.0,759.0,,it,,,,Trentino-Alto Adige,46.095062255859375,11.154254913330078,TN,22205;;;;;;;;;;;;;;;;
760,760.0,760.0,,it,,,,Trentino-Alto Adige,46.09830856323242,11.136334419250488,TN,22205;;;;;;;;;;;;;;;;
761,761.0,761.0,,it,,,,Trentino-Alto Adige,46.09820938110352,11.143282890319824,TN,22205;;;;;;;;;;;;;;;;
762,762.0,762.0,,it,,,,Trentino-Alto Adige,46.089134216308594,11.116432189941406,TN,22205;;;;;;;;;;;;;;;;
763,763.0,763.0,Trento,it,4,38121.0,Via Bassa,Trentino-Alto Adige,46.098331451416016,11.109942436218262,TN,22205;;;;;;;;;;;;;;;;
764,764.0,764.0,,it,,,,Trentino-Alto Adige,46.04508590698242,11.065899848937988,TN,22205;;;;;;;;;;;;;;;;
765,765.0,765.0,,it,,,,Trentino-Alto Adige,46.07977294921875,11.12283706665039,TN,22205;;;;;;;;;;;;;;;;
766,766.0,766.0,,it,,,,Trentino-Alto Adige,46.07996368408203,11.122237205505373,TN,22205;;;;;;;;;;;;;;;;
767,767.0,767.0,,it,,,,Trentino-Alto Adige,46.07752990722656,11.136663436889648,TN,22205;;;;;;;;;;;;;;;;
768,768.0,768.0,,it,,,,Trentino-Alto Adige,46.07829666137695,11.13415241241455,TN,22205;;;;;;;;;;;;;;;;
769,769.0,769.0,,it,,,,Trentino-Alto Adige,46.02769470214844,11.045272827148438,TN,22205;;;;;;;;;;;;;;;;
770,770.0,770.0,,it,,,,Trentino-Alto Adige,46.09028244018555,11.113325119018556,TN,22205;;;;;;;;;;;;;;;;
771,771.0,771.0,,it,,,,Trentino-Alto Adige,46.09035873413086,11.113638877868652,TN,22205;;;;;;;;;;;;;;;;
772,772.0,772.0,,it,,,,Trentino-Alto Adige,46.09049224853516,11.112902641296388,TN,22205;;;;;;;;;;;;;;;;
773,773.0,773.0,,it,,,,Trentino-Alto Adige,46.09073638916016,11.112750053405762,TN,22205;;;;;;;;;;;;;;;;
774,774.0,774.0,Trento,it,86,38122.0,Via San Martino,Trentino-Alto Adige,46.0723762512207,11.125173568725586,TN,22205;;;;;;;;;;;;;;;;
775,775.0,775.0,,it,,,,Trentino-Alto Adige,46.040157318115234,11.058238983154297,TN,22205;;;;;;;;;;;;;;;;
776,776.0,776.0,,it,,,,Trentino-Alto Adige,46.03424453735352,11.050982475280762,TN,22205;;;;;;;;;;;;;;;;
777,777.0,777.0,,it,,,,Trentino-Alto Adige,46.03927230834961,11.057957649230955,TN,22205;;;;;;;;;;;;;;;;
778,778.0,778.0,,it,,,,Trentino-Alto Adige,46.0738639831543,11.12216091156006,TN,22205;;;;;;;;;;;;;;;;
779,779.0,779.0,,it,,,,Trentino-Alto Adige,46.06317138671875,11.118946075439451,TN,22205;;;;;;;;;;;;;;;;
780,780.0,780.0,,it,,,,Trentino-Alto Adige,46.08583450317383,11.15981388092041,TN,22205;;;;;;;;;;;;;;;;
781,781.0,781.0,,it,,,,Trentino-Alto Adige,46.08589172363281,11.159381866455078,TN,22205;;;;;;;;;;;;;;;;
782,782.0,782.0,,it,,,,Trentino-Alto Adige,46.08650588989258,11.159820556640623,TN,22205;;;;;;;;;;;;;;;;
783,783.0,783.0,,it,,,,Trentino-Alto Adige,46.0664291381836,11.075766563415527,TN,22205;;;;;;;;;;;;;;;;
784,784.0,784.0,,it,,,,Trentino-Alto Adige,46.0692138671875,11.077473640441896,TN,22205;;;;;;;;;;;;;;;;
785,785.0,785.0,Trento,it,8,38123.0,Strada delle Viote,Trentino-Alto Adige,46.02326965332031,11.037775039672852,TN,22205;;;;;;;;;;;;;;;;
786,786.0,786.0,,it,,,,Trentino-Alto Adige,46.03932571411133,11.058019638061523,TN,22205;;;;;;;;;;;;;;;;
787,787.0,787.0,Trento,it,11,38121.0,Via Ezio Maccani,Trentino-Alto Adige,46.08052444458008,11.11658763885498,TN,22205;;;;;;;;;;;;;;;;
788,788.0,788.0,Mattarello,it,106,38123.0,Via Giulio Catoni,Trentino-Alto Adige,46.00547790527344,11.126795768737791,TN,22205;;;;;;;;;;;;;;;;
789,789.0,789.0,,it,,,,Trentino-Alto Adige,46.01203155517578,11.09699821472168,TN,22205;;;;;;;;;;;;;;;;
790,790.0,790.0,,it,,,,Trentino-Alto Adige,46.01218795776367,11.096954345703123,TN,22205;;;;;;;;;;;;;;;;
791,791.0,791.0,,it,,,,Trentino-Alto Adige,46.05346298217773,11.12958812713623,TN,22205;;;;;;;;;;;;;;;;
792,792.0,792.0,,it,,,,Trentino-Alto Adige,46.00366973876953,11.031869888305664,TN,22205;;;;;;;;;;;;;;;;
793,793.0,793.0,Trento,it,21,38121.0,Via San Sebastian,Trentino-Alto Adige,46.103294372558594,11.097098350524902,TN,22205;;;;;;;;;;;;;;;;
794,794.0,794.0,,it,,,,Trentino-Alto Adige,46.04060363769531,11.13132667541504,TN,22205;;;;;;;;;;;;;;;;
795,795.0,795.0,Trento,it,4,38122.0,Piazza di Piedicastello,Trentino-Alto Adige,46.07088470458984,11.112497329711914,TN,22205;;;;;;;;;;;;;;;;
796,796.0,796.0,Trento,it,12,38122.0,Piazza di Piedicastello,Trentino-Alto Adige,46.071022033691406,11.112804412841797,TN,22205;;;;;;;;;;;;;;;;
797,797.0,797.0,,it,,,,Trentino-Alto Adige,46.064483642578125,11.153852462768556,TN,22205;;;;;;;;;;;;;;;;
798,798.0,798.0,,it,,,,Trentino-Alto Adige,46.06235504150391,11.154901504516602,TN,22205;;;;;;;;;;;;;;;;
799,799.0,799.0,,it,32,38123.0,Via Alcide Degasperi,Trentino-Alto Adige,46.050743103027344,11.121953964233398,TN,22205;;;;;;;;;;;;;;;;
800,800.0,800.0,,it,,,,Trentino-Alto Adige,46.09447860717773,11.119019508361816,TN,22205;;;;;;;;;;;;;;;;
801,801.0,801.0,,it,,,,Trentino-Alto Adige,46.09451675415039,11.119699478149414,TN,22205;;;;;;;;;;;;;;;;
802,802.0,802.0,,it,,,,Trentino-Alto Adige,46.08095169067383,11.0432710647583,TN,22205;;;;;;;;;;;;;;;;
803,803.0,803.0,,it,,,,Trentino-Alto Adige,46.0816764831543,11.046643257141112,TN,22205;;;;;;;;;;;;;;;;
804,804.0,804.0,,it,,,,Trentino-Alto Adige,46.09233093261719,11.11766529083252,TN,22205;;;;;;;;;;;;;;;;
805,805.0,805.0,,it,,,,Trentino-Alto Adige,46.0672492980957,11.165337562561035,TN,22205;;;;;;;;;;;;;;;;
806,806.0,806.0,,it,,,,Trentino-Alto Adige,46.0438117980957,11.177621841430664,TN,22205;;;;;;;;;;;;;;;;
807,807.0,807.0,,it,,,,Trentino-Alto Adige,46.05172729492188,11.184127807617188,TN,22205;;;;;;;;;;;;;;;;
808,808.0,808.0,,it,,,,Trentino-Alto Adige,46.05881118774414,11.185693740844728,TN,22205;;;;;;;;;;;;;;;;
809,809.0,809.0,,it,,,,Trentino-Alto Adige,46.05926132202149,11.185985565185549,TN,22205;;;;;;;;;;;;;;;;
810,810.0,810.0,,it,,,,Trentino-Alto Adige,46.05941390991211,11.185978889465332,TN,22205;;;;;;;;;;;;;;;;
811,811.0,811.0,,it,,,,Trentino-Alto Adige,46.06022262573242,11.185117721557615,TN,22205;;;;;;;;;;;;;;;;
812,812.0,812.0,,it,,,,Trentino-Alto Adige,46.06295776367188,11.18526840209961,TN,22205;;;;;;;;;;;;;;;;
813,813.0,813.0,,it,,,,Trentino-Alto Adige,46.06331253051758,11.182977676391602,TN,22205;;;;;;;;;;;;;;;;
814,814.0,814.0,,it,,,,Trentino-Alto Adige,46.06386566162109,11.18463897705078,TN,22205;;;;;;;;;;;;;;;;
815,815.0,815.0,,it,,,,Trentino-Alto Adige,46.0667610168457,11.17502498626709,TN,22205;;;;;;;;;;;;;;;;
816,816.0,816.0,,it,,,,Trentino-Alto Adige,46.067832946777344,11.16773796081543,TN,22205;;;;;;;;;;;;;;;;
817,817.0,817.0,,it,,,,Trentino-Alto Adige,46.00173568725586,11.124411582946776,TN,22205;;;;;;;;;;;;;;;;
818,818.0,818.0,Mattarello,it,26,38123.0,Via della Decima,Trentino-Alto Adige,46.004390716552734,11.132240295410156,TN,22205;;;;;;;;;;;;;;;;
819,819.0,819.0,Trento,it,7,38122.0,via Paolo Orsi,Trentino-Alto Adige,46.05751037597656,11.132257461547852,TN,22205;;;;;;;;;;;;;;;;
820,820.0,820.0,Trento,it,26,38122.0,Via Gian Domenico Romagnosi,Trentino-Alto Adige,46.07276153564453,11.122777938842772,TN,22205;;;;;;;;;;;;;;;;
821,821.0,821.0,,it,,,,Trentino-Alto Adige,46.069583892822266,11.119420051574709,TN,22205;;;;;;;;;;;;;;;;
822,822.0,822.0,Trento,it,7,38122.0,Via Giuseppe Gerola,Trentino-Alto Adige,46.05818176269531,11.132852554321287,TN,22205;;;;;;;;;;;;;;;;
823,823.0,823.0,,it,,,,Trentino-Alto Adige,46.04804992675781,11.12781047821045,TN,22205;;;;;;;;;;;;;;;;
824,824.0,824.0,,it,,,,Trentino-Alto Adige,46.05020904541016,11.13546657562256,TN,22205;;;;;;;;;;;;;;;;
825,825.0,825.0,,it,,,,Trentino-Alto Adige,46.09065628051758,11.113739013671877,TN,22205;;;;;;;;;;;;;;;;
826,826.0,826.0,,it,,,,Trentino-Alto Adige,46.025169372558594,11.111445426940918,TN,22205;;;;;;;;;;;;;;;;
827,827.0,827.0,,it,,,,Trentino-Alto Adige,46.025299072265625,11.110929489135742,TN,22205;;;;;;;;;;;;;;;;
828,828.0,828.0,,it,,,,Trentino-Alto Adige,46.03643035888672,11.110905647277832,TN,22205;;;;;;;;;;;;;;;;
829,829.0,829.0,,it,,,,Trentino-Alto Adige,46.03823852539063,11.123106002807615,TN,22205;;;;;;;;;;;;;;;;
830,830.0,830.0,,it,,,,Trentino-Alto Adige,46.07338333129883,11.11755657196045,TN,22205;;;;;;;;;;;;;;;;
831,831.0,831.0,,it,,,,Trentino-Alto Adige,46.08629608154297,11.132646560668944,TN,22205;;;;;;;;;;;;;;;;
832,832.0,832.0,,it,,,,Trentino-Alto Adige,46.10372924804688,11.108449935913086,TN,22205;;;;;;;;;;;;;;;;
833,833.0,833.0,Trento,it,28,38122.0,Via Giacomo Matteotti,Trentino-Alto Adige,46.0561752319336,11.121225357055664,TN,22205;;;;;;;;;;;;;;;;
834,834.0,834.0,Trento,it,27,38122.0,Via Giacomo Matteotti,Trentino-Alto Adige,46.056243896484375,11.122551918029783,TN,22205;;;;;;;;;;;;;;;;
835,835.0,835.0,,it,,,,Trentino-Alto Adige,46.02046203613281,11.042189598083496,TN,22205;;;;;;;;;;;;;;;;
836,836.0,836.0,Gardolo,it,32/2,38121.0,Via Soprasasso,Trentino-Alto Adige,46.10651779174805,11.108569145202637,TN,22205;;;;;;;;;;;;;;;;
837,837.0,837.0,,it,,,,Trentino-Alto Adige,46.10601425170898,11.108220100402832,TN,22205;;;;;;;;;;;;;;;;
838,838.0,838.0,Trento,it,77,38122.0,Via della Malvasia,Trentino-Alto Adige,46.07576751708984,11.125042915344238,TN,22205;;;;;;;;;;;;;;;;
839,839.0,839.0,Trento,it,46,38122.0,Via San Martino,Trentino-Alto Adige,46.073036193847656,11.125323295593262,TN,22205;;;;;;;;;;;;;;;;
840,840.0,840.0,,it,,,,Trentino-Alto Adige,46.03717422485352,11.107640266418455,TN,22205;;;;;;;;;;;;;;;;
841,841.0,841.0,,it,18,38122.0,Via Tommaso Gar,Trentino-Alto Adige,46.06690979003906,11.117198944091797,TN,22205;;;;;;;;;;;;;;;;
842,842.0,842.0,,it,,,,Trentino-Alto Adige,46.07670593261719,11.119242668151855,TN,22205;;;;;;;;;;;;;;;;
843,843.0,843.0,,it,,,,Trentino-Alto Adige,46.07139205932617,11.11086654663086,TN,22205;;;;;;;;;;;;;;;;
844,844.0,844.0,,it,,,,Trentino-Alto Adige,46.07140350341797,11.111339569091797,TN,22205;;;;;;;;;;;;;;;;
845,845.0,845.0,,it,,,,Trentino-Alto Adige,46.07268142700195,11.112348556518556,TN,22205;;;;;;;;;;;;;;;;
846,846.0,846.0,,it,,,,Trentino-Alto Adige,46.07291030883789,11.11174774169922,TN,22205;;;;;;;;;;;;;;;;
847,847.0,847.0,,it,,,,Trentino-Alto Adige,46.07265090942383,11.113250732421877,TN,22205;;;;;;;;;;;;;;;;
848,848.0,848.0,,it,,,,Trentino-Alto Adige,46.07242584228516,11.11314296722412,TN,22205;;;;;;;;;;;;;;;;
849,849.0,849.0,,it,,,,Trentino-Alto Adige,46.04761505126953,11.131760597229004,TN,22205;;;;;;;;;;;;;;;;
850,850.0,850.0,,it,,,,Trentino-Alto Adige,46.11165618896485,11.07750415802002,TN,22205;;;;;;;;;;;;;;;;
851,851.0,851.0,,it,,,,Trentino-Alto Adige,46.10321044921875,11.0784273147583,TN,22205;;;;;;;;;;;;;;;;
852,852.0,852.0,,it,,,,Trentino-Alto Adige,46.085899353027344,11.065659523010254,TN,22205;;;;;;;;;;;;;;;;
853,853.0,853.0,,it,,,,Trentino-Alto Adige,46.08827209472656,11.065796852111816,TN,22205;;;;;;;;;;;;;;;;
854,854.0,854.0,,it,,,,Trentino-Alto Adige,46.0865478515625,11.063803672790527,TN,22205;;;;;;;;;;;;;;;;
855,855.0,855.0,,it,,,,Trentino-Alto Adige,46.08761596679688,11.065926551818848,TN,22205;;;;;;;;;;;;;;;;
856,856.0,856.0,,it,,,,Trentino-Alto Adige,46.050174713134766,11.18621063232422,TN,22205;;;;;;;;;;;;;;;;
857,857.0,857.0,,it,,,,Trentino-Alto Adige,46.04328536987305,11.187814712524414,TN,22205;;;;;;;;;;;;;;;;
858,858.0,858.0,Trento,it,8,38122.0,Corso del Lavoro e della Scienza,Trentino-Alto Adige,46.06220626831055,11.114761352539062,TN,22205;;;;;;;;;;;;;;;;
859,859.0,859.0,,it,,,,Trentino-Alto Adige,46.07124328613281,11.14111328125,TN,22205;;;;;;;;;;;;;;;;
860,860.0,860.0,,it,,,,Trentino-Alto Adige,46.06095123291016,11.113750457763672,TN,22205;;;;;;;;;;;;;;;;
861,861.0,861.0,,it,,,,Trentino-Alto Adige,46.062965393066406,11.1131591796875,TN,22205;;;;;;;;;;;;;;;;
862,862.0,862.0,,it,,,,Trentino-Alto Adige,46.0607795715332,11.113130569458008,TN,22205;;;;;;;;;;;;;;;;
863,863.0,863.0,,it,,,,Trentino-Alto Adige,46.06658935546875,11.150213241577148,TN,22205;;;;;;;;;;;;;;;;
864,864.0,864.0,,it,,,,Trentino-Alto Adige,46.06794738769531,11.15111255645752,TN,22205;;;;;;;;;;;;;;;;
865,865.0,865.0,,it,,,,Trentino-Alto Adige,46.05804443359375,11.184768676757812,TN,22205;;;;;;;;;;;;;;;;
866,866.0,866.0,,it,,,,Trentino-Alto Adige,46.05401611328125,11.18204402923584,TN,22205;;;;;;;;;;;;;;;;
867,867.0,867.0,,it,,,,Trentino-Alto Adige,46.05101776123047,11.185383796691896,TN,22205;;;;;;;;;;;;;;;;
868,868.0,868.0,,it,,,,Trentino-Alto Adige,46.1031494140625,11.07860279083252,TN,22205;;;;;;;;;;;;;;;;
869,869.0,869.0,,it,,,,Trentino-Alto Adige,46.07955551147461,11.030521392822266,TN,22205;;;;;;;;;;;;;;;;
870,870.0,870.0,Trento,it,39/1,38123.0,Via Roberto da Sanseverino,Trentino-Alto Adige,46.06486129760742,11.113981246948242,TN,22205;;;;;;;;;;;;;;;;
871,871.0,871.0,Trento,it,2,38122.0,Via Castelbarco,Trentino-Alto Adige,46.06507110595703,11.114215850830078,TN,22205;;;;;;;;;;;;;;;;
872,872.0,872.0,Trento,it,11,38122.0,Via Don Giovanni Battista Zanella,Trentino-Alto Adige,46.06743240356445,11.117843627929688,TN,22205;;;;;;;;;;;;;;;;
873,873.0,873.0,,it,,,,Trentino-Alto Adige,46.07487487792969,11.11469268798828,TN,22205;;;;;;;;;;;;;;;;
874,874.0,874.0,,it,,,,Trentino-Alto Adige,46.07500457763672,11.11478328704834,TN,22205;;;;;;;;;;;;;;;;
875,875.0,875.0,,it,,,,Trentino-Alto Adige,46.01775741577149,11.105284690856934,TN,22205;;;;;;;;;;;;;;;;
876,876.0,876.0,,it,,,,Trentino-Alto Adige,46.07498550415039,11.114720344543455,TN,22205;;;;;;;;;;;;;;;;
877,877.0,877.0,Trento,it,21,38121.0,Via Romano Guardini,Trentino-Alto Adige,46.093238830566406,11.117816925048828,TN,22205;;;;;;;;;;;;;;;;
878,878.0,878.0,Trento,it,6,38121.0,Via Santi Cosma e Damiano,Trentino-Alto Adige,46.08382034301758,11.098615646362305,TN,22205;;;;;;;;;;;;;;;;
879,879.0,879.0,Trento,it,2,38123.0,Via Adalberto Libera,Trentino-Alto Adige,46.05978775024414,11.11571979522705,TN,22205;;;;;;;;;;;;;;;;
880,880.0,880.0,,it,,,,Trentino-Alto Adige,46.09245681762695,11.132917404174805,TN,22205;;;;;;;;;;;;;;;;
881,881.0,881.0,Trento,it,1,38122.0,Via Giuseppe Grazioli,Trentino-Alto Adige,46.06742477416992,11.128565788269045,TN,22205;;;;;;;;;;;;;;;;
882,882.0,882.0,Trento,it,3,38122.0,Viale Adriano Olivetti,Trentino-Alto Adige,46.062198638916016,11.115260124206545,TN,22205;;;;;;;;;;;;;;;;
883,883.0,883.0,,it,,,,Trentino-Alto Adige,46.01733016967773,11.047139167785645,TN,22205;;;;;;;;;;;;;;;;
884,884.0,884.0,,it,,,,Trentino-Alto Adige,46.01735305786133,11.04669952392578,TN,22205;;;;;;;;;;;;;;;;
885,885.0,885.0,Trento,it,4,38121.0,Via Luigi Brugnara,Trentino-Alto Adige,46.088523864746094,11.11758041381836,TN,22205;;;;;;;;;;;;;;;;
886,886.0,886.0,Vigo Meano,it,17,38121.0,Strada alle Gorghe,Trentino-Alto Adige,46.131778717041016,11.139421463012695,TN,22205;;;;;;;;;;;;;;;;
887,887.0,887.0,Trento,it,2,38122.0,Via del Brennero,Trentino-Alto Adige,46.0751838684082,11.124937057495115,TN,22205;;;;;;;;;;;;;;;;
888,888.0,888.0,Trento,it,13,38123.0,Piazza delle Donne lavoratrici,Trentino-Alto Adige,46.06011199951172,11.115192413330078,TN,22205;;;;;;;;;;;;;;;;
889,889.0,889.0,,it,,,,Trentino-Alto Adige,46.06294631958008,11.113784790039062,TN,22205;;;;;;;;;;;;;;;;
890,890.0,890.0,Trento,it,20,38122.0,Via del Suffragio,Trentino-Alto Adige,46.071563720703125,11.124876022338867,TN,22205;;;;;;;;;;;;;;;;
891,891.0,891.0,,it,,,,Trentino-Alto Adige,46.121238708496094,11.0930814743042,TN,22205;;;;;;;;;;;;;;;;
892,892.0,892.0,,it,,,,Trentino-Alto Adige,46.0688362121582,11.128758430480955,TN,22205;;;;;;;;;;;;;;;;
893,893.0,893.0,,it,,,,Trentino-Alto Adige,46.0667724609375,11.123022079467772,TN,22205;;;;;;;;;;;;;;;;
894,894.0,894.0,,it,,,,Trentino-Alto Adige,46.065555572509766,11.102842330932615,TN,22205;;;;;;;;;;;;;;;;
895,895.0,895.0,,it,,,,Trentino-Alto Adige,46.06358337402344,11.123066902160645,TN,22205;;;;;;;;;;;;;;;;
896,896.0,896.0,,it,,,,Trentino-Alto Adige,46.06079864501953,11.114091873168944,TN,22205;;;;;;;;;;;;;;;;
897,897.0,897.0,Trento,it,10,38122.0,Via Giovanni Segantini,Trentino-Alto Adige,46.075340270996094,11.122142791748049,TN,22205;;;;;;;;;;;;;;;;
898,898.0,898.0,,it,,,,Trentino-Alto Adige,46.08853530883789,11.11030387878418,TN,22205;;;;;;;;;;;;;;;;
899,899.0,899.0,Trento,it,288,38121.0,Via del Brennero,Trentino-Alto Adige,46.08819580078125,11.11769962310791,TN,22205;;;;;;;;;;;;;;;;
900,900.0,900.0,,it,,,,Trentino-Alto Adige,46.06123733520508,11.12037181854248,TN,22205;;;;;;;;;;;;;;;;
901,901.0,901.0,,it,,,,Trentino-Alto Adige,46.06118774414063,11.120111465454102,TN,22205;;;;;;;;;;;;;;;;
902,902.0,902.0,,it,,,,Trentino-Alto Adige,46.051513671875,11.063709259033203,TN,22205;;;;;;;;;;;;;;;;
903,903.0,903.0,,it,,,,Trentino-Alto Adige,46.06592559814453,11.184940338134766,TN,22205;;;;;;;;;;;;;;;;
904,904.0,904.0,,it,,,,Trentino-Alto Adige,46.0648193359375,11.186760902404783,TN,22205;;;;;;;;;;;;;;;;
905,905.0,905.0,,it,,,,Trentino-Alto Adige,46.06345748901367,11.188902854919434,TN,22205;;;;;;;;;;;;;;;;
906,906.0,906.0,,it,,,,Trentino-Alto Adige,46.06380081176758,11.185613632202148,TN,22205;;;;;;;;;;;;;;;;
907,907.0,907.0,,it,,,,Trentino-Alto Adige,46.05904006958008,11.175248146057127,TN,22205;;;;;;;;;;;;;;;;
908,908.0,908.0,,it,,,,Trentino-Alto Adige,46.08558654785156,11.111074447631836,TN,22205;;;;;;;;;;;;;;;;
909,909.0,909.0,,it,,,,Trentino-Alto Adige,46.03514099121094,11.121789932250977,TN,22205;;;;;;;;;;;;;;;;
910,910.0,910.0,,it,,,,Trentino-Alto Adige,46.08831787109375,11.069657325744627,TN,22205;;;;;;;;;;;;;;;;
911,911.0,911.0,,it,,,,Trentino-Alto Adige,46.08633804321289,11.150398254394531,TN,22205;;;;;;;;;;;;;;;;
912,912.0,912.0,,it,,,,Trentino-Alto Adige,46.09017181396485,11.084711074829102,TN,22205;;;;;;;;;;;;;;;;
913,913.0,913.0,,it,,,,Trentino-Alto Adige,46.07721710205078,11.119708061218262,TN,22205;;;;;;;;;;;;;;;;
914,914.0,914.0,,it,,,,Trentino-Alto Adige,46.01213073730469,11.139470100402832,TN,22205;;;;;;;;;;;;;;;;
915,915.0,915.0,,it,54,,Via Giuseppe Grazioli,Trentino-Alto Adige,46.066497802734375,11.129504203796388,TN,22205;;;;;;;;;;;;;;;;
916,916.0,916.0,Trento,it,6,38123.0,Via dei Marinai d'Italia,Trentino-Alto Adige,46.0352668762207,11.12637710571289,TN,22205;;;;;;;;;;;;;;;;
917,917.0,917.0,Trento,it,6,38123.0,Via dei Marinai d'Italia,Trentino-Alto Adige,46.03531265258789,11.126263618469238,TN,22205;;;;;;;;;;;;;;;;
918,918.0,918.0,Trento,it,28,38123.0,Via dei Marinai d'Italia,Trentino-Alto Adige,46.03535461425781,11.12647819519043,TN,22205;;;;;;;;;;;;;;;;
919,919.0,919.0,,it,,,,Trentino-Alto Adige,46.04098510742188,11.122756004333496,TN,22205;;;;;;;;;;;;;;;;
920,920.0,920.0,,it,,,,Trentino-Alto Adige,46.04170608520508,11.122796058654783,TN,22205;;;;;;;;;;;;;;;;
921,921.0,921.0,Trento,it,7,38123.0,Via Anna Frank,Trentino-Alto Adige,46.05065536499024,11.12493896484375,TN,22205;;;;;;;;;;;;;;;;
922,922.0,922.0,,it,,,,Trentino-Alto Adige,46.09162521362305,11.105279922485352,TN,22205;;;;;;;;;;;;;;;;
923,923.0,923.0,,it,74,38122.0,Via Piave,Trentino-Alto Adige,46.06241989135742,11.126323699951172,TN,22205;;;;;;;;;;;;;;;;
924,924.0,924.0,Trento,it,125,38122.0,Via Roberto da Sanseverino,Trentino-Alto Adige,46.05113220214844,11.112383842468262,TN,22205;;;;;;;;;;;;;;;;
925,925.0,925.0,Trento,it,98,38122.0,Via Vittorio Veneto,Trentino-Alto Adige,46.058292388916016,11.122360229492188,TN,22205;;;;;;;;;;;;;;;;
926,926.0,926.0,,it,,,,Trentino-Alto Adige,46.04052734375,11.111617088317873,TN,22205;;;;;;;;;;;;;;;;
927,927.0,927.0,Ravina,it,7,38123.0,Via Herrsching,Trentino-Alto Adige,46.040626525878906,11.111592292785645,TN,22205;;;;;;;;;;;;;;;;
928,928.0,928.0,,it,,,,Trentino-Alto Adige,46.04049682617188,11.111786842346191,TN,22205;;;;;;;;;;;;;;;;
929,929.0,929.0,,it,,,,Trentino-Alto Adige,46.13298416137695,11.128921508789062,TN,22205;;;;;;;;;;;;;;;;
930,930.0,930.0,,it,,,,Trentino-Alto Adige,46.08859634399414,11.118780136108398,TN,22205;;;;;;;;;;;;;;;;
931,931.0,931.0,,it,,,,Trentino-Alto Adige,46.088470458984375,11.118122100830078,TN,22205;;;;;;;;;;;;;;;;
932,932.0,932.0,,it,,,,Trentino-Alto Adige,46.087059020996094,11.117365837097168,TN,22205;;;;;;;;;;;;;;;;
933,933.0,933.0,,it,,,,Trentino-Alto Adige,46.08772277832031,11.117000579833984,TN,22205;;;;;;;;;;;;;;;;
934,934.0,934.0,,it,,,,Trentino-Alto Adige,46.13808441162109,11.118797302246094,TN,22205;;;;;;;;;;;;;;;;
935,935.0,935.0,,it,,,,Trentino-Alto Adige,46.076114654541016,11.109898567199709,TN,22205;;;;;;;;;;;;;;;;
936,936.0,936.0,Trento,it,13,38122.0,Via Malta,Trentino-Alto Adige,46.06199645996094,11.127275466918944,TN,22205;;;;;;;;;;;;;;;;
937,937.0,937.0,,it,,,,Trentino-Alto Adige,46.06588745117188,11.154664039611816,TN,22205;;;;;;;;;;;;;;;;
938,938.0,938.0,Trento,it,86,38123.0,Via Galassa,Trentino-Alto Adige,46.034610748291016,11.145315170288086,TN,22205;;;;;;;;;;;;;;;;
939,939.0,939.0,,it,,,,Trentino-Alto Adige,46.06465911865234,11.127604484558104,TN,22205;;;;;;;;;;;;;;;;
940,940.0,940.0,Trento,it,55,38122.0,Via Roma,Trentino-Alto Adige,46.069732666015625,11.120899200439451,TN,22205;;;;;;;;;;;;;;;;
941,941.0,941.0,Trento,it,55,38122.0,Via Roma,Trentino-Alto Adige,46.06972885131836,11.120868682861328,TN,22205;;;;;;;;;;;;;;;;
942,942.0,942.0,Trento,it,55,38122.0,Via Roma,Trentino-Alto Adige,46.06973648071289,11.120922088623049,TN,22205;;;;;;;;;;;;;;;;
943,943.0,943.0,Trento,it,4,,Viale degli Olmi,Trentino-Alto Adige,46.04956817626953,11.131400108337402,TN,22205;;;;;;;;;;;;;;;;
944,944.0,944.0,Povo,it,5,38123.0,Via Don Tommaso Dallafior,Trentino-Alto Adige,46.06488037109375,11.15342140197754,TN,22205;;;;;;;;;;;;;;;;
945,945.0,945.0,Trento,it,33,38123.0,Via Padre Eusebio Chini,Trentino-Alto Adige,46.05337142944336,11.13198947906494,TN,22205;;;;;;;;;;;;;;;;
946,946.0,946.0,,it,,,,Trentino-Alto Adige,46.07387924194336,11.184228897094728,TN,22205;;;;;;;;;;;;;;;;
947,947.0,947.0,,it,,,,Trentino-Alto Adige,46.074737548828125,11.175613403320312,TN,22205;;;;;;;;;;;;;;;;
948,948.0,948.0,,it,,,,Trentino-Alto Adige,46.07764434814453,11.174344062805176,TN,22205;;;;;;;;;;;;;;;;
949,949.0,949.0,,it,9/a,38123.0,Via di Coltura,Trentino-Alto Adige,46.08922576904297,11.066361427307127,TN,22205;;;;;;;;;;;;;;;;
950,950.0,950.0,,it,,,,Trentino-Alto Adige,46.07453536987305,11.107383728027344,TN,22205;;;;;;;;;;;;;;;;
951,951.0,951.0,Trento,it,13,38122.0,Piazza di Fiera,Trentino-Alto Adige,46.06487655639648,11.123387336730955,TN,22205;;;;;;;;;;;;;;;;
952,952.0,952.0,Trento,it,3,38123.0,Via Lidorno,Trentino-Alto Adige,46.02056884765625,11.127039909362791,TN,22205;;;;;;;;;;;;;;;;
953,953.0,953.0,,it,,,,Trentino-Alto Adige,46.10044097900391,11.148808479309082,TN,22205;;;;;;;;;;;;;;;;
954,954.0,954.0,Trento,it,21,38123.0,Via Fersina,Trentino-Alto Adige,46.04457092285156,11.120880126953123,TN,22205;;;;;;;;;;;;;;;;
955,955.0,955.0,Trento,it,6,38121.0,Via Padre Emilio Chiocchetti,Trentino-Alto Adige,46.09432601928711,11.12014102935791,TN,22205;;;;;;;;;;;;;;;;
956,956.0,956.0,Trento,it,190,38121.0,Via del Brennero,Trentino-Alto Adige,46.082767486572266,11.120756149291992,TN,22205;;;;;;;;;;;;;;;;
957,957.0,957.0,Trento,it,11,38121.0,Via Linz,Trentino-Alto Adige,46.11806869506836,11.097190856933594,TN,22205;;;;;;;;;;;;;;;;
958,958.0,958.0,Trento,it,15,38123.0,Piazza delle Donne lavoratrici,Trentino-Alto Adige,46.06013107299805,11.11494255065918,TN,22205;;;;;;;;;;;;;;;;
959,959.0,959.0,Trento,it,16/A,38121.0,Via dei Solteri,Trentino-Alto Adige,46.088985443115234,11.120935440063477,TN,22205;;;;;;;;;;;;;;;;
960,960.0,960.0,Cadine,it,13,38123.0,Strada di Cadine,Trentino-Alto Adige,46.08819580078125,11.065484046936035,TN,22205;;;;;;;;;;;;;;;;
961,961.0,961.0,,it,,,,Trentino-Alto Adige,46.01093673706055,11.138998985290527,TN,22205;;;;;;;;;;;;;;;;
962,962.0,962.0,,it,,,,Trentino-Alto Adige,46.011531829833984,11.13955783843994,TN,22205;;;;;;;;;;;;;;;;
963,963.0,963.0,Trento,it,1,38121.0,Via della Spalliera,Trentino-Alto Adige,46.07978820800781,11.125317573547363,TN,22205;;;;;;;;;;;;;;;;
964,964.0,964.0,,it,,,,Trentino-Alto Adige,46.05484771728516,11.119958877563477,TN,22205;;;;;;;;;;;;;;;;
965,965.0,965.0,,it,,,,Trentino-Alto Adige,46.07000350952149,11.183344841003418,TN,22205;;;;;;;;;;;;;;;;
966,966.0,966.0,,it,,,,Trentino-Alto Adige,46.1046028137207,11.110772132873535,TN,22205;;;;;;;;;;;;;;;;
967,967.0,967.0,,it,,,,Trentino-Alto Adige,46.13307189941406,11.135144233703612,TN,22205;;;;;;;;;;;;;;;;
968,968.0,968.0,Trento,it,6,38122.0,Via Fratelli Perini,Trentino-Alto Adige,46.05984878540039,11.11985206604004,TN,22205;;;;;;;;;;;;;;;;
969,969.0,969.0,Trento,it,1,38122.0,Via Felice e Gregorio Fontana,Trentino-Alto Adige,46.0776252746582,11.116239547729492,TN,22205;;;;;;;;;;;;;;;;
970,970.0,970.0,Trento,it,8,38122.0,Via San Francesco d'Assisi,Trentino-Alto Adige,46.06689834594727,11.125922203063965,TN,22205;;;;;;;;;;;;;;;;
971,971.0,971.0,,it,,,,Trentino-Alto Adige,46.049583435058594,11.084823608398438,TN,22205;;;;;;;;;;;;;;;;
972,972.0,972.0,,it,,,,Trentino-Alto Adige,46.09172058105469,11.112157821655272,TN,22205;;;;;;;;;;;;;;;;
973,973.0,973.0,,it,,,,Trentino-Alto Adige,46.094974517822266,11.109582901000977,TN,22205;;;;;;;;;;;;;;;;
974,974.0,974.0,,it,,,,Trentino-Alto Adige,46.02861022949219,11.164822578430176,TN,22205;;;;;;;;;;;;;;;;
975,975.0,975.0,,it,,,,Trentino-Alto Adige,46.08504867553711,11.15877914428711,TN,22205;;;;;;;;;;;;;;;;
976,976.0,976.0,,it,,,,Trentino-Alto Adige,46.07208633422852,11.162325859069824,TN,22205;;;;;;;;;;;;;;;;
977,977.0,977.0,,it,,,,Trentino-Alto Adige,46.04425430297852,11.092093467712402,TN,22205;;;;;;;;;;;;;;;;
978,978.0,978.0,,it,,,,Trentino-Alto Adige,46.04228973388672,11.093304634094238,TN,22205;;;;;;;;;;;;;;;;
979,979.0,979.0,,it,,,,Trentino-Alto Adige,46.06489944458008,11.158947944641112,TN,22205;;;;;;;;;;;;;;;;
980,980.0,980.0,,it,,,,Trentino-Alto Adige,46.065277099609375,11.159213066101074,TN,22205;;;;;;;;;;;;;;;;
981,981.0,981.0,Trento,it,19/A,38121.0,Via Bolzano,Trentino-Alto Adige,46.10026931762695,11.110471725463867,TN,22205;;;;;;;;;;;;;;;;
982,982.0,982.0,Trento,it,260/L,38121.0,Via del Brennero,Trentino-Alto Adige,46.086551666259766,11.1185941696167,TN,22205;;;;;;;;;;;;;;;;
983,983.0,983.0,Povo,it,4/1,38123.0,Via alla Cascata,Trentino-Alto Adige,46.06646728515625,11.153356552124023,TN,22205;;;;;;;;;;;;;;;;
984,984.0,984.0,,it,,,,Trentino-Alto Adige,45.99001693725586,11.137432098388672,TN,22205;;;;;;;;;;;;;;;;
985,985.0,985.0,Trento,it,30,38123.0,Via dei Marinai d'Italia,Trentino-Alto Adige,46.03531646728516,11.12657070159912,TN,22205;;;;;;;;;;;;;;;;
986,986.0,986.0,,it,,,,Trentino-Alto Adige,46.071414947509766,11.13350772857666,TN,22205;;;;;;;;;;;;;;;;
987,987.0,987.0,,it,,,,Trentino-Alto Adige,46.06663131713867,11.121655464172363,TN,22205;;;;;;;;;;;;;;;;
988,988.0,988.0,,it,,,,Trentino-Alto Adige,46.11077117919922,11.09142017364502,TN,22205;;;;;;;;;;;;;;;;
989,989.0,989.0,,it,,,,Trentino-Alto Adige,46.01640701293945,11.047614097595217,TN,22205;;;;;;;;;;;;;;;;
990,990.0,990.0,,it,,,,Trentino-Alto Adige,46.06126022338867,11.08181095123291,TN,22205;;;;;;;;;;;;;;;;
991,991.0,991.0,,it,,,,Trentino-Alto Adige,46.05064392089844,11.083694458007812,TN,22205;;;;;;;;;;;;;;;;
992,992.0,992.0,,it,,,,Trentino-Alto Adige,46.04747772216797,11.08777141571045,TN,22205;;;;;;;;;;;;;;;;
993,993.0,993.0,,it,,,,Trentino-Alto Adige,46.06085205078125,11.092170715332031,TN,22205;;;;;;;;;;;;;;;;
994,994.0,994.0,,it,,,,Trentino-Alto Adige,46.04679870605469,11.087902069091797,TN,22205;;;;;;;;;;;;;;;;
995,995.0,995.0,,it,,,,Trentino-Alto Adige,46.05763626098633,11.08372688293457,TN,22205;;;;;;;;;;;;;;;;
996,996.0,996.0,,it,,,,Trentino-Alto Adige,46.05232620239258,11.075597763061523,TN,22205;;;;;;;;;;;;;;;;
997,997.0,997.0,,it,,,,Trentino-Alto Adige,46.048805236816406,11.08494472503662,TN,22205;;;;;;;;;;;;;;;;
998,998.0,998.0,,it,,,,Trentino-Alto Adige,46.05115509033203,11.083697319030762,TN,22205;;;;;;;;;;;;;;;;
999,999.0,999.0,Trento,it,8,38121.0,Via 25 Aprile 1945,Trentino-Alto Adige,46.09822463989258,11.11618709564209,TN,22205;;;;;;;;;;;;;;;;
1000,1000.0,1000.0,,it,,,,Trentino-Alto Adige,46.09203720092773,11.086318969726562,TN,22205;;;;;;;;;;;;;;;;
1001,1001.0,1001.0,,it,,,,Trentino-Alto Adige,46.09247589111328,11.086392402648926,TN,22205;;;;;;;;;;;;;;;;
1002,1002.0,1002.0,,it,,,,Trentino-Alto Adige,46.095027923583984,11.086674690246582,TN,22205;;;;;;;;;;;;;;;;
1003,1003.0,1003.0,,it,,,,Trentino-Alto Adige,46.08662033081055,11.08884334564209,TN,22205;;;;;;;;;;;;;;;;
1004,1004.0,1004.0,,it,,,,Trentino-Alto Adige,46.08916091918945,11.08649730682373,TN,22205;;;;;;;;;;;;;;;;
1005,1005.0,1005.0,,it,,,,Trentino-Alto Adige,46.08918762207031,11.086634635925291,TN,22205;;;;;;;;;;;;;;;;
1006,1006.0,1006.0,,it,,,,Trentino-Alto Adige,46.08980178833008,11.085542678833008,TN,22205;;;;;;;;;;;;;;;;
1007,1007.0,1007.0,,it,,,,Trentino-Alto Adige,46.09016799926758,11.085026741027832,TN,22205;;;;;;;;;;;;;;;;
1008,1008.0,1008.0,,it,,,,Trentino-Alto Adige,46.091426849365234,11.086634635925291,TN,22205;;;;;;;;;;;;;;;;
1009,1009.0,1009.0,,it,,,,Trentino-Alto Adige,46.098392486572266,11.08529281616211,TN,22205;;;;;;;;;;;;;;;;
1010,1010.0,1010.0,,it,,,,Trentino-Alto Adige,46.0704345703125,11.078123092651367,TN,22205;;;;;;;;;;;;;;;;
1011,1011.0,1011.0,,it,,,,Trentino-Alto Adige,46.07047653198242,11.07809829711914,TN,22205;;;;;;;;;;;;;;;;
1012,1012.0,1012.0,,it,,,,Trentino-Alto Adige,46.069278717041016,11.077422142028809,TN,22205;;;;;;;;;;;;;;;;
1013,1013.0,1013.0,,it,,,,Trentino-Alto Adige,46.066314697265625,11.12395477294922,TN,22205;;;;;;;;;;;;;;;;
1014,1014.0,1014.0,,it,,,,Trentino-Alto Adige,46.08738708496094,11.135584831237791,TN,22205;;;;;;;;;;;;;;;;
1015,1015.0,1015.0,,it,,,,Trentino-Alto Adige,46.05538558959961,11.131972312927246,TN,22205;;;;;;;;;;;;;;;;
1016,1016.0,1016.0,,it,,,,Trentino-Alto Adige,46.1357307434082,11.127419471740724,TN,22205;;;;;;;;;;;;;;;;
1017,1017.0,1017.0,,it,,,,Trentino-Alto Adige,46.13887786865234,11.131754875183104,TN,22205;;;;;;;;;;;;;;;;
1018,1018.0,1018.0,,it,,,,Trentino-Alto Adige,46.13810729980469,11.122970581054688,TN,22205;;;;;;;;;;;;;;;;
1019,1019.0,1019.0,,it,,,,Trentino-Alto Adige,46.138370513916016,11.123371124267578,TN,22205;;;;;;;;;;;;;;;;
1020,1020.0,1020.0,,it,,,,Trentino-Alto Adige,46.1379280090332,11.11872100830078,TN,22205;;;;;;;;;;;;;;;;
1021,1021.0,1021.0,,it,,,,Trentino-Alto Adige,46.13736343383789,11.120201110839844,TN,22205;;;;;;;;;;;;;;;;
1022,1022.0,1022.0,,it,,,,Trentino-Alto Adige,46.13969039916992,11.131272315979004,TN,22205;;;;;;;;;;;;;;;;
1023,1023.0,1023.0,Trento,it,191/D,38121.0,Via Ezio Maccani,Trentino-Alto Adige,46.09273910522461,11.106270790100098,TN,22205;;;;;;;;;;;;;;;;
1024,1024.0,1024.0,,it,,,,Trentino-Alto Adige,46.123756408691406,11.132977485656738,TN,22205;;;;;;;;;;;;;;;;
1025,1025.0,1025.0,,it,,,,Trentino-Alto Adige,46.12382888793945,11.134137153625488,TN,22205;;;;;;;;;;;;;;;;
1026,1026.0,1026.0,,it,,,,Trentino-Alto Adige,46.123836517333984,11.134356498718262,TN,22205;;;;;;;;;;;;;;;;
1027,1027.0,1027.0,,it,,,,Trentino-Alto Adige,46.12474060058594,11.130961418151855,TN,22205;;;;;;;;;;;;;;;;
1028,1028.0,1028.0,,it,,,,Trentino-Alto Adige,46.125938415527344,11.129232406616213,TN,22205;;;;;;;;;;;;;;;;
1029,1029.0,1029.0,,it,,,,Trentino-Alto Adige,46.12714385986328,11.128870010375977,TN,22205;;;;;;;;;;;;;;;;
1030,1030.0,1030.0,,it,,,,Trentino-Alto Adige,46.12860870361328,11.143372535705566,TN,22205;;;;;;;;;;;;;;;;
1031,1031.0,1031.0,,it,,,,Trentino-Alto Adige,46.13686752319336,11.1399507522583,TN,22205;;;;;;;;;;;;;;;;
1032,1032.0,1032.0,,it,,,,Trentino-Alto Adige,46.13178253173828,11.14172649383545,TN,22205;;;;;;;;;;;;;;;;
1033,1033.0,1033.0,,it,,,,Trentino-Alto Adige,46.118934631347656,11.14623737335205,TN,22205;;;;;;;;;;;;;;;;
1034,1034.0,1034.0,,it,,,,Trentino-Alto Adige,46.12128448486328,11.14226531982422,TN,22205;;;;;;;;;;;;;;;;
1035,1035.0,1035.0,,it,,,,Trentino-Alto Adige,46.11886215209961,11.146430015563965,TN,22205;;;;;;;;;;;;;;;;
1036,1036.0,1036.0,,it,,,,Trentino-Alto Adige,46.11996841430664,11.145573616027832,TN,22205;;;;;;;;;;;;;;;;
1037,1037.0,1037.0,,it,,,,Trentino-Alto Adige,46.12820816040039,11.143348693847656,TN,22205;;;;;;;;;;;;;;;;
1038,1038.0,1038.0,,it,,,,Trentino-Alto Adige,46.12854766845703,11.137330055236816,TN,22205;;;;;;;;;;;;;;;;
1039,1039.0,1039.0,,it,,,,Trentino-Alto Adige,46.13006591796875,11.126821517944336,TN,22205;;;;;;;;;;;;;;;;
1040,1040.0,1040.0,,it,,,,Trentino-Alto Adige,46.13021469116211,11.126099586486816,TN,22205;;;;;;;;;;;;;;;;
1041,1041.0,1041.0,,it,,,,Trentino-Alto Adige,46.13187026977539,11.141740798950195,TN,22205;;;;;;;;;;;;;;;;
1042,1042.0,1042.0,,it,,,,Trentino-Alto Adige,46.13209915161133,11.141799926757812,TN,22205;;;;;;;;;;;;;;;;
1043,1043.0,1043.0,,it,,,,Trentino-Alto Adige,46.13228225708008,11.141765594482422,TN,22205;;;;;;;;;;;;;;;;
1044,1044.0,1044.0,,it,,,,Trentino-Alto Adige,46.13338470458984,11.133241653442385,TN,22205;;;;;;;;;;;;;;;;
1045,1045.0,1045.0,,it,,,,Trentino-Alto Adige,46.13526153564453,11.1334228515625,TN,22205;;;;;;;;;;;;;;;;
1046,1046.0,1046.0,,it,,,,Trentino-Alto Adige,46.13559722900391,11.140874862670898,TN,22205;;;;;;;;;;;;;;;;
1047,1047.0,1047.0,,it,,,,Trentino-Alto Adige,46.12028121948242,11.155006408691406,TN,22205;;;;;;;;;;;;;;;;
1048,1048.0,1048.0,,it,,,,Trentino-Alto Adige,46.130367279052734,11.127235412597656,TN,22205;;;;;;;;;;;;;;;;
1049,1049.0,1049.0,,it,,,,Trentino-Alto Adige,46.13056945800781,11.126925468444824,TN,22205;;;;;;;;;;;;;;;;
1050,1050.0,1050.0,,it,,,,Trentino-Alto Adige,46.1341552734375,11.1185884475708,TN,22205;;;;;;;;;;;;;;;;
1051,1051.0,1051.0,,it,,,,Trentino-Alto Adige,46.136451721191406,11.118985176086426,TN,22205;;;;;;;;;;;;;;;;
1052,1052.0,1052.0,,it,,,,Trentino-Alto Adige,46.137542724609375,11.11777687072754,TN,22205;;;;;;;;;;;;;;;;
1053,1053.0,1053.0,,it,,,,Trentino-Alto Adige,46.08750915527344,11.058510780334473,TN,22205;;;;;;;;;;;;;;;;
1054,1054.0,1054.0,Meano,it,26,38121.0,Via delle Sugarine,Trentino-Alto Adige,46.1265869140625,11.116122245788574,TN,22205;;;;;;;;;;;;;;;;
1055,1055.0,1055.0,,it,,,,Trentino-Alto Adige,46.12223815917969,11.11517333984375,TN,22205;;;;;;;;;;;;;;;;
1056,1056.0,1056.0,,it,,,,Trentino-Alto Adige,46.122047424316406,11.116908073425291,TN,22205;;;;;;;;;;;;;;;;
1057,1057.0,1057.0,,it,,,,Trentino-Alto Adige,46.06489562988281,11.153912544250488,TN,22205;;;;;;;;;;;;;;;;
1058,1058.0,1058.0,,it,,,,Trentino-Alto Adige,46.06489562988281,11.15396499633789,TN,22205;;;;;;;;;;;;;;;;
1059,1059.0,1059.0,,it,,,,Trentino-Alto Adige,46.04326629638672,11.187530517578123,TN,22205;;;;;;;;;;;;;;;;
1060,1060.0,1060.0,,it,,,,Trentino-Alto Adige,46.03581237792969,11.1867094039917,TN,22205;;;;;;;;;;;;;;;;
1061,1061.0,1061.0,,it,,,,Trentino-Alto Adige,46.030391693115234,11.18536376953125,TN,22205;;;;;;;;;;;;;;;;
1062,1062.0,1062.0,,it,,,,Trentino-Alto Adige,46.02385330200195,11.164883613586426,TN,22205;;;;;;;;;;;;;;;;
1063,1063.0,1063.0,Trento,it,40,38121.0,Via del Commercio,Trentino-Alto Adige,46.09200668334961,11.103973388671877,TN,22205;;;;;;;;;;;;;;;;
1064,1064.0,1064.0,Trento,it,5,38121.0,Via del Commercio,Trentino-Alto Adige,46.09098434448242,11.106634140014648,TN,22205;;;;;;;;;;;;;;;;
1065,1065.0,1065.0,,it,,,,Trentino-Alto Adige,46.04547119140625,11.051424026489258,TN,22205;;;;;;;;;;;;;;;;
1066,1066.0,1066.0,,it,15,,Via del Ponte,Trentino-Alto Adige,46.04474258422852,11.112483024597168,TN,22205;;;;;;;;;;;;;;;;
1067,1067.0,1067.0,Trento,it,27,38121.0,Via Maestri del Lavoro,Trentino-Alto Adige,46.0872917175293,11.107545852661133,TN,22205;;;;;;;;;;;;;;;;
1068,1068.0,1068.0,,it,,,,Trentino-Alto Adige,46.06223678588867,11.112933158874512,TN,22205;;;;;;;;;;;;;;;;
1069,1069.0,1069.0,,it,,,,Trentino-Alto Adige,46.06061172485352,11.113204002380373,TN,22205;;;;;;;;;;;;;;;;
1070,1070.0,1070.0,,it,,,,Trentino-Alto Adige,46.0606575012207,11.114102363586426,TN,22205;;;;;;;;;;;;;;;;
1071,1071.0,1071.0,Trento,it,48,38121.0,Via Padre Emilio Chiocchetti,Trentino-Alto Adige,46.09415054321289,11.118330001831056,TN,22205;;;;;;;;;;;;;;;;
1072,1072.0,1072.0,,it,,,,Trentino-Alto Adige,46.020206451416016,11.126941680908203,TN,22205;;;;;;;;;;;;;;;;
1073,1073.0,1073.0,,it,,,,Trentino-Alto Adige,46.06269073486328,11.115276336669922,TN,22205;;;;;;;;;;;;;;;;
1074,1074.0,1074.0,Trento,it,88,38122.0,Via Santa Croce,Trentino-Alto Adige,46.0631103515625,11.123549461364746,TN,22205;;;;;;;;;;;;;;;;
1075,1075.0,1075.0,,it,,,,Trentino-Alto Adige,46.09819412231445,11.114225387573242,TN,22205;;;;;;;;;;;;;;;;
1076,1076.0,1076.0,,it,,,,Trentino-Alto Adige,46.06529235839844,11.15459156036377,TN,22205;;;;;;;;;;;;;;;;
1077,1077.0,1077.0,,it,,,,Trentino-Alto Adige,46.07167434692383,11.16237735748291,TN,22205;;;;;;;;;;;;;;;;
1078,1078.0,1078.0,,it,,,,Trentino-Alto Adige,46.0635986328125,11.118946075439451,TN,22205;;;;;;;;;;;;;;;;
1079,1079.0,1079.0,,it,,,,Trentino-Alto Adige,45.99552536010742,11.126364707946776,TN,22205;;;;;;;;;;;;;;;;
1080,1080.0,1080.0,Trento,it,15,38123.0,Via Margone,Trentino-Alto Adige,46.02457809448242,11.108794212341309,TN,22205;;;;;;;;;;;;;;;;
1081,1081.0,1081.0,,it,,,,Trentino-Alto Adige,46.1011848449707,11.1116943359375,TN,22205;;;;;;;;;;;;;;;;
1082,1082.0,1082.0,,it,,,,Trentino-Alto Adige,46.04937362670898,11.147204399108888,TN,22205;;;;;;;;;;;;;;;;
1083,1083.0,1083.0,,it,,,,Trentino-Alto Adige,46.06499099731445,11.102365493774414,TN,22205;;;;;;;;;;;;;;;;
1084,1084.0,1084.0,,it,,,,Trentino-Alto Adige,46.06489181518555,11.102313041687012,TN,22205;;;;;;;;;;;;;;;;
1085,1085.0,1085.0,Trento,it,23,38122.0,Strada per Maranza,Trentino-Alto Adige,46.02766418457031,11.165579795837402,TN,22205;;;;;;;;;;;;;;;;
1086,1086.0,1086.0,,it,,,,Trentino-Alto Adige,46.02755355834961,11.16563606262207,TN,22205;;;;;;;;;;;;;;;;
1087,1087.0,1087.0,,it,,,,Trentino-Alto Adige,46.077632904052734,11.116893768310549,TN,22205;;;;;;;;;;;;;;;;
1088,1088.0,1088.0,,it,,,,Trentino-Alto Adige,46.06635665893555,11.151445388793944,TN,22205;;;;;;;;;;;;;;;;
1089,1089.0,1089.0,Trento,it,111,38121.0,Via del Brennero,Trentino-Alto Adige,46.08585357666016,11.11709690093994,TN,22205;;;;;;;;;;;;;;;;
1090,1090.0,1090.0,,it,,,,Trentino-Alto Adige,46.10023880004883,11.109644889831545,TN,22205;;;;;;;;;;;;;;;;
1091,1091.0,1091.0,Trento,it,22,38122.0,Piazza di Fiera,Trentino-Alto Adige,46.06514358520508,11.123077392578123,TN,22205;;;;;;;;;;;;;;;;
1092,1092.0,1092.0,,it,,,,Trentino-Alto Adige,45.98481750488281,11.113402366638184,TN,22205;;;;;;;;;;;;;;;;
1093,1093.0,1093.0,,it,,,,Trentino-Alto Adige,46.069332122802734,11.157866477966309,TN,22205;;;;;;;;;;;;;;;;
1094,1094.0,1094.0,,it,,,,Trentino-Alto Adige,46.06932067871094,11.155791282653809,TN,22205;;;;;;;;;;;;;;;;
1095,1095.0,1095.0,,it,,,,Trentino-Alto Adige,46.06923294067383,11.15575122833252,TN,22205;;;;;;;;;;;;;;;;
1096,1096.0,1096.0,Trento,it,11,38121.0,Via Innsbruck,Trentino-Alto Adige,46.111289978027344,11.091961860656738,TN,22205;;;;;;;;;;;;;;;;
1097,1097.0,1097.0,,it,,,,Trentino-Alto Adige,46.07780075073242,11.14316463470459,TN,22205;;;;;;;;;;;;;;;;
1098,1098.0,1098.0,Trento,it,6,38121.0,Via Salorno,Trentino-Alto Adige,46.132442474365234,11.112048149108888,TN,22205;;;;;;;;;;;;;;;;
1099,1099.0,1099.0,,it,,,,Trentino-Alto Adige,46.06637573242188,11.150897026062012,TN,22205;;;;;;;;;;;;;;;;
1100,1100.0,1100.0,,it,,,,Trentino-Alto Adige,46.06638717651367,11.151084899902344,TN,22205;;;;;;;;;;;;;;;;
1101,1101.0,1101.0,,it,,,,Trentino-Alto Adige,46.06638717651367,11.151293754577637,TN,22205;;;;;;;;;;;;;;;;
1102,1102.0,1102.0,,it,,,,Trentino-Alto Adige,46.06628036499024,11.150785446166992,TN,22205;;;;;;;;;;;;;;;;
1103,1103.0,1103.0,,it,,,,Trentino-Alto Adige,46.06611251831055,11.150796890258787,TN,22205;;;;;;;;;;;;;;;;
1104,1104.0,1104.0,,it,,,,Trentino-Alto Adige,46.06603240966797,11.150986671447754,TN,22205;;;;;;;;;;;;;;;;
1105,1105.0,1105.0,,it,,,,Trentino-Alto Adige,46.0657844543457,11.150943756103516,TN,22205;;;;;;;;;;;;;;;;
1106,1106.0,1106.0,,it,,,,Trentino-Alto Adige,46.065704345703125,11.150954246520996,TN,22205;;;;;;;;;;;;;;;;
1107,1107.0,1107.0,,it,,,,Trentino-Alto Adige,46.07164764404297,11.162205696105955,TN,22205;;;;;;;;;;;;;;;;
1108,1108.0,1108.0,,it,,,,Trentino-Alto Adige,46.069950103759766,11.127521514892578,TN,22205;;;;;;;;;;;;;;;;
1109,1109.0,1109.0,,it,,,,Trentino-Alto Adige,46.07365417480469,11.15095043182373,TN,22205;;;;;;;;;;;;;;;;
1110,1110.0,1110.0,,it,,,,Trentino-Alto Adige,46.07905960083008,11.115070343017578,TN,22205;;;;;;;;;;;;;;;;
1111,1111.0,1111.0,,it,,,,Trentino-Alto Adige,46.080474853515625,11.113814353942873,TN,22205;;;;;;;;;;;;;;;;
1112,1112.0,1112.0,,it,25,,Piazza della Mostra,Trentino-Alto Adige,46.07154846191406,11.125680923461914,TN,22205;;;;;;;;;;;;;;;;
1113,1113.0,1113.0,,it,,,,Trentino-Alto Adige,46.05098342895508,11.184521675109863,TN,22205;;;;;;;;;;;;;;;;
1114,1114.0,1114.0,,it,,,,Trentino-Alto Adige,46.05247116088867,11.183208465576172,TN,22205;;;;;;;;;;;;;;;;
1115,1115.0,1115.0,Trento,it,6/1,38122.0,Corso Michelangelo Buonarroti,Trentino-Alto Adige,46.07636260986328,11.119309425354004,TN,22205;;;;;;;;;;;;;;;;
1116,1116.0,1116.0,Trento,it,27,38122.0,Vicolo del Vò,Trentino-Alto Adige,46.07018661499024,11.124110221862791,TN,22205;;;;;;;;;;;;;;;;
1117,1117.0,1117.0,,it,,,,Trentino-Alto Adige,46.06055450439453,11.11492156982422,TN,22205;;;;;;;;;;;;;;;;
1118,1118.0,1118.0,Trento,it,5,38122.0,Via cardinale Bernardo Clesio,Trentino-Alto Adige,46.07147979736328,11.126684188842772,TN,22205;;;;;;;;;;;;;;;;
1119,1119.0,1119.0,,it,,,,Trentino-Alto Adige,46.07133865356445,11.12688446044922,TN,22205;;;;;;;;;;;;;;;;
1120,1120.0,1120.0,,it,,,,Trentino-Alto Adige,46.11865997314453,11.11495590209961,TN,22205;;;;;;;;;;;;;;;;
1121,1121.0,1121.0,,it,,,,Trentino-Alto Adige,46.07167053222656,11.121198654174805,TN,22205;;;;;;;;;;;;;;;;
1122,1122.0,1122.0,,it,,,,Trentino-Alto Adige,46.0718002319336,11.121281623840332,TN,22205;;;;;;;;;;;;;;;;
1123,1123.0,1123.0,Trento,it,25,38122.0,Via Torre D'Augusto,Trentino-Alto Adige,46.07319641113281,11.12673282623291,TN,22205;;;;;;;;;;;;;;;;
1124,1124.0,1124.0,,it,20,38122.0,Piazza di Fiera,Trentino-Alto Adige,46.0651969909668,11.123017311096191,TN,22205;;;;;;;;;;;;;;;;
1125,1125.0,1125.0,,it,,,,Trentino-Alto Adige,46.08343505859375,11.17504596710205,TN,22205;;;;;;;;;;;;;;;;
1126,1126.0,1126.0,,it,,,,Trentino-Alto Adige,46.00391387939453,11.130366325378418,TN,22205;;;;;;;;;;;;;;;;
1127,1127.0,1127.0,,it,,,,Trentino-Alto Adige,46.01088333129883,11.133519172668455,TN,22205;;;;;;;;;;;;;;;;
1128,1128.0,1128.0,,it,,,,Trentino-Alto Adige,46.00242233276367,11.128689765930176,TN,22205;;;;;;;;;;;;;;;;
1129,1129.0,1129.0,,it,,,,Trentino-Alto Adige,46.00276565551758,11.129098892211914,TN,22205;;;;;;;;;;;;;;;;
1130,1130.0,1130.0,,it,,,,Trentino-Alto Adige,46.00693893432617,11.129960060119627,TN,22205;;;;;;;;;;;;;;;;
1131,1131.0,1131.0,,it,,,,Trentino-Alto Adige,46.00712966918945,11.129345893859863,TN,22205;;;;;;;;;;;;;;;;
1132,1132.0,1132.0,,it,,,,Trentino-Alto Adige,46.00706481933594,11.129324913024902,TN,22205;;;;;;;;;;;;;;;;
1133,1133.0,1133.0,,it,,,,Trentino-Alto Adige,46.07460403442383,11.125072479248049,TN,22205;;;;;;;;;;;;;;;;
1134,1134.0,1134.0,Mattarello,it,7,38123.0,Via Guido Poli,Trentino-Alto Adige,46.00658798217773,11.12879467010498,TN,22205;;;;;;;;;;;;;;;;
1135,1135.0,1135.0,,it,,,,Trentino-Alto Adige,46.01491928100586,11.13258171081543,TN,22205;;;;;;;;;;;;;;;;
1136,1136.0,1136.0,Mattarello,it,25,38123.0,Località le Basse,Trentino-Alto Adige,45.998477935791016,11.124874114990234,TN,22205;;;;;;;;;;;;;;;;
1137,1137.0,1137.0,Cognola,it,6,38121.0,Via dei Bergamini,Trentino-Alto Adige,46.083404541015625,11.14413356781006,TN,22205;;;;;;;;;;;;;;;;
1138,1138.0,1138.0,,it,,,,Trentino-Alto Adige,46.0678825378418,11.123287200927734,TN,22205;;;;;;;;;;;;;;;;
1139,1139.0,1139.0,,it,,,,Trentino-Alto Adige,46.05256271362305,11.127583503723145,TN,22205;;;;;;;;;;;;;;;;
1140,1140.0,1140.0,,it,,,,Trentino-Alto Adige,46.0517692565918,11.125067710876465,TN,22205;;;;;;;;;;;;;;;;
1141,1141.0,1141.0,,it,,,Via Bassa,Trentino-Alto Adige,46.09497833251953,11.110130310058594,TN,22205;;;;;;;;;;;;;;;;
1142,1142.0,1142.0,,it,,,,Trentino-Alto Adige,46.00376510620117,11.130510330200195,TN,22205;;;;;;;;;;;;;;;;
1143,1143.0,1143.0,,it,,,,Trentino-Alto Adige,45.99934005737305,11.123202323913574,TN,22205;;;;;;;;;;;;;;;;
1144,1144.0,1144.0,,it,,,,Trentino-Alto Adige,46.062294006347656,11.079830169677734,TN,22205;;;;;;;;;;;;;;;;
1145,1145.0,1145.0,,it,,,,Trentino-Alto Adige,46.06989288330078,11.126521110534668,TN,22205;;;;;;;;;;;;;;;;
1146,1146.0,1146.0,,it,,,,Trentino-Alto Adige,46.09206771850586,11.145978927612305,TN,22205;;;;;;;;;;;;;;;;
1147,1147.0,1147.0,,it,,,,Trentino-Alto Adige,46.09121322631836,11.14759349822998,TN,22205;;;;;;;;;;;;;;;;
1148,1148.0,1148.0,,it,,,,Trentino-Alto Adige,46.09029769897461,11.147589683532717,TN,22205;;;;;;;;;;;;;;;;
1149,1149.0,1149.0,,it,,,,Trentino-Alto Adige,46.0894775390625,11.145953178405762,TN,22205;;;;;;;;;;;;;;;;
1150,1150.0,1150.0,,it,,,,Trentino-Alto Adige,46.08787155151367,11.145660400390623,TN,22205;;;;;;;;;;;;;;;;
1151,1151.0,1151.0,,it,,,,Trentino-Alto Adige,46.084617614746094,11.14775562286377,TN,22205;;;;;;;;;;;;;;;;
1152,1152.0,1152.0,,it,,,,Trentino-Alto Adige,46.084266662597656,11.147730827331545,TN,22205;;;;;;;;;;;;;;;;
1153,1153.0,1153.0,,it,,,,Trentino-Alto Adige,46.08224868774414,11.148687362670898,TN,22205;;;;;;;;;;;;;;;;
1154,1154.0,1154.0,,it,,,,Trentino-Alto Adige,46.07820510864258,11.144349098205566,TN,22205;;;;;;;;;;;;;;;;
1155,1155.0,1155.0,,it,,,,Trentino-Alto Adige,46.0778923034668,11.142396926879885,TN,22205;;;;;;;;;;;;;;;;
1156,1156.0,1156.0,,it,,,,Trentino-Alto Adige,46.0771369934082,11.142014503479004,TN,22205;;;;;;;;;;;;;;;;
1157,1157.0,1157.0,,it,,,,Trentino-Alto Adige,46.05903625488281,11.174753189086914,TN,22205;;;;;;;;;;;;;;;;
1158,1158.0,1158.0,,it,,,,Trentino-Alto Adige,46.04575729370117,11.172444343566896,TN,22205;;;;;;;;;;;;;;;;
1159,1159.0,1159.0,,it,,,,Trentino-Alto Adige,46.05670547485352,11.12218952178955,TN,22205;;;;;;;;;;;;;;;;
1160,1160.0,1160.0,,it,,,,Trentino-Alto Adige,46.08036804199219,11.113236427307127,TN,22205;;;;;;;;;;;;;;;;
1161,1161.0,1161.0,,it,,,,Trentino-Alto Adige,46.06288909912109,11.115374565124512,TN,22205;;;;;;;;;;;;;;;;
1162,1162.0,1162.0,,it,,,,Trentino-Alto Adige,46.06324005126953,11.115592956542969,TN,22205;;;;;;;;;;;;;;;;
1163,1163.0,1163.0,,it,,,,Trentino-Alto Adige,46.01897048950195,11.040111541748049,TN,22205;;;;;;;;;;;;;;;;
1164,1164.0,1164.0,,it,,,,Trentino-Alto Adige,46.01429748535156,11.132369041442873,TN,22205;;;;;;;;;;;;;;;;
1165,1165.0,1165.0,,it,,,,Trentino-Alto Adige,46.073917388916016,11.118494987487791,TN,22205;;;;;;;;;;;;;;;;
1166,1166.0,1166.0,Trento,it,6,,Via San Daniele Comboni,Trentino-Alto Adige,46.08128356933594,11.123005867004396,TN,22205;;;;;;;;;;;;;;;;
1167,1167.0,1167.0,,it,,,,Trentino-Alto Adige,46.10897064208984,11.110658645629885,TN,22205;;;;;;;;;;;;;;;;
1168,1168.0,1168.0,Trento,it,65,38121.0,Via Innsbruck,Trentino-Alto Adige,46.10187149047852,11.095306396484377,TN,22205;;;;;;;;;;;;;;;;
1169,1169.0,1169.0,,it,,,,Trentino-Alto Adige,46.10638046264648,11.111780166625977,TN,22205;;;;;;;;;;;;;;;;
1170,1170.0,1170.0,,it,,,,Trentino-Alto Adige,46.064239501953125,11.041254043579102,TN,22205;;;;;;;;;;;;;;;;
1171,1171.0,1171.0,,it,,,,Trentino-Alto Adige,46.09506988525391,11.117777824401855,TN,22205;;;;;;;;;;;;;;;;
1172,1172.0,1172.0,,it,,,,Trentino-Alto Adige,46.09480667114258,11.11846160888672,TN,22205;;;;;;;;;;;;;;;;
1173,1173.0,1173.0,,it,,,,Trentino-Alto Adige,46.08341217041016,11.17513370513916,TN,22205;;;;;;;;;;;;;;;;
1174,1174.0,1174.0,,it,,,,Trentino-Alto Adige,46.00646209716797,11.163124084472656,TN,22205;;;;;;;;;;;;;;;;
1175,1175.0,1175.0,,it,8/1,,Via Giovanni Pasculi,Trentino-Alto Adige,46.06092071533203,11.117979049682615,TN,22205;;;;;;;;;;;;;;;;
1176,1176.0,1176.0,,it,19,38123.0,Via dei Falchi - Vanéze,Trentino-Alto Adige,46.0531005859375,11.071539878845217,TN,22205;;;;;;;;;;;;;;;;
1177,1177.0,1177.0,,it,,,,Trentino-Alto Adige,46.09683990478516,11.116616249084473,TN,22205;;;;;;;;;;;;;;;;
1178,1178.0,1178.0,Trento,it,7/A,38122.0,Via Zara,Trentino-Alto Adige,46.064598083496094,11.133538246154783,TN,22205;;;;;;;;;;;;;;;;
1179,1179.0,1179.0,,it,,,,Trentino-Alto Adige,46.067420959472656,11.149802207946776,TN,22205;;;;;;;;;;;;;;;;
1180,1180.0,1180.0,,it,,,,Trentino-Alto Adige,46.06744003295898,11.150016784667969,TN,22205;;;;;;;;;;;;;;;;
1181,1181.0,1181.0,,it,,,,Trentino-Alto Adige,46.06655883789063,11.149405479431152,TN,22205;;;;;;;;;;;;;;;;
1182,1182.0,1182.0,,it,,,,Trentino-Alto Adige,46.06654357910156,11.149779319763184,TN,22205;;;;;;;;;;;;;;;;
1183,1183.0,1183.0,,it,,,,Trentino-Alto Adige,46.06655502319336,11.149593353271484,TN,22205;;;;;;;;;;;;;;;;
1184,1184.0,1184.0,,it,,,,Trentino-Alto Adige,46.06744003295898,11.149938583374023,TN,22205;;;;;;;;;;;;;;;;
1185,1185.0,1185.0,Trento,it,45,38123.0,Via Stella di Man,Trentino-Alto Adige,46.03652191162109,11.12951374053955,TN,22205;;;;;;;;;;;;;;;;
1186,1186.0,1186.0,Trento,it,8/C,38122.0,Via Zara,Trentino-Alto Adige,46.064186096191406,11.131595611572266,TN,22205;;;;;;;;;;;;;;;;
1187,1187.0,1187.0,,it,,,,Trentino-Alto Adige,46.074745178222656,11.113032341003418,TN,22205;;;;;;;;;;;;;;;;
1188,1188.0,1188.0,,it,,,,Trentino-Alto Adige,46.04365539550781,11.13178539276123,TN,22205;;;;;;;;;;;;;;;;
1189,1189.0,1189.0,,it,,,,Trentino-Alto Adige,46.07047271728516,11.121557235717772,TN,22205;;;;;;;;;;;;;;;;
1190,1190.0,1190.0,Trento,it,43,38122.0,Via Vittorio Veneto,Trentino-Alto Adige,46.05868148803711,11.121837615966797,TN,22205;;;;;;;;;;;;;;;;
1191,1191.0,1191.0,,it,,,,Trentino-Alto Adige,46.130470275878906,11.128429412841797,TN,22205;;;;;;;;;;;;;;;;
1192,1192.0,1192.0,,it,,,,Trentino-Alto Adige,46.13576126098633,11.114578247070312,TN,22205;;;;;;;;;;;;;;;;
1193,1193.0,1193.0,,it,,,,Trentino-Alto Adige,46.13584899902344,11.11431121826172,TN,22205;;;;;;;;;;;;;;;;
1194,1194.0,1194.0,,it,,,,Trentino-Alto Adige,46.12224960327149,11.116265296936035,TN,22205;;;;;;;;;;;;;;;;
1195,1195.0,1195.0,,it,,,,Trentino-Alto Adige,46.12225341796875,11.116148948669434,TN,22205;;;;;;;;;;;;;;;;
1196,1196.0,1196.0,,it,,,,Trentino-Alto Adige,46.11549377441406,11.115151405334473,TN,22205;;;;;;;;;;;;;;;;
1197,1197.0,1197.0,,it,,,,Trentino-Alto Adige,46.11524963378906,11.1157865524292,TN,22205;;;;;;;;;;;;;;;;
1198,1198.0,1198.0,,it,,,,Trentino-Alto Adige,46.1153450012207,11.115442276000977,TN,22205;;;;;;;;;;;;;;;;
1199,1199.0,1199.0,,it,,,,Trentino-Alto Adige,46.01153564453125,11.128153800964355,TN,22205;;;;;;;;;;;;;;;;
1200,1200.0,1200.0,,it,,,,Trentino-Alto Adige,46.0743408203125,11.07870388031006,TN,22205;;;;;;;;;;;;;;;;
1201,1201.0,1201.0,,it,,,,Trentino-Alto Adige,46.07440948486328,11.077722549438477,TN,22205;;;;;;;;;;;;;;;;
1202,1202.0,1202.0,,it,1/A,,Via Don Giovanni Battista Zanella,Trentino-Alto Adige,46.06743240356445,11.117523193359377,TN,22205;;;;;;;;;;;;;;;;
1203,1203.0,1203.0,Gardolo,it,2,38121.0,Piazzale Lionello Groff,Trentino-Alto Adige,46.10791397094727,11.112363815307615,TN,22205;;;;;;;;;;;;;;;;
1204,1204.0,1204.0,Ravina,it,2,38123.0,Via Val Gola,Trentino-Alto Adige,46.03781127929688,11.106449127197266,TN,22205;;;;;;;;;;;;;;;;
1205,1205.0,1205.0,Sopramonte,it,4,38123.0,Via di Revolta,Trentino-Alto Adige,46.07161712646485,11.05994987487793,TN,22205;;;;;;;;;;;;;;;;
1206,1206.0,1206.0,Romagnano,it,1,38123.0,Via alle Sette Fontane,Trentino-Alto Adige,46.01715469360352,11.10590362548828,TN,22205;;;;;;;;;;;;;;;;
1207,1207.0,1207.0,Trento,it,38,38123.0,Piazzale Europa,Trentino-Alto Adige,46.04024887084961,11.13329792022705,TN,22205;;;;;;;;;;;;;;;;
1208,1208.0,1208.0,,it,34,,Via del Molin,Trentino-Alto Adige,46.085750579833984,11.062891960144045,TN,22205;;;;;;;;;;;;;;;;
1209,1209.0,1209.0,,it,1,,Strada di Montevaccino,Trentino-Alto Adige,46.10812759399414,11.14423942565918,TN,22205;;;;;;;;;;;;;;;;
1210,1210.0,1210.0,,it,5,,Piazza Giuseppe Menghin,Trentino-Alto Adige,46.089820861816406,11.131462097167969,TN,22205;;;;;;;;;;;;;;;;
1211,1211.0,1211.0,,it,,,,Trentino-Alto Adige,46.00657272338867,11.128347396850586,TN,22205;;;;;;;;;;;;;;;;
1212,1212.0,1212.0,,it,,,,Trentino-Alto Adige,46.00616836547852,11.130491256713867,TN,22205;;;;;;;;;;;;;;;;
1213,1213.0,1213.0,Mattarello,it,41,38123.0,Via Nazionale,Trentino-Alto Adige,46.0062255859375,11.127226829528809,TN,22205;;;;;;;;;;;;;;;;
1214,1214.0,1214.0,,it,,,,Trentino-Alto Adige,46.00627136230469,11.126904487609863,TN,22205;;;;;;;;;;;;;;;;
1215,1215.0,1215.0,,it,,,,Trentino-Alto Adige,46.09334945678711,11.13070011138916,TN,22205;;;;;;;;;;;;;;;;
1216,1216.0,1216.0,,it,,,,Trentino-Alto Adige,46.008392333984375,11.128377914428713,TN,22205;;;;;;;;;;;;;;;;
1217,1217.0,1217.0,,it,,,,Trentino-Alto Adige,46.00600814819336,11.12735080718994,TN,22205;;;;;;;;;;;;;;;;
1218,1218.0,1218.0,,it,,,,Trentino-Alto Adige,46.05432891845703,11.094977378845217,TN,22205;;;;;;;;;;;;;;;;
1219,1219.0,1219.0,,it,,,,Trentino-Alto Adige,46.05248260498047,11.09337329864502,TN,22205;;;;;;;;;;;;;;;;
1220,1220.0,1220.0,,it,,,,Trentino-Alto Adige,46.06635284423828,11.185301780700684,TN,22205;;;;;;;;;;;;;;;;
1221,1221.0,1221.0,,it,,,,Trentino-Alto Adige,46.03712844848633,11.128538131713867,TN,22205;;;;;;;;;;;;;;;;
1222,1222.0,1222.0,,it,,,,Trentino-Alto Adige,46.03791809082031,11.128671646118164,TN,22205;;;;;;;;;;;;;;;;
1223,1223.0,1223.0,,it,,,,Trentino-Alto Adige,46.032691955566406,11.151540756225586,TN,22205;;;;;;;;;;;;;;;;
1224,1224.0,1224.0,,it,,,,Trentino-Alto Adige,46.127689361572266,11.116684913635254,TN,22205;;;;;;;;;;;;;;;;
1225,1225.0,1225.0,,it,,,,Trentino-Alto Adige,46.0897216796875,11.169262886047363,TN,22205;;;;;;;;;;;;;;;;
1226,1226.0,1226.0,,it,,,,Trentino-Alto Adige,46.05560302734375,11.075895309448242,TN,22205;;;;;;;;;;;;;;;;
1227,1227.0,1227.0,,it,,,,Trentino-Alto Adige,46.06548690795898,11.150676727294922,TN,22205;;;;;;;;;;;;;;;;
1228,1228.0,1228.0,,it,,,,Trentino-Alto Adige,46.067626953125,11.15020751953125,TN,22205;;;;;;;;;;;;;;;;
1229,1229.0,1229.0,,it,,,,Trentino-Alto Adige,46.08624649047852,11.161307334899902,TN,22205;;;;;;;;;;;;;;;;
1230,1230.0,1230.0,,it,,,,Trentino-Alto Adige,46.00648498535156,11.12922191619873,TN,22205;;;;;;;;;;;;;;;;
1231,1231.0,1231.0,,it,,,,Trentino-Alto Adige,46.0671272277832,11.138930320739746,TN,22205;;;;;;;;;;;;;;;;
1232,1232.0,1232.0,Trento,it,14,38121.0,Via Aldo Schmid,Trentino-Alto Adige,46.08296203613281,11.115949630737305,TN,22205;;;;;;;;;;;;;;;;
1233,1233.0,1233.0,,it,150,,Via Ezio Maccani,Trentino-Alto Adige,46.09272766113281,11.110152244567873,TN,22205;;;;;;;;;;;;;;;;
1234,1234.0,1234.0,,it,,,,Trentino-Alto Adige,46.0765495300293,11.137474060058594,TN,22205;;;;;;;;;;;;;;;;
1235,1235.0,1235.0,,it,,,,Trentino-Alto Adige,46.07653045654297,11.137764930725098,TN,22205;;;;;;;;;;;;;;;;
1236,1236.0,1236.0,,it,,,,Trentino-Alto Adige,46.06630706787109,11.14272689819336,TN,22205;;;;;;;;;;;;;;;;
1237,1237.0,1237.0,,it,,,,Trentino-Alto Adige,46.06378173828125,11.122398376464844,TN,22205;;;;;;;;;;;;;;;;
1238,1238.0,1238.0,Trento,it,21,38122.0,Corso III Novembre,Trentino-Alto Adige,46.0616455078125,11.12452793121338,TN,22205;;;;;;;;;;;;;;;;
1239,1239.0,1239.0,,it,,,,Trentino-Alto Adige,46.039005279541016,11.128599166870115,TN,22205;;;;;;;;;;;;;;;;
1240,1240.0,1240.0,,it,,,,Trentino-Alto Adige,46.03876495361328,11.128949165344238,TN,22205;;;;;;;;;;;;;;;;
1241,1241.0,1241.0,,it,,,,Trentino-Alto Adige,46.03870391845703,11.129080772399902,TN,22205;;;;;;;;;;;;;;;;
1242,1242.0,1242.0,,it,,,,Trentino-Alto Adige,46.038368225097656,11.129002571105955,TN,22205;;;;;;;;;;;;;;;;
1243,1243.0,1243.0,,it,,,,Trentino-Alto Adige,46.055511474609375,11.081384658813477,TN,22205;;;;;;;;;;;;;;;;
1244,1244.0,1244.0,,it,,,,Trentino-Alto Adige,46.05558013916016,11.081344604492188,TN,22205;;;;;;;;;;;;;;;;
1245,1245.0,1245.0,Trento,it,19,38122.0,Via Giuseppe Verdi,Trentino-Alto Adige,46.06661224365234,11.117894172668455,TN,22205;;;;;;;;;;;;;;;;
1246,1246.0,1246.0,Ravina,it,18,38123.0,Via Centrale,Trentino-Alto Adige,46.03776168823242,11.10422134399414,TN,22205;;;;;;;;;;;;;;;;
1247,1247.0,1247.0,,it,,,,Trentino-Alto Adige,46.03898620605469,11.100496292114258,TN,22205;;;;;;;;;;;;;;;;
1248,1248.0,1248.0,,it,,,,Trentino-Alto Adige,46.04053115844727,11.094216346740724,TN,22205;;;;;;;;;;;;;;;;
1249,1249.0,1249.0,,it,,,,Trentino-Alto Adige,46.03921508789063,11.10020923614502,TN,22205;;;;;;;;;;;;;;;;
1250,1250.0,1250.0,,it,,,,Trentino-Alto Adige,46.039161682128906,11.100208282470703,TN,22205;;;;;;;;;;;;;;;;
1251,1251.0,1251.0,,it,,,,Trentino-Alto Adige,46.00532531738281,11.133963584899902,TN,22205;;;;;;;;;;;;;;;;
1252,1252.0,1252.0,,it,,,,Trentino-Alto Adige,46.00395584106445,11.13035774230957,TN,22205;;;;;;;;;;;;;;;;
1253,1253.0,1253.0,,it,,,,Trentino-Alto Adige,46.005218505859375,11.137723922729492,TN,22205;;;;;;;;;;;;;;;;
1254,1254.0,1254.0,,it,,,,Trentino-Alto Adige,46.07836532592773,11.14163303375244,TN,22205;;;;;;;;;;;;;;;;
1255,1255.0,1255.0,,it,,,Via Fratelli Perini,Trentino-Alto Adige,46.06040573120117,11.121764183044434,TN,22205;;;;;;;;;;;;;;;;
1256,1256.0,1256.0,,it,,,,Trentino-Alto Adige,46.07356262207031,11.110391616821287,TN,22205;;;;;;;;;;;;;;;;
1257,1257.0,1257.0,,it,,,,Trentino-Alto Adige,46.073577880859375,11.110504150390623,TN,22205;;;;;;;;;;;;;;;;
1258,1258.0,1258.0,,it,,,,Trentino-Alto Adige,46.077247619628906,11.114508628845217,TN,22205;;;;;;;;;;;;;;;;
1259,1259.0,1259.0,,it,,,,Trentino-Alto Adige,46.08939743041992,11.084668159484863,TN,22205;;;;;;;;;;;;;;;;
1260,1260.0,1260.0,,it,,,,Trentino-Alto Adige,46.12817001342773,11.163247108459473,TN,22205;;;;;;;;;;;;;;;;
1261,1261.0,1261.0,,it,,,,Trentino-Alto Adige,46.115848541259766,11.154041290283203,TN,22205;;;;;;;;;;;;;;;;
1262,1262.0,1262.0,,it,,,,Trentino-Alto Adige,46.11141204833984,11.154134750366213,TN,22205;;;;;;;;;;;;;;;;
1263,1263.0,1263.0,,it,,,,Trentino-Alto Adige,46.11339569091797,11.152857780456545,TN,22205;;;;;;;;;;;;;;;;
1264,1264.0,1264.0,,it,,,,Trentino-Alto Adige,46.11809921264648,11.151856422424316,TN,22205;;;;;;;;;;;;;;;;
1265,1265.0,1265.0,,it,,,,Trentino-Alto Adige,46.117713928222656,11.150919914245604,TN,22205;;;;;;;;;;;;;;;;
1266,1266.0,1266.0,,it,,,,Trentino-Alto Adige,46.13151550292969,11.163238525390623,TN,22205;;;;;;;;;;;;;;;;
1267,1267.0,1267.0,,it,,,,Trentino-Alto Adige,46.1345329284668,11.16551399230957,TN,22205;;;;;;;;;;;;;;;;
1268,1268.0,1268.0,,it,,,,Trentino-Alto Adige,46.1407470703125,11.165189743041992,TN,22205;;;;;;;;;;;;;;;;
1269,1269.0,1269.0,,it,,,,Trentino-Alto Adige,46.11254119873047,11.152297019958496,TN,22205;;;;;;;;;;;;;;;;
1270,1270.0,1270.0,,it,,,,Trentino-Alto Adige,46.09053039550781,11.071685791015623,TN,22205;;;;;;;;;;;;;;;;
1271,1271.0,1271.0,,it,,,,Trentino-Alto Adige,46.00001525878906,11.12256145477295,TN,22205;;;;;;;;;;;;;;;;
1272,1272.0,1272.0,,it,,,,Trentino-Alto Adige,45.99000549316406,11.13742446899414,TN,22205;;;;;;;;;;;;;;;;
1273,1273.0,1273.0,,it,,,,Trentino-Alto Adige,46.0396728515625,11.057523727416992,TN,22205;;;;;;;;;;;;;;;;
1274,1274.0,1274.0,,it,,,,Trentino-Alto Adige,46.08854675292969,11.068800926208496,TN,22205;;;;;;;;;;;;;;;;
1275,1275.0,1275.0,,it,,,,Trentino-Alto Adige,46.05469512939453,11.052565574645996,TN,22205;;;;;;;;;;;;;;;;
1276,1276.0,1276.0,,it,,,,Trentino-Alto Adige,46.127628326416016,11.1653413772583,TN,22205;;;;;;;;;;;;;;;;
1277,1277.0,1277.0,Trento,it,40/A,38123.0,Via Antonio Gramsci,Trentino-Alto Adige,46.053688049316406,11.125798225402832,TN,22205;;;;;;;;;;;;;;;;
1278,1278.0,1278.0,,it,,,,Trentino-Alto Adige,46.08646011352539,11.150069236755373,TN,22205;;;;;;;;;;;;;;;;
1279,1279.0,1279.0,,it,,,,Trentino-Alto Adige,46.02727127075195,11.165189743041992,TN,22205;;;;;;;;;;;;;;;;
1280,1280.0,1280.0,,it,,,,Trentino-Alto Adige,46.05488967895508,11.124232292175291,TN,22205;;;;;;;;;;;;;;;;
1281,1281.0,1281.0,,it,,,,Trentino-Alto Adige,46.05693054199219,11.121682167053224,TN,22205;;;;;;;;;;;;;;;;
1282,1282.0,1282.0,Trento,it,31,38122.0,Vicolo dell'Adige,Trentino-Alto Adige,46.070274353027344,11.123567581176758,TN,22205;;;;;;;;;;;;;;;;
1283,1283.0,1283.0,,it,,,,Trentino-Alto Adige,46.074493408203125,11.120453834533691,TN,22205;;;;;;;;;;;;;;;;
1284,1284.0,1284.0,,it,,,,Trentino-Alto Adige,46.10172271728516,11.095680236816406,TN,22205;;;;;;;;;;;;;;;;
1285,1285.0,1285.0,,it,,,,Trentino-Alto Adige,46.10181427001953,11.095731735229492,TN,22205;;;;;;;;;;;;;;;;
1286,1286.0,1286.0,,it,,,,Trentino-Alto Adige,46.0853157043457,11.175272941589355,TN,22205;;;;;;;;;;;;;;;;
1287,1287.0,1287.0,,it,,,,Trentino-Alto Adige,46.085968017578125,11.173843383789062,TN,22205;;;;;;;;;;;;;;;;
1288,1288.0,1288.0,,it,,,,Trentino-Alto Adige,46.08597946166992,11.173845291137695,TN,22205;;;;;;;;;;;;;;;;
1289,1289.0,1289.0,,it,,,,Trentino-Alto Adige,46.08587265014648,11.172205924987791,TN,22205;;;;;;;;;;;;;;;;
1290,1290.0,1290.0,,it,,,,Trentino-Alto Adige,46.13322067260742,11.100870132446287,TN,22205;;;;;;;;;;;;;;;;
1291,1291.0,1291.0,,it,,,,Trentino-Alto Adige,46.13327407836914,11.101203918457031,TN,22205;;;;;;;;;;;;;;;;
1292,1292.0,1292.0,,it,,,,Trentino-Alto Adige,46.13328552246094,11.101244926452637,TN,22205;;;;;;;;;;;;;;;;
1293,1293.0,1293.0,,it,,,,Trentino-Alto Adige,46.133296966552734,11.101290702819824,TN,22205;;;;;;;;;;;;;;;;
1294,1294.0,1294.0,,it,,,,Trentino-Alto Adige,46.100467681884766,11.116399765014648,TN,22205;;;;;;;;;;;;;;;;
1295,1295.0,1295.0,,it,,,,Trentino-Alto Adige,46.1005973815918,11.116739273071287,TN,22205;;;;;;;;;;;;;;;;
1296,1296.0,1296.0,,it,,,,Trentino-Alto Adige,46.051063537597656,11.063590049743652,TN,22205;;;;;;;;;;;;;;;;
1297,1297.0,1297.0,Trento,it,10,38121.0,Via Padre Emilio Chiocchetti,Trentino-Alto Adige,46.09431838989258,11.119878768920898,TN,22205;;;;;;;;;;;;;;;;
1298,1298.0,1298.0,,it,,,,Trentino-Alto Adige,46.09043502807617,11.114991188049316,TN,22205;;;;;;;;;;;;;;;;
1299,1299.0,1299.0,,it,,,,Trentino-Alto Adige,46.0433464050293,11.131949424743652,TN,22205;;;;;;;;;;;;;;;;
1300,1300.0,1300.0,,it,,,,Trentino-Alto Adige,46.04360580444336,11.13193416595459,TN,22205;;;;;;;;;;;;;;;;
1301,1301.0,1301.0,,it,,,,Trentino-Alto Adige,46.05237579345703,11.134084701538086,TN,22205;;;;;;;;;;;;;;;;
1302,1302.0,1302.0,,it,,,,Trentino-Alto Adige,46.03217315673828,11.151470184326172,TN,22205;;;;;;;;;;;;;;;;
1303,1303.0,1303.0,,it,,,,Trentino-Alto Adige,46.03621673583984,11.15156078338623,TN,22205;;;;;;;;;;;;;;;;
1304,1304.0,1304.0,,it,,,,Trentino-Alto Adige,46.007266998291016,11.13093376159668,TN,22205;;;;;;;;;;;;;;;;
1305,1305.0,1305.0,,it,,,,Trentino-Alto Adige,45.99953842163086,11.132125854492188,TN,22205;;;;;;;;;;;;;;;;
1306,1306.0,1306.0,,it,,,,Trentino-Alto Adige,46.07273483276367,11.112354278564451,TN,22205;;;;;;;;;;;;;;;;
1307,1307.0,1307.0,,it,,,,Trentino-Alto Adige,46.070106506347656,11.158783912658691,TN,22205;;;;;;;;;;;;;;;;
1308,1308.0,1308.0,,it,,,,Trentino-Alto Adige,46.0686149597168,11.124768257141112,TN,22205;;;;;;;;;;;;;;;;
1309,1309.0,1309.0,,it,,,,Trentino-Alto Adige,46.045188903808594,11.149195671081545,TN,22205;;;;;;;;;;;;;;;;
1310,1310.0,1310.0,,it,,,,Trentino-Alto Adige,46.06625747680664,11.147489547729492,TN,22205;;;;;;;;;;;;;;;;
1311,1311.0,1311.0,,it,73,,Via Renato Lunelli,Trentino-Alto Adige,46.0921516418457,11.119914054870604,TN,22205;;;;;;;;;;;;;;;;
1312,1312.0,1312.0,,it,,,,Trentino-Alto Adige,46.05440902709961,11.133706092834473,TN,22205;;;;;;;;;;;;;;;;
1313,1313.0,1313.0,,it,,,,Trentino-Alto Adige,46.10435104370117,11.123370170593262,TN,22205;;;;;;;;;;;;;;;;
1314,1314.0,1314.0,,it,,,,Trentino-Alto Adige,46.06690216064453,11.138758659362791,TN,22205;;;;;;;;;;;;;;;;
1315,1315.0,1315.0,,it,,,,Trentino-Alto Adige,46.064491271972656,11.139161109924316,TN,22205;;;;;;;;;;;;;;;;
1316,1316.0,1316.0,,it,,,,Trentino-Alto Adige,46.08517456054688,11.157304763793944,TN,22205;;;;;;;;;;;;;;;;
1317,1317.0,1317.0,Trento,it,34,38122.0,Via Camillo Benso Cavour,Trentino-Alto Adige,46.06795883178711,11.120532989501951,TN,22205;;;;;;;;;;;;;;;;
1318,1318.0,1318.0,,it,,,,Trentino-Alto Adige,46.060997009277344,11.121728897094728,TN,22205;;;;;;;;;;;;;;;;
1319,1319.0,1319.0,,it,,,,Trentino-Alto Adige,46.081172943115234,11.121868133544922,TN,22205;;;;;;;;;;;;;;;;
1320,1320.0,1320.0,,it,,,,Trentino-Alto Adige,46.06248474121094,11.152411460876465,TN,22205;;;;;;;;;;;;;;;;
1321,1321.0,1321.0,,it,,,,Trentino-Alto Adige,46.06521987915039,11.159279823303224,TN,22205;;;;;;;;;;;;;;;;
1322,1322.0,1322.0,,it,,,,Trentino-Alto Adige,46.06636428833008,11.151180267333984,TN,22205;;;;;;;;;;;;;;;;
1323,1323.0,1323.0,,it,,,,Trentino-Alto Adige,46.0660285949707,11.15149211883545,TN,22205;;;;;;;;;;;;;;;;
1324,1324.0,1324.0,Trento,it,1,38122.0,Via S. Maria Maddalena,Trentino-Alto Adige,46.068580627441406,11.125483512878418,TN,22205;;;;;;;;;;;;;;;;
1325,1325.0,1325.0,,it,,,,Trentino-Alto Adige,46.07345962524414,11.088129997253418,TN,22205;;;;;;;;;;;;;;;;
1326,1326.0,1326.0,,it,,,,Trentino-Alto Adige,46.0727653503418,11.08780002593994,TN,22205;;;;;;;;;;;;;;;;
1327,1327.0,1327.0,,it,,,,Trentino-Alto Adige,46.083778381347656,11.098267555236816,TN,22205;;;;;;;;;;;;;;;;
1328,1328.0,1328.0,,it,,,,Trentino-Alto Adige,46.08404922485352,11.09865665435791,TN,22205;;;;;;;;;;;;;;;;
1329,1329.0,1329.0,,it,,,,Trentino-Alto Adige,46.075225830078125,11.137273788452148,TN,22205;;;;;;;;;;;;;;;;
1330,1330.0,1330.0,,it,,,,Trentino-Alto Adige,46.08375930786133,11.17527198791504,TN,22205;;;;;;;;;;;;;;;;
1331,1331.0,1331.0,,it,,,,Trentino-Alto Adige,46.10444259643555,11.105876922607422,TN,22205;;;;;;;;;;;;;;;;
1332,1332.0,1332.0,,it,,,,Trentino-Alto Adige,46.06089401245117,11.113673210144045,TN,22205;;;;;;;;;;;;;;;;
1333,1333.0,1333.0,,it,,,,Trentino-Alto Adige,46.0631217956543,11.11523723602295,TN,22205;;;;;;;;;;;;;;;;
1334,1334.0,1334.0,,it,,,,Trentino-Alto Adige,46.06333923339844,11.114629745483398,TN,22205;;;;;;;;;;;;;;;;
1335,1335.0,1335.0,,it,,,,Trentino-Alto Adige,46.10480499267578,11.115246772766112,TN,22205;;;;;;;;;;;;;;;;
1336,1336.0,1336.0,Trento,it,5,38122.0,Via Piave,Trentino-Alto Adige,46.062500000029104,11.125939959253143,TN,22205;;;;;;;;;;;;;;;;
1337,1337.0,1337.0,Trento,it,14,38122.0,Via Tommaso Gar,Trentino-Alto Adige,46.0674400003941,11.116969981750913,TN,22205;;;;;;;;;;;;;;;;
1338,1338.0,1338.0,Trento,it,32,38122.0,Piazza Dante,Trentino-Alto Adige,46.07090998258019,11.121160011329296,TN,22205;;;;;;;;;;;;;;;;
1339,1339.0,1339.0,Trento,it,5,38122.0,Via Vigilio Inama,Trentino-Alto Adige,46.06627001243936,11.117710019982296,TN,22205;;;;;;;;;;;;;;;;
1340,1340.0,1340.0,Trento,it,53,38122.0,Via Giuseppe Verdi,Trentino-Alto Adige,46.06683000739051,11.119640037007455,TN,22205;;;;;;;;;;;;;;;;
1341,1341.0,1341.0,Trento,it,3,38122.0,Via Adalberto Libera,Trentino-Alto Adige,46.05957999641987,11.115550003533968,TN,22205;;;;;;;;;;;;;;;;
1342,1342.0,1342.0,Povo,it,14,38123.0,Via Sommarive,Trentino-Alto Adige,46.06548999252985,11.15090998408894,TN,22205;;;;;;;;;;;;;;;;
1343,1343.0,1343.0,Povo,it,5,38123.0,Via Sommarive,Trentino-Alto Adige,46.06688000544296,11.150300032994863,TN,22205;;;;;;;;;;;;;;;;
1344,1344.0,1344.0,Povo,it,5,38123.0,Via Sommarive,Trentino-Alto Adige,46.06688000544296,11.150300032994863,TN,22205;;;;;;;;;;;;;;;;
1345,1345.0,1345.0,Trento,it,1/B,38122.0,Piazza Fiera,Trentino-Alto Adige,46.06529000032009,11.123550027200736,TN,22205;;;;;;;;;;;;;;;;
1346,1346.0,1346.0,Mattarello,it,101,38123.0,Via delle Regole,Trentino-Alto Adige,46.00760000106303,11.133530024035622,TN,22205;;;;;;;;;;;;;;;;
1347,1347.0,1347.0,Trento,it,26,38122.0,Via Giuseppe Verdi,Trentino-Alto Adige,46.06665000601981,11.119659985937034,TN,22205;;;;;;;;;;;;;;;;
1348,1348.0,1348.0,Trento,it,77,38123.0,Via Mesiano,Trentino-Alto Adige,46.067029999600265,11.139080017404211,TN,22205;;;;;;;;;;;;;;;;
1349,1349.0,1349.0,Trento,it,108,38122.0,Via Piave,Trentino-Alto Adige,46.06410999599103,11.12776998017344,TN,22205;;;;;;;;;;;;;;;;
1350,1350.0,1350.0,Trento,it,24,38122.0,Via Cristoforo Madruzzo,Trentino-Alto Adige,46.06333001799106,11.12040002416839,TN,22205;;;;;;;;;;;;;;;;
1351,1351.0,1351.0,Povo,it,18,38123.0,Via Sommarive,Trentino-Alto Adige,46.06742998401981,11.150609995774287,TN,22205;;;;;;;;;;;;;;;;
1352,1352.0,1352.0,Povo,it,18,38123.0,Via Sommarive,Trentino-Alto Adige,46.06742998401981,11.150609995774287,TN,22205;;;;;;;;;;;;;;;;
1353,1353.0,1353.0,Trento,it,4,38122.0,Via Benedetto Giovanelli,Trentino-Alto Adige,46.06514000616275,11.131379982052096,TN,22205;;;;;;;;;;;;;;;;
1354,1354.0,1354.0,Trento,it,22,38123.0,Viale degli Olmi,Trentino-Alto Adige,46.04925998768269,11.13300003629783,TN,22205;;;;;;;;;;;;;;;;
1355,1355.0,1355.0,Trento,it,4,38123.0,Strada delle Viote,Trentino-Alto Adige,46.03285237957876,11.047480546501356,TN,22205;;;;;;;;;;;;;;;;
1356,1356.0,1356.0,Trento,it,,38123.0,Via Santa Marina,Trentino-Alto Adige,46.034893,46.034893,TN,22205;;;;;;;;;;;;;;;;
1357,1357.0,1357.0,Trento,it,,38122.0,Via del Maso Smalz,Trentino-Alto Adige,46.053079,46.053079,TN,22205;;;;;;;;;;;;;;;;
1358,1358.0,1358.0,Trento,it,,38122.0,Via San Bernardino,Trentino-Alto Adige,46.063954,46.063954,TN,22205;;;;;;;;;;;;;;;;
1359,1359.0,1359.0,Trento,it,,38122.0,Via alla Pelegrina,Trentino-Alto Adige,46.076458,46.076458,TN,22205;;;;;;;;;;;;;;;;
1360,1360.0,1360.0,Trento,it,,38123.0,Via Poli,Trentino-Alto Adige,46.005938,46.005938,TN,22205;;;;;;;;;;;;;;;;
1361,1361.0,1361.0,Trento,it,,38121.0,Via Carlo e Valeria Jülg,Trentino-Alto Adige,46.077037,46.077037,TN,22205;;;;;;;;;;;;;;;;
1362,1362.0,1362.0,Trento,it,,38023.0,,Trentino-Alto Adige,46.074779,11.121749,TN,22205;;;;;;;;;;;;;;;;
1363,1363.0,1363.0,Trento,it,,38123.0,Via Fermi,Trentino-Alto Adige,46.048443,46.048443,TN,22205;;;;;;;;;;;;;;;;
1364,1364.0,1364.0,Trento,it,,38121.0,Via Pradiscola,Trentino-Alto Adige,46.083109,46.083109,TN,22205;;;;;;;;;;;;;;;;
1365,1365.0,1365.0,Trento,it,,38122.0,Piazza Venezia,Trentino-Alto Adige,46.067649,46.067649,TN,22205;;;;;;;;;;;;;;;;
1366,1366.0,1366.0,Trento,it,,38123.0,Via della Molinara,Trentino-Alto Adige,46.065799,46.065799,TN,22205;;;;;;;;;;;;;;;;
1367,1367.0,1367.0,Trento,it,,38123.0,Via Fersina,Trentino-Alto Adige,46.046861,46.046861,TN,22205;;;;;;;;;;;;;;;;
1368,1368.0,1368.0,Trento,it,,38123.0, Via Pianizza,Trentino-Alto Adige,46.017192,46.017192,TN,22205;;;;;;;;;;;;;;;;
1369,1369.0,1369.0,Trento,it,,38121.0,Via della Canova,Trentino-Alto Adige,46.09835,46.09835,TN,22205;;;;;;;;;;;;;;;;
1370,1370.0,1370.0,Trento,it,,38121.0, Via Ponte Alto,Trentino-Alto Adige,46.073646,46.073646,TN,22205;;;;;;;;;;;;;;;;
1371,1371.0,1371.0,Trento,it,,38122.0,Via del Suffragio,Trentino-Alto Adige,46.071034,46.071034,TN,22205;;;;;;;;;;;;;;;;
1372,1372.0,1372.0,Trento,it,,38121.0,Via 25 Aprile,Trentino-Alto Adige,46.098203,46.098203,TN,22205;;;;;;;;;;;;;;;;
1373,1373.0,1373.0,Trento,it,31.0,38122.0, Via Madruzzo,Trentino-Alto Adige,46.063769,46.063769,TN,22205;;;;;;;;;;;;;;;;
1374,1374.0,1374.0,Trento,it,4.0,38122.0, Via Caio Valerio Mariano,Trentino-Alto Adige,46.074549,46.074549,TN,22205;;;;;;;;;;;;;;;;
1375,1375.0,1375.0,Trento,it,,38123.0, Via 4 Novembre (1918),Trentino-Alto Adige,46.102221,46.102221,TN,22205;;;;;;;;;;;;;;;;
1376,1376.0,1376.0,Trento,it,34.0,38122.0, Via di Briamasco,Trentino-Alto Adige,46.064932,46.064932,TN,22205;;;;;;;;;;;;;;;;
1377,1377.0,1377.0,Trento,it,2.0,38121.0, Via Giovanni Battista Trener,Trentino-Alto Adige,46.093247,46.093247,TN,22205;;;;;;;;;;;;;;;;
1378,1378.0,1378.0,Rovereto (TN),it,,38068.0,,Trentino-Alto Adige,46.734096,11.288801,TN,22205;;;;;;;;;;;;;;;;
1379,1379.0,1379.0,Trento,it,,38122.0, Via Antonio Fogazzaro,Trentino-Alto Adige,46.055962,46.055962,TN,22205;;;;;;;;;;;;;;;;
1380,1380.0,1380.0,Trento,it,,38121.0, Via Giuseppe Brunner,Trentino-Alto Adige,46.090779,46.090779,TN,22205;;;;;;;;;;;;;;;;
1381,1381.0,1381.0,Trento,it,,38123.0,Via per Belvedere,Trentino-Alto Adige,46.041373,46.041373,TN,22205;;;;;;;;;;;;;;;;
1382,1382.0,1382.0,Trento,it,,38122.0,Via Madruzzo,Trentino-Alto Adige,46.063641,46.063641,TN,22205;;;;;;;;;;;;;;;;
1383,1383.0,1383.0,Trento,it,1.0,38122.0, Via Vigilio Inama,Trentino-Alto Adige,46.066418,46.066418,TN,22205;;;;;;;;;;;;;;;;
1384,1384.0,1384.0,Trento,it,,38122.0, Via Antonio Fogazzaro,Trentino-Alto Adige,46.056226,46.056226,TN,22205;;;;;;;;;;;;;;;;
1385,1385.0,1385.0,Trento,it,,38123.0,Via Antonio Gramsci,Trentino-Alto Adige,46.053661,46.053661,TN,22205;;;;;;;;;;;;;;;;
1386,1386.0,1386.0,Trento,it,,38122.0, Piazza di Fiera,Trentino-Alto Adige,46.065076,46.065076,TN,22205;;;;;;;;;;;;;;;;
1387,1387.0,1387.0,Trento,it,5.0,38122.0, Via al Torrione,Trentino-Alto Adige,46.06537,46.06537,TN,22205;;;;;;;;;;;;;;;;
1388,1388.0,1388.0,Mezzolombardo,it,,38017.0,Via Canevarie,Trentino-Alto Adige,46.20966,46.20966,TN,22205;;;;;;;;;;;;;;;;
1389,1389.0,1389.0,Trento,it,,38122.0,Via Luisa Anzoletti,Trentino-Alto Adige,46.058225,46.058225,TN,22205;;;;;;;;;;;;;;;;
1390,1390.0,1390.0,Trento,it,,38122.0,Via Giovanni Battista Trener,Trentino-Alto Adige,46.095415,46.095415,TN,22205;;;;;;;;;;;;;;;;
1391,1391.0,1391.0,Trento,it,,38123.0,Piazza di Fiera,Trentino-Alto Adige,46.065119,46.065119,TN,22205;;;;;;;;;;;;;;;;
1392,1392.0,1392.0,Trento,it,,38122.0,Piazza di Fiera,Trentino-Alto Adige,46.065119,46.065119,TN,22205;;;;;;;;;;;;;;;;
1393,1393.0,1393.0,Trento,it,,38123.0,,Trentino-Alto Adige,45.99537,45.99537,TN,22205;;;;;;;;;;;;;;;;
1394,1394.0,1394.0,Trento,it,,38122.0,Via al Torrione,Trentino-Alto Adige,46.065469,46.065469,TN,22205;;;;;;;;;;;;;;;;
1395,1395.0,1395.0,Trento,it,20.0,38122.0, Via delle Ghiaie,Trentino-Alto Adige,46.055365,46.055365,TN,22205;;;;;;;;;;;;;;;;
1396,1396.0,1396.0,Trento,it,,38123.0,Via della Croce,Trentino-Alto Adige,46.04059,46.04059,TN,22205;;;;;;;;;;;;;;;;
1397,1397.0,1397.0,Trento,it,,38121.0,Via Romano Guardini,Trentino-Alto Adige,46.092556,46.092556,TN,22205;;;;;;;;;;;;;;;;
1398,1398.0,1398.0,Trento,it,,38122.0,Via Piave,Trentino-Alto Adige,46.062309,46.062309,TN,22205;;;;;;;;;;;;;;;;
1399,1399.0,1399.0,Trento,it,,38122.0,Via di Madonna Bianca,Trentino-Alto Adige,46.032797,46.032797,TN,22205;;;;;;;;;;;;;;;;
1400,1400.0,1400.0,Trento,it,66.0,38121.0, Via dei Solteri,Trentino-Alto Adige,46.083603,46.083603,TN,22205;;;;;;;;;;;;;;;;
1401,1401.0,1401.0,Trento,it,,38123.0,Via al Castel di San Rocco,Trentino-Alto Adige,46.034924,46.034924,TN,22205;;;;;;;;;;;;;;;;
1402,1402.0,1402.0,Trento,it,,38121.0,Via Sant'Anna,Trentino-Alto Adige,46.111299,46.111299,TN,22205;;;;;;;;;;;;;;;;
1403,1403.0,1403.0,Trento,it,,38122.0, Via Fratelli Bronzetti,Trentino-Alto Adige,46.058703,46.058703,TN,22205;;;;;;;;;;;;;;;;
1404,1404.0,1404.0,Trento,it,,38121.0,Via Carlo e Valeria Jülg,Trentino-Alto Adige,46.076224,46.076224,TN,22205;;;;;;;;;;;;;;;;
1405,1405.0,1405.0,Trento,it,,38121.0,Via dei Castori,Trentino-Alto Adige,46.086955,46.086955,TN,22205;;;;;;;;;;;;;;;;
1406,1406.0,1406.0,Trento,it,,38122.0, Via Fratelli Bronzetti,Trentino-Alto Adige,46.0587,46.0587,TN,22205;;;;;;;;;;;;;;;;
1407,1407.0,1407.0,Trento,it,,38121.0,Via Carlo e Valeria Jülg,Trentino-Alto Adige,46.076223,46.076223,TN,22205;;;;;;;;;;;;;;;;
1408,1408.0,1408.0,Trento,it,,38121.0,,Trentino-Alto Adige,46.108358,46.108358,TN,22205;;;;;;;;;;;;;;;;
1409,1409.0,1409.0,Trento,it,,38123.0,Via di Coltura,Trentino-Alto Adige,46.090522,46.090522,TN,22205;;;;;;;;;;;;;;;;
1410,1410.0,1410.0,Trento - Sopramonte,it,,38123.0,Via di Vegiara,Trentino-Alto Adige,46.072325,46.072325,TN,22205;;;;;;;;;;;;;;;;
1411,1411.0,1411.0,Trento,it,,38123.0,,Trentino-Alto Adige,46.042913,46.042913,TN,22205;;;;;;;;;;;;;;;;
1412,1412.0,1412.0,Trento,it,,38223.0,,Trentino-Alto Adige,46.044188,46.044188,TN,22205;;;;;;;;;;;;;;;;
1413,1413.0,1413.0,Trento,it,,38122.0, Via Brescia,Trentino-Alto Adige,46.07081,46.07081,TN,22205;;;;;;;;;;;;;;;;
1414,1414.0,1414.0,Trento,it,,38123.0, Via Don Luca Deflorian,Trentino-Alto Adige,46.081923,46.081923,TN,22205;;;;;;;;;;;;;;;;
1415,1415.0,1415.0,Mattarello - Trento,it,,38123.0,,Trentino-Alto Adige,46.016379,46.016379,TN,22205;;;;;;;;;;;;;;;;
1416,1416.0,1416.0,Trento,it,,38123.0,Via Luigi Einaudi,Trentino-Alto Adige,46.052671,46.052671,TN,22205;;;;;;;;;;;;;;;;
1417,1417.0,1417.0,Trento,it,,38122.0,Via Cesare Abba,Trentino-Alto Adige,46.063078,46.063078,TN,22205;;;;;;;;;;;;;;;;
1418,1418.0,1418.0,Trento,it,,38123.0,Via Guido Poli,Trentino-Alto Adige,46.005689,46.005689,TN,22205;;;;;;;;;;;;;;;;
1419,1419.0,1419.0,Trento,it,,38121.0,Via dei Pradestei,Trentino-Alto Adige,46.087053,46.087053,TN,22205;;;;;;;;;;;;;;;;
1420,1420.0,1420.0,Trento,it,,38123.0,Viale Verona,Trentino-Alto Adige,46.05433,46.05433,TN,22205;;;;;;;;;;;;;;;;
1421,1421.0,1421.0,Trento,it,,38123.0,Viale degli Olmi,Trentino-Alto Adige,46.050061,46.050061,TN,22205;;;;;;;;;;;;;;;;
1422,1422.0,1422.0,Trento,it,,38123.0,Viale Verona,Trentino-Alto Adige,46.042393,46.042393,TN,22205;;;;;;;;;;;;;;;;
1423,1423.0,1423.0,Trento,it,3.0,38122.0, Via dei Giardini,Trentino-Alto Adige,46.069911,46.069911,TN,22205;;;;;;;;;;;;;;;;
1424,1424.0,1424.0,Trento,it,,38122.0,Vicolo Galasso,Trentino-Alto Adige,46.070292,46.070292,TN,22205;;;;;;;;;;;;;;;;
1425,1425.0,1425.0,Trento,it,,38123.0,Via Degasperi,Trentino-Alto Adige,46.052278,46.052278,TN,22205;;;;;;;;;;;;;;;;
1426,1426.0,1426.0,Trento,it,,38123.0,Via Carlo e Valeria Jülg,Trentino-Alto Adige,46.076224,46.076224,TN,22205;;;;;;;;;;;;;;;;
1427,1427.0,1427.0,Rovereto (TN),it,,38068.0,Via delle Maioliche,Trentino-Alto Adige,45.882441,45.882441,TN,22205;;;;;;;;;;;;;;;;
1428,1428.0,1428.0,Trento,it,,38121.0, Via Sant'Anna,Trentino-Alto Adige,46.109578,46.109578,TN,22205;;;;;;;;;;;;;;;;
1429,1429.0,1429.0,Trento,it,,38121.0,Piazza dell'Assunta,Trentino-Alto Adige,46.122647,46.122647,TN,22205;;;;;;;;;;;;;;;;
1430,1430.0,1430.0,Trento,it,,38122.0,Via Papiria,Trentino-Alto Adige,46.069608,46.069608,TN,22205;;;;;;;;;;;;;;;;
1431,1431.0,1431.0,Trento,it,,38121.0,Via Mario Cavalieri,Trentino-Alto Adige,46.070314,46.070314,TN,22205;;;;;;;;;;;;;;;;
1432,1432.0,1432.0,Trento,it,,38121.0,Piazzale Lionello Groff,Trentino-Alto Adige,46.107593,46.107593,TN,22205;;;;;;;;;;;;;;;;
1433,1433.0,1433.0,Mezzolombardo,it,,38017.0,Via San Vigilio,Trentino-Alto Adige,46.210931,46.210931,TN,22205;;;;;;;;;;;;;;;;
1434,1434.0,1434.0,Trento,it,8.0,38122.0, Via Antonio Stoppani,Trentino-Alto Adige,46.07716,46.07716,TN,22205;;;;;;;;;;;;;;;;
1435,1435.0,1435.0,Rovereto,it,,38068.0,Via Cartiera,Trentino-Alto Adige,45.884716,45.884716,TN,22161;;;;;;;;;;;;;;;;
1436,1436.0,1436.0,Trento,it,,38123.0,Via della Malpensada,Trentino-Alto Adige,46.04541,46.04541,TN,22205;;;;;;;;;;;;;;;;
1437,1437.0,1437.0,Monte Bondone - Trento,it,,38123.0,,Trentino-Alto Adige,46.039457,46.039457,TN,22205;;;;;;;;;;;;;;;;
1438,1438.0,1438.0,Trento,it,,38123.0,Via di Zél,Trentino-Alto Adige,46.080297,46.080297,TN,22205;;;;;;;;;;;;;;;;
1439,1439.0,1439.0,Trento,it,,38122.0,Via Dordi,Trentino-Alto Adige,46.052942,46.052942,TN,22205;;;;;;;;;;;;;;;;
1440,1440.0,1440.0,Trento,it,,38123.0,Via Sommarive,Trentino-Alto Adige,46.068647,46.068647,TN,22205;;;;;;;;;;;;;;;;
1441,1441.0,1441.0,Trento,it,,38122.0, Via Giuseppe Giusti,Trentino-Alto Adige,46.062795,46.062795,TN,22205;;;;;;;;;;;;;;;;
1442,1442.0,1442.0,Trento,it,,38122.0, Via delle Ghiaie,Trentino-Alto Adige,46.055206,46.055206,TN,22205;;;;;;;;;;;;;;;;
1443,1443.0,1443.0,Trento,it,,38122.0,Corso III Novembre,Trentino-Alto Adige,46.060296,46.060296,TN,22205;;;;;;;;;;;;;;;;
1444,1444.0,1444.0,Trento,it,,38123.0,Via Beniamino Kofler,Trentino-Alto Adige,46.076692,46.076692,TN,22205;;;;;;;;;;;;;;;;
1445,1445.0,1445.0,Trento,it,,38123.0,,Trentino-Alto Adige,46.041082,46.041082,TN,22205;;;;;;;;;;;;;;;;
1446,1446.0,1446.0,Trento,it,,38123.0,Via Sabbioni,Trentino-Alto Adige,46.070108,46.070108,TN,22205;;;;;;;;;;;;;;;;
1447,1447.0,1447.0,Trento,it,,38121.0,Via Soprasasso,Trentino-Alto Adige,46.10611,46.10611,TN,22205;;;;;;;;;;;;;;;;
1448,1448.0,1448.0,Trento,it,,38123.0,Via della Villa,Trentino-Alto Adige,46.046535,46.046535,TN,22205;;;;;;;;;;;;;;;;
1449,1449.0,1449.0,Trento,it,20.0,38122.0, Via Carlo Dordi,Trentino-Alto Adige,46.067268,46.067268,TN,22205;;;;;;;;;;;;;;;;
1450,1450.0,1450.0,Trento,it,,38122.0, Via Fratelli Bronzetti,Trentino-Alto Adige,46.059009,46.059009,TN,22205;;;;;;;;;;;;;;;;
1451,1451.0,1451.0,Trento,it,,38121.0, Via 4 Novembre,Trentino-Alto Adige,46.102825,46.102825,TN,22205;;;;;;;;;;;;;;;;
1452,1452.0,1452.0,Trento,it,72.0,38122.0, Via del Travai,Trentino-Alto Adige,46.064438,46.064438,TN,22205;;;;;;;;;;;;;;;;
1453,1453.0,1453.0,Trento,it,,38122.0,,Trentino-Alto Adige,46.070902,46.070902,TN,22205;;;;;;;;;;;;;;;;
1454,1454.0,1454.0,Trento,it,,38121.0,Via 4 Novembre,Trentino-Alto Adige,46.096637,46.096637,TN,22205;;;;;;;;;;;;;;;;
1455,1455.0,1455.0,Trento,it,,38122.0,Via Antonio Fogazzaro,Trentino-Alto Adige,46.056094,46.056094,TN,22205;;;;;;;;;;;;;;;;
1456,1456.0,1456.0,Trento,it,,38121.0, Via Rienza,Trentino-Alto Adige,46.100465,46.100465,TN,22205;;;;;;;;;;;;;;;;
1457,1457.0,1457.0,Trento,it,,38123.0,Via Sommarive,Trentino-Alto Adige,46.06689,46.06689,TN,22205;;;;;;;;;;;;;;;;
1458,1458.0,1458.0,Trento,it,,38123.0,,Trentino-Alto Adige,46.005923,46.005923,TN,22205;;;;;;;;;;;;;;;;
1459,1459.0,1459.0,Trento,it,,38121.0,Via di San Fabiano,Trentino-Alto Adige,46.085406,46.085406,TN,22205;;;;;;;;;;;;;;;;
1460,1460.0,1460.0,Trento,it,,38123.0,Viale dei Tigli,Trentino-Alto Adige,46.051177,46.051177,TN,22205;;;;;;;;;;;;;;;;
1461,1461.0,1461.0,Trento,it,,38123.0,Via alle Sette Fontane,Trentino-Alto Adige,46.012913,46.012913,TN,22205;;;;;;;;;;;;;;;;
1462,1462.0,1462.0,Trento,it,,38121.0,Via per Villamontagna,Trentino-Alto Adige,46.083032,46.083032,TN,22205;;;;;;;;;;;;;;;;
1463,1463.0,1463.0,Trento,it,,38123.0,Via del Ponte,Trentino-Alto Adige,46.045378,46.045378,TN,22205;;;;;;;;;;;;;;;;
1464,1464.0,1464.0,Trento,it,39.0,38122.0, Via Giacomo Matteotti,Trentino-Alto Adige,46.055093,46.055093,TN,22205;;;;;;;;;;;;;;;;
1465,1465.0,1465.0,Trento,it,,38121.0,,Trentino-Alto Adige,46.100636,46.100636,TN,22205;;;;;;;;;;;;;;;;
1466,1466.0,1466.0,Povo - Trento,it,,38123.0,Via Sabbioni,Trentino-Alto Adige,46.068928,46.068928,TN,22205;;;;;;;;;;;;;;;;
1467,1467.0,1467.0,Trento,it,,38121.0,Via alla Formigheta,Trentino-Alto Adige,46.089625,46.089625,TN,22205;;;;;;;;;;;;;;;;
1468,1468.0,1468.0,Trento,it,,38122.0, Via dei Giardini,Trentino-Alto Adige,46.072648,46.072648,TN,22205;;;;;;;;;;;;;;;;
1469,1469.0,1469.0,Trento,it,44.0,38121.0, Via Don Leone Serafini,Trentino-Alto Adige,46.088598,46.088598,TN,22205;;;;;;;;;;;;;;;;
1470,1470.0,1470.0,Trento,it,,38123.0,Via Giovanni Falcone,Trentino-Alto Adige,46.04612,46.04612,TN,22205;;;;;;;;;;;;;;;;
1471,1471.0,1471.0,Trento,it,,38121.0, Via Caproni,Trentino-Alto Adige,45.866373,45.866373,TN,22205;;;;;;;;;;;;;;;;
1472,1472.0,1472.0,Trento,it,,38121.0, Piazzale Lionello Groff,Trentino-Alto Adige,46.107625,46.107625,TN,22205;;;;;;;;;;;;;;;;
1473,1473.0,1473.0,Trento,it,,38123.0, Via Brigata Acqui,Trentino-Alto Adige,46.06583,46.06583,TN,22205;;;;;;;;;;;;;;;;
1474,1474.0,1474.0,Trento,it,,38122.0,Via Vittorio Veneto,Trentino-Alto Adige,46.058619,46.058619,TN,22205;;;;;;;;;;;;;;;;
1475,1475.0,1475.0,Trento,it,,38123.0,,Trentino-Alto Adige,46.04962,46.04962,TN,22205;;;;;;;;;;;;;;;;
1476,1476.0,1476.0,Trento,it,22.0,38122.0, Via dei Molini,Trentino-Alto Adige,46.065584,46.065584,TN,22205;;;;;;;;;;;;;;;;
1477,1477.0,1477.0,Trento,it,,38121.0, Via Luigi Caneppele,Trentino-Alto Adige,46.100826,46.100826,TN,22205;;;;;;;;;;;;;;;;
1478,1478.0,1478.0,Trento,it,7.0,38122.0, Via Scipio Sighele,Trentino-Alto Adige,46.06003,46.06003,TN,22205;;;;;;;;;;;;;;;;
1479,1479.0,1479.0,Trento,it,,38122.0, Corso III Novembre,Trentino-Alto Adige,46.061145,46.061145,TN,22205;;;;;;;;;;;;;;;;
1480,1480.0,1480.0,Trento,it,,38123.0,Via Guido Poli,Trentino-Alto Adige,46.005696,46.005696,TN,22205;;;;;;;;;;;;;;;;
1481,1481.0,1481.0,Trento,it,,38122.0,Via Gino Buccella,Trentino-Alto Adige,46.057834,46.057834,TN,22205;;;;;;;;;;;;;;;;
1482,1482.0,1482.0,Trento,it,,38121.0,,Trentino-Alto Adige,46.07663,46.07663,TN,22205;;;;;;;;;;;;;;;;
1483,1483.0,1483.0,Trento ,it,,38123.0,,Trentino-Alto Adige,46.734096,11.288801,TN,22205;;;;;;;;;;;;;;;;
1484,1484.0,1484.0,Trento,it,77.0,38123.0,Via Mesiano,Trentino-Alto Adige,46.067029999600265,11.139080017404211,TN,22205;;;;;;;;;;;;;;;;
1485,1485.0,1485.0,Trento,it,5.0,38122.0,Via Virgilio Inama,Trentino-Alto Adige,46.06627001243936,11.117710019982296,TN,22205;;;;;;;;;;;;;;;;
1486,1486.0,1486.0,Trento,it,21.0,38122.0,Via Torre Verde,Trentino-Alto Adige,46.07075001395808,11.122500026189954,TN,22205;;;;;;;;;;;;;;;;
1487,1487.0,1487.0,Trento,it,4.0,38122.0,Via degli Orbi,Trentino-Alto Adige,46.06893000941207,11.124619977141094,TN,22205;;;;;;;;;;;;;;;;
1488,1488.0,1488.0,Trento,it,57.0,38122.0,Via Manci,Trentino-Alto Adige,46.158291887394135,10.762213319978384,TN,22205;;;;;;;;;;;;;;;;
1489,,,Trento,Italy,,38122,Monte,Trentino/Alto-Adige,46.07098001338122,11.183720022059845,Trento,;;;;;;;;;;;;;;;;
1490,,,Trento,Italy,,38123,Passo del Cimirlo,Trentino/Alto-Adige,46.06647997911389,11.22980003768103,Trento,;;;;;;;;;;;;;;;;
1491,,,Trento,Italy,,38123,Via Vigilio Inama,Trentino/Alto-Adige46.06588004439412,11.117605078554519,Trento,;;;;;;;;;;;;;;;;
