,DENOMINAZIONE,ID,INDIRIZZO,COMUNE,PROVINCIA,COMUNITA DI VALLE,NAZIONE,SITO INTERNET,LATITUDINE,LONGITUDINE,ALTITUDINE,CATEGORIA 1,CATEGORIA 2,CODICE ACCESSIBILITA' 1,CODICE ACCESSIBILITA' 2,CODICE ACCESSIBILITA' 3,CODICE ACCESSIBILITA' 4,CODICE ACCESSIBILITA' 5,CODICE ACCESSIBILITA' 6,CODICE ACCESSIBILITA' 7,CODICE ACCESSIBILITA' 8,CODICE ACCESSIBILITA' 9,CODICE ACCESSIBILITA' 10,CODICE ACCESSIBILITA' 11,CODICE ACCESSIBILITA' 12,CODICE ACCESSIBILITA' 13,CODICE ACCESSIBILITA' 14,CODICE ACCESSIBILITA' 15,CODICE ACCESSIBILITA' 16,CODICE ACCESSIBILITA' 17,CODICE ACCESSIBILITA' 18,DATA ULTIMA MODIFICA,DATA RILEVAZIONE
0, BAR CHICCO D'ORO,535,"CORSO BUONARROTI ,12/2",Trento,TN,Territorio Val D'adige,Italia,,46.0760928,11.1194082,200.0,Bar,,AI-6d,AE-3cf,AE-3abde,AI-6p,AI-6i,AI-6fg,AI-6bc,AI-6ad,AE-1abc,AE-2d,AI-6r,,,,,,,,2013-01-14 11:53:09.741,2010-07-20
1,IL PAPIRO LIBRI & CAFFE',27,"VIA GALILEI, 5",Trento,TN,Territorio Val D'adige,Italia,,46.06786,11.12563,241.0,Bar,Librerie,AI-6d,AE-3cf,AE-3abde,AI-6i,AI-6fg,AE-1abc,AE-2d,,,,,,,,,,,,2013-06-06 16:13:46.535,2013-01-14
2,A posto - La tua auto come nuova,378,"Via Tommaso Gar, 27/2",Trento,TN,Territorio Val D'adige,Italia,www.aposto.it,46.0676211,11.1172199,200.0,Riparazione Autovetture,,AE-3cf,,,,,,,,,,,,,,,,,,2010-12-22 10:12:53,2010-08-09
3,A.C.I.S.J.F. Associazione Casa Tridentina della Giovane,381,"Via prepositura, 58",Trento,TN,Territorio Val D'adige,Italia,www.acisjftrento.it,46.069067,11.1185694,200.0,Associazioni,,AI-6d,AI-5fb,AI-5fa,AI-5f,AE-3cf,AE-3abde,AI-6fg,AI-6p,AI-6r,AE-2d,,,,,,,,,2013-01-21 15:47:55.106,2013-01-21
4,A.D.M.O. Associazione Donatori Midollo Osseo,289,"Via Sighele, 7",Trento,TN,Territorio Val D'adige,Italia,www.admotrentino.it,46.060698,11.1236871,180.0,Associazioni,,AI-6d,AE-3cf,AE-3abde,AI-6fg,AE-1abc,AE-2c,,,,,,,,,,,,,2018-01-05 16:21:07.407,2010-05-21
5,A.E.T. ASSOCIAZIONE EMOFILICI TRENTINI,522,"VIA VITTORIO VENETO, 24",Trento,TN,Territorio Val D'adige,Italia,www.associazioneemofilicitrentini.com,46.0579773,11.120349,200.0,Associazioni,,AI-6d,AE-3cf,AE-3abde,AI-6i,AI-6fg,AI-6bc,AE-2gb,AE-2ga,AE-2g,AE-2a,AE-1abc,AI-6p,AI-6ad,AI-6r,,,,,2017-11-17 09:51:39.513,2010-07-16
6,"A.I.D.O. Associazione Italiana per la Donazione di Organi, Tessuti e Cellule",290,"VIA SIGHELE, 7",Trento,TN,Territorio Val D'adige,Italia,www.aido.it/trento,46.060369,11.123736,180.0,Associazioni,,AI-5fb,AI-5fa,AI-5f,AE-3cf,AE-3abde,AE-2b,AI-5c,AE-1abc,AE-2a,,,,,,,,,,2019-06-25 11:30:39.686,2010-05-21
7,A.I.S.L.A onlus - Associazione Italiana Sclerosi Laterale Amiotrofica,621,"VIA FERMI, 23/D",Trento,TN,Territorio Val D'adige,Italia,www.asilatrentinoaltoadige.it,46.048666,11.1290636,200.0,Associazioni,,AE-3cf,AE-1abc,AE-3abde,,,,,,,,,,,,,,,,2018-01-11 16:39:05.872,2010-08-09
8,A.I.S.L.A. ASSOCIAZIONE ITALIANA SCLEROSI LATERALE AMIOTROFICA,1495,"VIA BRONZETTI, 29",Trento,TN,Territorio Val D'adige,Italia,,46.058677,11.121518,200.0,Associazioni,,AE-3abde,AI-5fb,AI-6fg,AI-5fa,AI-6r,AE-1abc,AE-2d,AE-2b,AI-6i,AI-5f,AE-2a,AI-6l,AI-6e,AE-3cf,AI-6p,AI-6d,,,2019-06-24 10:31:42.99,2019-06-10
9,A.L.I.R. Associazione per la Lotta Insufficienza Respiratoria,288,"Via al Torrione, 6",Trento,TN,Territorio Val D'adige,Italia,www.alirtrentino.it,46.065148,11.122281,180.0,Associazioni,,AI-5fb,AI-5fa,AI-5f,AE-3cf,AE-3abde,AE-1abc,AE-2d,AI-6fg,AI-6r,AI-6bc,AE-2b,AI-6i,AI-6l,AI-6e,AI-6p,AI-6d,AI-6ad,AE-2a,2019-06-05 10:56:20.437,2010-05-24
10,A.L.P.I.  COOPERATIVA AVVIAMENTO AL LAVORO SU PROGETTI INDIVIDUALIZZATI,780,"VIA RAGAZZI DEL 99, 13",Trento,TN,Territorio Val D'adige,Italia,www.coop-alpi.it,46.0730641,11.1222183,200.0,Cooperative e Laboratori Sociali,,AI-6d,AE-3abde,AI-6o,AI-6l,AI-6i,AI-6fg,AI-6e,AE-3cf,AE-2a,,,,,,,,,,2018-01-18 14:34:20.877,2010-07-26
11,A.M.A. Auto Mutuo Aiuto ,282,"Via Torre d'Augusto, 2/1",Trento,TN,Territorio Val D'adige,Italia,www.automutuoaiuto.it,46.0731224,11.1251985,180.0,Associazioni,,AI-6d,AI-5b,AE-3cf,AE-3abde,AI-6fg,AE-1abc,AE-2c,,,,,,,,,,,,2010-06-09 12:26:46,2010-05-24
12,A.N.F.F.A.S. Associazione Nazionale di Famiglie di Persone con Disabilità Intellettiva e Relazionale,302,"Via Trener, 8",Trento,TN,Territorio Val D'adige,Italia,www.anffas.it,46.0956201,11.1193494,180.0,Associazioni,,AI-6d,AE-3cf,AE-3abde,AI-6fg,AI-6e,AE-1abc,AE-2c,,,,,,,,,,,,2010-06-15 14:33:42,2010-05-18
13,A.N.F.I. Associazione Nazionale Finanzieri d'Italia,298,"Largo Nazario Sauro, 11",Trento,TN,Territorio Val D'adige,Italia,,46.0747587,11.1248963,180.0,Associazioni,,AI-5fb,AI-5fa,AI-5f,AE-3cf,AE-3abde,AE-1abc,AE-2d,AE-2a,,,,,,,,,,,2010-06-08 12:14:48,2010-05-18
14,A.N.M.I.C. Associazione Nazionale Mutilati e Invalidi Civili,284,"Via Orazio Benevoli, 22",Trento,TN,Territorio Val D'adige,Italia,www.anmic-tn.org,46.054135,11.120441,180.0,Associazioni,,AI-6d,AE-3cf,AE-3abde,AI-6fg,AI-6e,AE-1abc,AE-2e,AE-2a,AE-2c,,,,,,,,,,2018-01-05 16:01:32.42,2010-05-17
15,A.N.M.I.L. Associazione Nazionale Mutilati e Invalidi del Lavoro ,285,"Via San Pio X, 38",Trento,TN,Territorio Val D'adige,Italia,www.anmil.it,46.0528137,11.1208529,180.0,Associazioni,,AE-3cf,AE-3abde,AI-6fg,AI-6e,AE-1abc,AE-2e,AE-2c,AE-2a,AI-6d,,,,,,,,,,2018-01-05 16:07:10.601,2010-05-25
16,A.P.A.P.I : AGENZIA PROVINCIALE PER L'ASSISTENZA E LA PREVIDENZA INTEGRATIVA - SPORTELLO INFORMATIVO,221,"PIAZZA SILVIO PELLICO, 8/3",Trento,TN,Territorio Val D'adige,Italia,www.apapi.provincia.tn.it,46.071759,11.123917,187.0,Uffici Pubblici,,AE-3cf,AE-3abde,AE-1abc,AE-2d,AE-2a,AE-2b,,,,,,,,,,,,,2013-02-04 16:01:24.662,2013-02-04
17,A.P.A.P.I: AGENZIA PROVINCIALE PER L'ASSISTENZA E LA PREVIDENZA INTEGRATIVA - DIREZIONE,222,"PIAZZA SILVIO PELLICO, 8",Trento,TN,Territorio Val D'adige,Italia,www.apapi.provincia.tn.it,46.071759,11.123917,187.0,Uffici Pubblici,,AI-5fb,AI-5fa,AI-5f,AE-3cf,AE-3abde,AE-1abc,AE-2c,AE-2a,,,,,,,,,,,2013-02-04 16:00:09.006,2013-02-04
18,A.P.C.A.T. Associazione Provinciale dei Club degli Alcolisti in Trattamento - Centro Studi,1509,"VIA SIGHELE, 3",Trento,TN,Territorio Val D'adige,Italia,www.apcattrentino-centrostudi.it,46.060178,11.123823,200.0,Associazioni,,AI-6r,AI-6fg,AI-6e,AI-6d,AE-3cf,AE-3abde,AE-2b,AE-2a,AE-1abc,,,,,,,,,,2020-06-29 16:57:06.791,2019-06-10
19,A.P.C.A.T. Associazione Provinciale dei Club degli Alcolisti in Trattamento Centro studi,291,"VIA SIGHELE, 7",Trento,TN,Territorio Val D'adige,Italia,www.apcattrentino-centrostudi.it,46.060178,11.123823,180.0,Associazioni,,AI-6d,AE-3cf,AE-3abde,AE-2b,AE-2a,AI-6e,AE-1abc,AI-6fg,,,,,,,,,,,2020-06-29 16:47:33.274,2010-05-17
20,A.R.C.A. ASSOCIAZIONE RICERCA COMPORTAMENTO ALIMENTARE,694,"VIA BRONZETTI, 29",Trento,TN,Territorio Val D'adige,Italia,www.arcatrento.wordpress.com,46.058677,11.121518,200.0,Associazioni,,AI-5fa,AI-5f,AE-3cf,AE-3abde,AI-6fg,AI-6e,AI-6p,AI-6l,AI-6i,AI-6d,AI-5fb,AE-2d,AE-2b,AE-1abc,AE-2a,AI-6r,,,2019-06-13 10:52:30.907,2010-07-16
21,A.R.I.S. Associazione Riabilitazione Inserimento Sociale Famiglie Malati Psichici,286,"Via al Torrione, 6",Trento,TN,Territorio Val D'adige,Italia,,46.065148,11.122281,180.0,Associazioni,,AI-5fb,AI-5fa,AI-5f,AE-3cf,AE-3abde,AE-1abc,AE-2d,AI-6r,AI-6p,AI-6l,AI-6i,AI-6fg,AI-6e,AI-6d,AI-6bc,AI-6ad,AE-2b,AE-2a,2019-06-05 14:43:45.621,2010-05-17
22,A.T.D. Associazione Trentina Diabetici ,297,"Via al Torrione, 6",Trento,TN,Territorio Val D'adige,Italia,,46.065148,11.122281,180.0,Associazioni,,AI-5fb,AI-5fa,AI-5f,AE-3cf,AE-3abde,AE-1abc,AE-2d,AI-6fg,AI-6r,AI-6bc,AE-2b,AI-6i,AI-6l,AI-6e,AI-6p,AI-6d,AI-6ad,AE-2a,2019-06-05 11:00:59.943,2010-05-14
23,A.T.M.A.R. Associazione Trentina Malati Reumatici Onlus,287,"Via al Torrione, 6",Trento,TN,Territorio Val D'adige,Italia,www.reumaticitrentino.it,46.065148,11.122281,180.0,Associazioni,,AI-5fb,AI-5fa,AI-5f,AE-3cf,AE-3abde,AE-1abc,AE-2d,AI-6fg,AI-6r,AI-6bc,AE-2b,AI-6i,AI-6l,AI-6e,AI-6p,AI-6d,AI-6ad,AE-2a,2019-06-05 14:24:00.272,2010-05-19
24,A.U.S.E.R. Associazione per Autogestione dei Servizi e la Solidarietà,337,"Via Vittorio Veneto, 24",Trento,TN,Territorio Val D'adige,Italia,www.auser.it,46.0579773,11.1203449,180.0,Associazioni,,AI-6d,AE-3cf,AE-3abde,AI-6fg,AE-1abc,AE-2ga,AE-2gb,AE-2g,AE-2c,,,,,,,,,,2018-01-11 17:10:59.507,2010-05-25
25,A.V.I.S. Associazione Volontari Italiani Sangue,331,"VIA SIGHELE, 7",Trento,TN,Territorio Val D'adige,Italia,www.avistrentino.org,46.060468,11.123765,180.0,Associazioni,,AE-3cf,AE-3abde,AI-5fb,AI-5fa,AI-5f,AI-5c,AE-2b,AE-2a,AE-1abc,,,,,,,,,,2019-06-25 11:34:00.832,2010-05-20
26,A.V.U.L.S.S. Associazione Volontariato Unità Locali servizi Socio Sanitari,336,"Via Endrici, 27",Trento,TN,Territorio Val D'adige,Italia,www.avulss.org,46.0634724,11.1216852,180.0,Associazioni,,AE-3cf,AE-3abde,AE-1abc,AE-2c,,,,,,,,,,,,,,,2010-06-16 13:39:01,2010-05-25
27,ACCADEMIA,807,"VICOLO COLICO, 4/6",Trento,TN,Territorio Val D'adige,Italia,www.accademiahotel.it,46.06872,11.120272,200.0,Alberghi / Hotel,Bed & Breakfast,AI-5fb,AI-5fa,AI-5f,AE-3cf,AE-3abde,AI-8efg,AE-1abc,AI-8m,AI-8n,AI-8a,AI-7a,AI-6fg,AI-7bcdef,AI-6r,AI-6bc,AI-8cd,AI-6p,AI-6d,2016-03-17 12:01:36.372,2013-01-21
28,ACLI SEDE PROVINCIALE,82,"VIA ROMA, 57",Trento,TN,Territorio Val D'adige,Italia,www.aclitrentine.it,46.06961,11.12075,257.0,Uffici Pubblici,,AI-6d,AI-5fb,AI-5fa,AI-5f,AE-3cf,AE-3abde,AI-6p,AI-6r,AI-6l,AI-6i,AI-6fg,AI-6e,AI-6bc,AI-6ad,AE-1abc,AE-2c,AE-2a,,2013-01-24 10:54:59.349,2013-01-23
29,ACLI SERVIZI TRENTINO SRL,424,"GALLERIA TIRRENA, 10",Trento,TN,Territorio Val D'adige,Italia,www.acliservizi.it,46.0684675,11.1216115,200.0,Uffici Pubblici,,AI-5fb,AI-5fa,AI-5f,AE-3cf,AE-3abde,AE-1abc,AE-2c,AE-2a,AI-6d,AI-6fg,AI-6r,AI-6i,AI-6l,AI-6e,AI-6p,,,,2017-11-27 12:00:51.005,2013-01-15
30,ACLI TRENTINE - CIRCOLO SAN GIUSEPPE SAN PIO X,699,"VIA VENETO, 24",Trento,TN,Territorio Val D'adige,Italia,,46.0579773,11.1203449,200.0,Associazioni,,AE-3cf,AE-3abde,AE-1abc,,,,,,,,,,,,,,,,2015-06-30 11:51:46.476,2010-07-16
31,ACUSTICA TRENTINA,339,"VIALE VERONA, 31/2",Trento,TN,Territorio Val D'adige,Italia,www.acustica.trentina.com,46.057174,11.1282428,180.0,Farmacie,,AE-3cf,AE-3abde,AE-2d,,,,,,,,,,,,,,,,2011-03-15 19:33:47,2010-05-17
32,ADGT - ASSOCIAZIONE DIABETE GIOVANILE DI TRENTO,525,"VIA BRONZETTI, 29",Trento,TN,Territorio Val D'adige,Italia,www.adgt.it,46.058677,11.121518,200.0,Associazioni,,AI-6d,AE-3cf,AE-3abde,AI-6p,AI-6fg,AI-6l,AI-6i,AI-6e,AE-1abc,AI-5fb,AI-5fa,AI-5f,AE-2d,AE-2b,AE-2a,AI-6r,,,2019-06-13 10:22:48.156,2010-07-16
33,AERHOTEL,813,"VIA LIDORNO, 3",Trento,TN,Territorio Val D'adige,Italia,,46.026922,11.1274653,200.0,Alberghi / Hotel,Ristoranti,AI-6d,AI-5fb,AI-5fa,AI-5f,AE-3cf,AE-3abde,AI-6i,AI-6fg,AI-6bc,AI-6ad,AI-8o,AI-7bcdef,AI-8a,AI-8efga,AI-8p,AI-8n,AI-8l,AI-7a,2013-02-28 15:40:47.338,2010-08-24
34,AFFARI FINANZIARI,744,"VIA ROMAGNOSI,"" 9 - C/O CENTRO EUROPA",Trento,TN,Territorio Val D'adige,Italia,wwww.provincia.tn.it,46.0732112,11.1218254,200.0,Uffici Pubblici,,AI-6d,AI-5fb,AI-5fa,AI-5f,AE-3cf,AE-3abde,AI-6o,AI-6l,AI-6i,AI-6fg,AI-6e,AI-6bc,AI-6ad,AE-2d,AE-2a,,,,2011-05-26 14:02:44,2010-07-23
35,AFTER PUB,707,"VIA SECONDO DA TRENTO, 1",Trento,TN,Territorio Val D'adige,Italia,,46.0765403,11.1230306,200.0,Pizzerie,Bar,AI-6d,AI-6l,AI-6i,AI-6fg,AI-6e,AE-1abc,AE-2d,AI-6p,AI-6r,AE-3abde,AE-3cf,,,,,,,,2016-02-09 09:28:28.784,2010-07-20
36,AGENZIA DEL LAVORO,680,"VIA GUARDINI, 75",Trento,TN,Territorio Val D'adige,Italia,www.agenzialavoro.tn.it,46.094576,11.1176606,200.0,Uffici Pubblici,,AI-5fb,AI-5fa,AI-5f,AE-3cf,AE-3abde,AE-1abc,AE-2a,,,,,,,,,,,,2011-05-23 13:51:09,2010-07-16
37,AGENZIA LIBRERIA SCALA MARIO,247,"VIA ROGGIA GRANDE, 26",Trento,TN,Territorio Val D'adige,Italia,www.libreriascala.it,46.0680187,11.1247987,190.0,Librerie,,AE-3cf,AE-3abde,AE-1abc,,,,,,,,,,,,,,,,2013-01-15 09:01:30.751,2013-01-14
38,AGENZIA VIAGGI CALDERARI E MOGGIOLI S.R.L.,185,"CORSO TRE NOVEMBRE, 96",Trento,TN,Territorio Val D'adige,Italia,,46.06074,11.1247,194.0,Agenzie viaggi e Promozione Turistica,,AE-3cf,AE-3abde,AE-1abc,,,,,,,,,,,,,,,,2010-03-05 07:03:18,2010-02-09
39,AGRITUR LE GIARE,805,"VIA FERSINA, 30",Trento,TN,Territorio Val D'adige,Italia,www.agriturlegiare.it,46.0435158,11.1232595,200.0,Garni e Agriturismo,,AE-3cf,AE-3abde,AI-8i,AI-8p,AI-8n,AI-8efg,AI-8cd,AI-8a,AI-7bcdef,AI-7a,AE-2a,,,,,,,,2016-03-17 11:21:31.232,2010-09-03
40,AI VICOLI,573,"PIAZZA SANTA TERESA VERZIERI, 1",Trento,TN,Territorio Val D'adige,Italia,www.aivicoli.it,46.06751,11.120286,200.0,Ristoranti,Bar,AI-6d,AI-5fb,AI-5fa,AI-5f,AE-3cf,AE-3abde,AI-6p,AI-6l,AI-6i,AI-6e,AE-1abc,AI-6ad,AI-6bc,AI-6fg,AI-6r,,,,2016-02-09 15:27:50.437,2013-01-30
41,AIPD - ASSOCIAZIONE ITALIANA PERSONE DOWN,783,"VIA TARAMELLI, 8 - C/O COOPERATIVA LA RETE",Trento,TN,Territorio Val D'adige,Italia,www.aipd.it,46.0608,11.11614,200.0,Associazioni,,AI-6d,AE-3cf,AE-3abde,AI-6o,AI-6l,AI-6i,AI-6fg,AI-6e,AI-6bc,AI-6ad,AE-2a,,,,,,,,2011-05-30 11:45:28,2010-07-13
42,AL 77,571,"VIA VERDI, 77",Trento,TN,Territorio Val D'adige,Italia,,46.0668965,11.1207144,200.0,Ristoranti,Pizzerie,AI-6d,AE-3cf,AE-3abde,AI-6p,AI-6fg,AI-6r,AE-2c,,,,,,,,,,,,2016-02-09 15:14:52.154,2013-01-22
43,AL CASTELLO,728,"VIA BERNARDO CLESIO, 8",Trento,TN,Territorio Val D'adige,Italia,www.alcastellotrento.com,46.0703117,11.1270439,200.0,Ristoranti,,AI-6d,AE-3cf,AE-3abde,AI-6l,AI-6i,AI-6fg,AI-6e,AE-1abc,AE-2c,AI-6r,,,,,,,,,2016-02-11 09:18:00.463,2010-07-29
44,AL FEUDO,11,"PIAZZETTA LAINEZ, 8",Trento,TN,Territorio Val D'adige,Italia,,46.068819,11.120382,324.0,Bar,,AI-6d,AE-3cf,AE-3abde,AI-6fg,AE-1abc,AE-2c,AI-6r,,,,,,,,,,,,2013-06-06 14:05:54.582,2013-02-01
45,AL MARINAIO,814,"VIA DEI MARINAI D'ITALIA, 28",Trento,TN,Territorio Val D'adige,Italia,www.almarinaio.eu,46.0383081,11.1234899,200.0,Alberghi / Hotel,Bed & Breakfast,AI-6d,AI-5fb,AI-5fa,AI-5f,AE-3cf,AE-3abde,AI-6o,AI-6l,AI-6i,AI-6fg,AI-6e,AI-8n,AI-8i,AI-8a,AI-7a,AI-7bcdef,AI-8m,AI-8efga,2018-05-30 10:30:38.615,2010-08-24
46,AL NUOVO FARO,236,"VIA BRESCIA, 45",Trento,TN,Territorio Val D'adige,Italia,,46.0709233,11.109862,190.0,Ristoranti,Pizzerie,AI-6d,AE-3cf,AE-3abde,AI-6p,AI-6l,AI-6i,AI-6fg,AI-6e,AI-6bc,AI-6ad,AE-2d,AI-6r,,,,,,,2016-02-09 09:20:10.549,2010-05-06
47,AL PARCO - BAR PASTICCERIA,157,"VIA POZZO, 1",Trento,TN,Territorio Val D'adige,Italia,,46.069931,11.119781,216.0,Pasticcerie,Bar,AI-6d,AE-3cf,AE-3abde,AI-6p,AI-6l,AI-6i,AI-6fg,AI-6e,AI-6ad,AE-1abc,AI-6bc,AI-6r,,,,,,,2016-02-01 10:32:17.695,2013-01-31
48,AL PORTEGHET,3,"PASSAGGIO DORIGONI, 3",Trento,TN,Territorio Val D'adige,Italia,,46.071177,11.124706,245.0,Bar,,AI-6d,AI-5b,AE-3cf,AE-3abde,AI-6l,AI-6i,AI-6fg,AI-6e,AI-6ad,AE-2c,AI-6bc,AE-1abc,,,,,,,2013-06-06 12:12:49.841,2013-01-04
49,ALBERMONACO,811,"VIA TORRE D'AUGUSTO, 25",Trento,TN,Territorio Val D'adige,Italia,www.albermonaco.it,46.07328,11.12628,200.0,Alberghi / Hotel,Ristoranti,AI-6d,AI-5fb,AI-5fa,AI-5f,AE-3cf,AE-3abde,AI-6o,AI-6l,AI-6i,AI-6e,AI-6bc,AI-6ad,AI-8n,AI-7bcdef,AI-8cd,AI-8i,AI-8a,AI-7a,2017-11-17 10:10:17.233,2010-02-24
50,ALL'ANFITEATRO,733,"PIAZZETTA DELL'ANFITEATRO, 10",Trento,TN,Territorio Val D'adige,Italia,,46.0692499,11.125253,200.0,Ristoranti,Self Service,AI-6d,AE-3abde,AI-6o,AI-6l,AI-6i,AI-6fg,AI-6e,AE-1abc,AI-6p,,,,,,,,,,2016-02-10 16:56:29.051,2013-01-14
51,ALLA GROTTA,738,"VICOLO S. MARCO, 6",Trento,TN,Territorio Val D'adige,Italia,,46.0697049,11.1255647,200.0,Ristoranti,Pizzerie,AI-6d,AI-6p,AE-3cf,AE-3abde,AI-6o,AI-6l,AI-6i,AI-6fg,AI-6e,AE-1abc,,,,,,,,,2013-01-28 10:00:25.806,2013-01-25
52,ALLA SCALETTA,243,"VIA SANTA MARIA MADDALENA, 7",Trento,TN,Territorio Val D'adige,Italia,,46.06861,11.1261711,200.0,Bar,,AI-6d,AE-3cf,AE-3abde,AI-6p,AI-6fg,AE-1abc,AI-5c,AI-6r,,,,,,,,,,,2013-01-31 11:14:00.8,2013-01-30
53,ALMAC Associazione per la Lotta alle Malattie Cardiovascolari,1499,"VIA SIGHELE, 5",Trento,TN,Territorio Val D'adige,Italia,,46.060606,11.123717,200.0,Associazioni,,AI-5fb,AI-5fa,AI-5f,AI-5c,AE-3cf,AE-3abde,AE-2b,AE-2a,AE-1abc,,,,,,,,,,2019-06-25 12:06:51.906,2019-06-10
54,AMBULATORI MEDICI,1116,"VIA DEI COLLI, 1",Trento,TN,Territorio Val D'adige,Italia,,46.04892,11.145598,0.0,Ambulatori Medici,,AI-6o,AE-3abde,AI-5fb,AI-5fa,AE-2b,AE-1abc,AI-6i,AI-5f,AE-2a,AI-6l,AI-6e,AE-3cf,AI-5b,AI-6d,AI-6p,,,,2017-11-15 16:43:33.274,2013-05-07
55,AMBULATORIO - STUDIO MEDICO DI MEDICINA GENERALE,110,"VIA SAN MARTINO, 11 INT. 1-14",Trento,TN,Territorio Val D'adige,Italia,,46.07391,11.125417,250.0,Ambulatori Medici,,AI-6d,AE-3cf,AE-3abde,AI-6l,AI-6i,AI-6fg,AI-6e,AI-6bc,AI-6ad,AE-1abc,,,,,,,,,2013-01-07 10:58:35.786,2009-10-06
56,AMBULATORIO COMUNALE,1318,"PIAZZA OVENO, 15 FRAZ. SOPRAMONTE",Trento,TN,Territorio Val D'adige,Italia,www.comune.trento.it,46.070925,11.058696,0.0,Ambulatori Medici,,AE-3abde,AI-5fb,AI-6fg,AI-5fa,AI-6r,AE-2b,AE-1abc,AI-6i,AI-5f,AE-2a,AI-6l,AI-6e,AE-3cf,AI-6p,AI-6d,,,,2013-12-09 10:30:09.967,2013-12-04
57,AMERICAN BAR FEELING,242,"VIA 1°ANDRONA DI BORGONUOVO, 20",Trento,TN,Territorio Val D'adige,Italia,,46.06594,11.123804,180.0,Bar,,AE-3cf,AE-3abde,AE-1abc,AE-2d,AI-6l,AI-6bc,AI-6fg,AI-6p,AI-6r,AI-6i,AI-6e,AI-6d,AI-6ad,,,,,,2013-01-17 16:11:57.583,2013-01-14
58,AMPLIFON spa,338,"VIA CAVOUR, 45",Trento,TN,Territorio Val D'adige,Italia,www.amplifon.it,46.0678737,11.1208306,180.0,Apparecchi Acustici,,AE-3cf,AE-3abde,AE-1abc,AE-2d,AE-2a,,,,,,,,,,,,,,2013-01-31 11:29:58.807,2013-01-30
59,AMPLIFON,711,"VIA BRENNERO, 10",Trento,TN,Territorio Val D'adige,Italia,,46.0890331,11.1190693,200.0,Ortopedie e Sanitarie,,AE-3cf,AE-3abde,,,,,,,,,,,,,,,,,2011-05-25 12:38:40,2010-08-04
60,AMPLIFON,722,"PIAZZA DEL TRIDENTE, 10",Trento,TN,Territorio Val D'adige,Italia,www.amplifon.it,46.0865713,11.1186229,200.0,Apparecchi Acustici,,AE-3cf,AE-3abde,AE-1abc,,,,,,,,,,,,,,,,2011-05-25 13:53:38,2010-07-29
61,AMS Attrezzature Medico Sanitarie,341,"VIA DEGASPERI, 34/3",Trento,TN,Territorio Val D'adige,Italia,www.amstrento.it,46.0508949,11.1222815,180.0,Ortopedie e Sanitarie,,AI-6d,AI-5g,AE-3cf,AE-3abde,AI-6fg,AI-6e,AI-6bc,AI-6ad,,,,,,,,,,,2010-06-16 14:43:37,2010-05-17
62,ANED - ASSOCIAZIONE NAZIONALE EMODIALIZZATI DIALISI E TRAPIANTO,524,"VIA BRONZETTI, 29",Trento,TN,Territorio Val D'adige,Italia,www.aned-onlus.it,46.058677,11.121518,200.0,Associazioni,,AI-6d,AE-3cf,AE-3abde,AI-6fg,AE-1abc,AI-6l,AI-6i,AI-6e,AI-5fa,AI-5f,AE-2d,AI-5fb,AE-2b,AE-2a,AI-6p,AI-6r,,,2019-06-13 10:03:34.62,2010-07-16
63,ANTICA TRATTORIA AI TRE GAROFANI,726,"VIA MAZZINI, 33",Trento,TN,Territorio Val D'adige,Italia,www.aitregarofani.com,46.0658117,11.1229181,200.0,Ristoranti,,AI-6d,AE-3cf,AE-3abde,AE-2d,AI-6r,AI-6fg,AE-1abc,,,,,,,,,,,,2013-01-23 14:05:31.483,2013-01-22
64,ANTICO CAFFE' COMMERCIO,1078,"VIA MANTOVA, 39",Trento,TN,Territorio Val D'adige,Italia,,46.06766,11.12412,0.0,Bar,,AE-2c,AE-3cf,AE-3abde,,,,,,,,,,,,,,,,2013-03-11 15:44:16.237,2010-09-13
65,APAN Associazione Provinciale Amici della Nefrologia,1498,"VIA SIGHELE, 5",Trento,TN,Territorio Val D'adige,Italia,www.apantrentino.it,46.060606,11.123717,200.0,Associazioni,,AI-5fb,AI-5fa,AI-5f,AI-5c,AE-3cf,AE-3abde,AE-2b,AE-2a,AE-1abc,,,,,,,,,,2019-06-25 12:00:32.143,2019-06-10
66,AQUILA D'ORO,801,"VIA BELENZANI, 76",Trento,TN,Territorio Val D'adige,Italia,www.aquiladoro.it,46.0678255,11.1214588,200.0,Alberghi / Hotel,Bed & Breakfast,AI-6d,AI-5fb,AI-5fa,AI-5f,AE-3cf,AE-3abde,AI-6l,AI-6i,AI-6fg,AI-6e,AE-1abc,AI-8i,AI-8a,AI-8n,AI-8p,AI-8efg,AI-8h,AI-8cd,2016-03-17 10:07:43.935,2013-01-16
67,ARCI DEL TRENTINO,101,"VIA S. MARTINO, 35",Trento,TN,Territorio Val D'adige,Italia,wwww.arcideltrentino.it,46.073523,11.125462,216.0,Associazioni,,AI-5c,AE-3cf,AE-3abde,AE-1abc,AI-6i,AI-6fg,AI-6d,,,,,,,,,,,,2013-01-07 10:24:35.07,2009-11-05
68,ARCIGAY DEL TRENTINO,293,"Via al Torrione, 6",Trento,TN,Territorio Val D'adige,Italia,www.arcigay.it,46.065148,11.122281,180.0,Associazioni,,AI-5fb,AI-5fa,AI-5f,AE-3cf,AE-3abde,AI-6r,AI-6p,AI-6l,AI-6i,AI-6fg,AI-6e,AI-6d,AI-6bc,AI-6ad,AE-2b,AE-2a,AE-1abc,AE-2d,2019-06-05 12:23:33.224,2010-05-14
69,ARCILESBICA TRENTINO ALTOADIGE ,1494,"Via al Torrione, 6",Trento,TN,Territorio Val D'adige,Italia,,46.065148,11.122281,200.0,Associazioni,,AI-6r,AI-6p,AI-6l,AI-6i,AI-6fg,AI-6e,AI-6d,AI-6bc,AI-6ad,AE-3cf,AE-3abde,AI-5fb,AI-5fa,AI-5f,AE-1abc,AE-2d,AE-2b,AE-2a,2019-06-05 13:50:24.36,2019-06-03
70,ARCOIRIS ONLUS ,292,"Via al Torrione, 6",Trento,TN,Territorio Val D'adige,Italia,www.arcoiris-onlus.it,46.065148,11.122281,180.0,Associazioni,,AI-5fb,AI-5fa,AI-5f,AE-3cf,AE-3abde,AE-1abc,AE-2d,AI-6r,AI-6p,AI-6l,AI-6i,AI-6fg,AI-6e,AI-6d,AI-6bc,AI-6ad,AE-2b,AE-2a,2019-06-05 12:07:33.07,2010-05-21
71,ARGO - CENTRA (Galleria d'Arte e Centro Studi e Documentazione Arte Moderna e Contemporanea),401,"Via II Androna di Borgonuovo, 3",Trento,TN,Territorio Val D'adige,Italia,www.argo-centra.com,46.065588,11.123327,200.0,Gallerie arte,,AE-3cf,AE-3abde,AE-1abc,,,,,,,,,,,,,,,,2013-01-10 10:48:59.614,2013-01-09
72,ARTE BOCCANERA CONTEMPORANEA,348,VIA MILANO 128/130,Trento,TN,Territorio Val D'adige,Italia,,46.0625754,11.13026,180.0,Gallerie arte,,AE-3cf,AE-3abde,AE-1abc,AE-2c,,,,,,,,,,,,,,,2010-06-22 12:31:30,2010-05-05
73,ARTE-SAN snc,500,"VIA PASUBIO, 3",Trento,TN,Territorio Val D'adige,Italia,,46.0587878,11.1331758,185.0,Ortopedie e Sanitarie,,AI-5eb,AI-5e,AI-5ea,AI-5d,AE-3abde,AE-1abc,AE-2c,AE-3cf,,,,,,,,,,,2017-11-17 10:13:57.724,2009-11-19
74,ASSESSORATO ALLA SOLIDARIETA' INTERNAZIONALE E ALLA CONVIVENZA,691,"VIA GAZZOLETTI, 2",Trento,TN,Territorio Val D'adige,Italia,wwww.provincia.tn.it,46.0716931,11.1225533,200.0,Uffici Pubblici,,AI-5fb,AI-5fa,AI-5f,AE-3cf,AE-3abde,AI-6o,AI-6l,AI-6i,AI-6fg,AI-6e,AI-6bc,AE-1abc,AE-2a,AI-6ad,AI-6d,,,,2013-03-01 15:08:37.682,2013-01-14
75,ASSOCIAZIONE ACHIPE,1496,"VIA BRONZETTI, 29",Trento,TN,Territorio Val D'adige,Italia,www.achipetn.org,46.058677,11.121518,0.0,Associazioni,,AE-3abde,AI-5fb,AI-6fg,AI-5fa,AE-2d,AE-1abc,AE-2b,AI-6r,AI-6i,AE-2a,AI-5f,AI-6l,AI-6e,AE-3cf,AI-6p,AI-6d,,,2019-06-24 10:57:59.947,2019-06-10
76,ASSOCIAZIONE ALISEI - Centro Progetto '92,1497,"VIA BRONZETTI, 29",Trento,TN,Territorio Val D'adige,Italia,www.progetto92.it,46.065148,11.122281,200.0,Associazioni,,AI-6fg,AI-6e,AI-6d,AE-3cf,AE-3abde,AI-5fb,AI-5fa,AI-5f,AE-1abc,AE-2d,AE-2b,AE-2a,AI-6r,AI-6p,AI-6l,AI-6i,,,2019-06-24 10:56:46.96,2019-06-10
77,ASSOCIAZIONE BANCA DEL TEMPO,509,"VIA BRONZETTI, 29",Trento,TN,Territorio Val D'adige,Italia,www.bancatempotrento.it,46.058677,11.121518,200.0,Associazioni,,AI-6d,AE-3abde,AI-6p,AE-2b,AI-6l,AI-6i,AI-6e,AI-5fb,AI-5fa,AI-5f,AE-2d,AE-1abc,AE-2a,AI-6r,AI-6fg,AE-3cf,,,2019-06-24 10:24:31.152,2010-07-27
78,ASSOCIAZIONE CANCRO - ALTERNATIVE PER VIVERE ONLUS,527,"VIA BRONZETTI, 29",Trento,TN,Territorio Val D'adige,Italia,www.alternativepervivere.com,46.058677,11.121518,200.0,Associazioni,,AI-6d,AE-3cf,AE-3abde,AI-6p,AI-6fg,AI-6l,AI-6i,AI-6e,AI-5fb,AI-5fa,AI-5f,AE-2d,AE-2b,AE-1abc,AE-2a,AI-6r,,,2019-06-13 10:33:52.57,2010-07-16
79,ASSOCIAZIONE DEI REDICOI - REVERSI POLICARPI,103,"VIA SAN MARTINO, 47",Trento,TN,Territorio Val D'adige,Italia,,46.0733165,11.1254664,216.0,Associazioni,,AI-6d,AE-3cf,AI-6l,AI-6i,AI-6fg,AI-6e,AI-6bc,AI-6ad,AE-1abc,AE-3abde,,,,,,,,,2013-01-07 10:39:18.825,2009-10-05
80,ASSOCIAZIONE LIFE - CENTRO SPORTIVO,352,"VIA DON ARCANGELO RIZZI, 6",Trento,TN,Territorio Val D'adige,Italia,www.centrosportivolife.com,46.067043,11.120071,200.0,Impianti Sportivi,,AI-6d,AI-5c,AE-3cf,AE-3abde,AI-6l,AI-6p,AI-6i,AI-6r,AE-2e,AI-6fg,AI-6e,AE-1abc,AE-2a,,,,,,2013-01-23 12:37:38.722,2013-01-22
81,ASSOCIAZIONE NADIR ,523,"VIA BRONZETTI, 29",Trento,TN,Territorio Val D'adige,Italia,www.nadironlus.it,46.058677,11.121518,200.0,Associazioni,,AI-6d,AE-3cf,AI-6fg,AE-1abc,AI-5fb,AI-5fa,AE-2d,AE-2b,AI-6i,AI-5f,AI-6l,AI-6e,AE-3abde,AE-2a,AI-6p,AI-6r,,,2019-06-13 09:50:24.247,2010-07-16
82,ASSOCIAZIONE TRENTINI NEL MONDO,528,"VIA MALFATTI, 1",Trento,TN,Territorio Val D'adige,Italia,www.trentininelmondo.it,46.0615846,11.1260785,200.0,Associazioni,,AI-6d,AI-5fb,AI-5fa,AI-5f,AE-3cf,AE-3abde,AI-6p,AI-6o,AI-6l,AI-6i,AI-6fg,AI-6e,AE-1abc,AE-2d,,,,,2011-04-07 14:30:05,2010-07-16
83,AUDIOLOGIA,755,"VIA PIAVE, 18",Trento,TN,Territorio Val D'adige,Italia,www.audiologia.iaps.tn.it,46.0641212,11.127659,200.0,Ambulatori Medici,Apparecchi Acustici,AE-3cf,AE-3abde,AE-2d,,,,,,,,,,,,,,,,2011-05-27 12:07:49,2010-07-14
84,AUDITORIUM - APSS ,747,"VIALE VERONA,""",Trento,TN,Territorio Val D'adige,Italia,,46.0577763,11.1279189,200.0,Teatri e Auditorium,,AI-6d,AE-3cf,AE-3abde,AI-6o,AI-6l,AI-6i,AI-6fg,AI-6e,AI-6bc,AI-6ad,,,,,,,,,2011-05-26 14:24:11,2010-07-13
85,AUDITORIUM SANTA CHIARA,149,"VIA SANTA CROCE,"" 67",Trento,TN,Territorio Val D'adige,Italia,www.centrosantachiara.it,46.0638997,11.1234869,235.0,Centri e sale culturali,,AI-6d,AI-5d,AE-3cf,AI-6i,AI-6fg,AI-6e,AE-1abc,AE-3abde,AI-6l,AI-6bc,AI-6o,AI-6p,AI-6ad,,,,,,2017-11-16 10:46:17.458,2016-05-03
86,AUDITORIUM VANEZE,1322,"STRADA DI VANEZE, 11 LOCALITA' VANEZE",Trento,TN,Territorio Val D'adige,Italia,www.discovertrento.it,46.051322,11.073052,0.0,Centri e sale culturali,Teatri e Auditorium,AI-6bc,AI-6r,AE-3abde,AI-6fg,AE-3cf,AI-6ad,AI-6d,,,,,,,,,,,,2015-03-02 15:31:11.79,2013-12-04
87,AUSER TRENTO onlus Associazione per l'autogestione dei servizi e la solidarietà,696,"VIA BRONZETTI,"" 29",Trento,TN,Territorio Val D'adige,Italia,www.auser.it,46.058677,11.121518,200.0,Associazioni,,AI-6d,AI-5fa,AI-5f,AE-3cf,AE-3abde,AI-6e,AI-5fb,AI-6fg,AE-2d,AE-2b,AI-6i,AI-6l,AI-6p,AE-1abc,AE-2a,AI-6r,,,2020-06-30 11:55:47.509,2010-07-16
88,AUTORIMESSA EUROPA,274,"VIA ROGGIA GRANDE, 20",Trento,TN,Territorio Val D'adige,Italia,,46.0678222,11.1247683,185.0,Parcheggi,,AE-1abc,,,,,,,,,,,,,,,,,,2010-12-22 09:58:09,2010-04-26
89,AUTOSTAZIONE,266,VIA POZZO,Trento,TN,Territorio Val D'adige,Italia,www.ttesercizio.it,46.070793,11.119393,165.0,Stazioni,,AI-6d,AE-3cf,AE-3abde,AI-6p,AI-6l,AI-6fg,AI-6e,AI-6bc,AI-6ad,AE-1abc,AI-6r,,,,,,,,2013-02-04 09:40:57.236,2013-02-01
90,AVVOCATURA DELLA PROVINCIA,787,"PIAZZA DANTE, 15",Trento,TN,Territorio Val D'adige,Italia,wwww.provincia.tn.it,46.072283,11.1207961,200.0,Uffici Pubblici,,AI-6d,AI-5fb,AI-5fa,AI-5f,AE-3cf,AE-3abde,AI-6o,AI-6l,AI-6i,AI-6fg,AI-6e,AE-1abc,,,,,,,2011-05-30 12:56:09,2010-06-30
91,"AZIENDA PER IL TURISMO TRENTO, MONTE BONDONE, VALLE DEI LAGHI",152,"PIAZZA DELLA PORTELLA, 3",Trento,TN,Territorio Val D'adige,Italia,www.apt.trento.it,46.0696,11.11864,234.0,Agenzie viaggi e Promozione Turistica,,AE-3cf,AE-3abde,AE-1abc,,,,,,,,,,,,,,,,2013-05-03 12:08:12.294,2013-01-21
92,"AZIENDA PER IL TURISMO TRENTO, MONTE BONDONE, VALLE DEI LAGHI",86,"PIAZZA DANTE, 24",Trento,TN,Territorio Val D'adige,Italia,www.apt.trento.it,46.06974,11.121573,211.0,Agenzie viaggi e Promozione Turistica,,AE-3cf,AE-3abde,AE-2d,AE-1abc,,,,,,,,,,,,,,,2019-05-02 10:31:14.144,2017-04-26
93,AZIENDA PROVINCIALE PER L'ENERGIA,674,"VIA GILLI, 4 C/O CENTRO NORD EST",Trento,TN,Territorio Val D'adige,Italia,www.provincia.tn.it,46.0906942,11.118853,200.0,Uffici Pubblici,,AI-6d,AI-5fb,AI-5fa,AI-5f,AE-3cf,AE-3abde,AI-6o,AI-6l,AI-6i,AI-6fg,AI-6e,AE-1abc,AE-2d,AE-2a,,,,,2011-05-23 12:55:40,2010-06-18
94,Agenzia del Lavoro di Trento - sede centrale,364,"Via Guardini, 75",Trento,TN,Territorio Val D'adige,Italia,www.agenzialavoro.tn.it,46.094579,11.1176606,200.0,Uffici Pubblici,,AI-5fb,AI-5fa,AI-5f,AE-3cf,AE-3abde,AE-2a,,,,,,,,,,,,,2010-08-03 14:59:12,2010-07-29
95,Agenzia delle Entrate,363,"Via Brennero, 133",Trento,TN,Territorio Val D'adige,Italia,www.agenziaentrate.it,46.088087,11.1172982,200.0,Uffici Pubblici,,AI-5fb,AI-5fa,AI-5f,AE-3cf,AE-3abde,AE-1abc,AE-2d,,,,,,,,,,,,2010-08-03 14:33:56,2010-07-30
96,Alpina Tourdolomit,398,"Via San Marco, 19",Trento,TN,Territorio Val D'adige,Italia,www.alpina-tourdolomit.com,46.0702565,11.1253927,200.0,Agenzie viaggi e Promozione Turistica,,AE-3cf,AE-3abde,AE-1abc,,,,,,,,,,,,,,,,2013-01-28 11:21:56.314,2013-01-25
97,Archivio Notarile Distrettuale,362,"Corso Buonarroti, 53",Trento,TN,Territorio Val D'adige,Italia,www.giustizia.it,46.073301,11.1181218,200.0,Uffici Pubblici,,AI-5fb,AI-5fa,AI-5f,AE-3cf,AE-3abde,AE-1abc,,,,,,,,,,,,,2010-08-03 14:23:33,2010-07-30
98,Area Archeologica di Palazzo Lodron,439,"Piazza Lodron, 31",Trento,TN,Territorio Val D'adige,Italia,www.trentinocultura.net,46.0679041,11.12269,200.0,Musei,,AI-5fa,AI-5f,AE-3cf,AE-1abc,AE-3abde,AI-5fb,,,,,,,,,,,,,2018-07-12 13:56:54.806,2013-01-04
99,Associazione Agriturismo Trentino,296,"Via Jacopo Aconcio, 13",Trento,TN,Territorio Val D'adige,Italia,www.agriturismotrentino.com,46.074522,11.1225305,180.0,Associazioni,,AE-3cf,AE-3abde,AE-1abc,AE-2c,,,,,,,,,,,,,,,2010-06-08 11:53:43,2010-05-21
100,Associazione Alzheimer Trento onlus,294,"Via al Torrione, 6",Trento,TN,Territorio Val D'adige,Italia,www.alzheimertrento.org,46.065148,11.122281,180.0,Associazioni,,AI-5fb,AI-5fa,AI-5f,AE-3cf,AE-3abde,AE-1abc,AE-2d,AE-2b,AE-2a,AI-6fg,AI-6r,AI-6bc,AI-6i,AI-6l,AI-6e,AI-6p,AI-6d,AI-6ad,2019-06-05 11:05:16.25,2010-05-18
101,Associazione Parkinson,508,"VIA BRONZETTI, 29",Trento,TN,Territorio Val D'adige,Italia,www.parkinson-trento.it,46.058677,11.121518,200.0,Associazioni,,AI-6d,AE-3cf,AI-6p,AI-6i,AI-6fg,AI-6l,AI-6e,AI-5fb,AI-5fa,AE-2b,AI-5f,AE-1abc,AE-2d,AE-2a,AI-6r,AE-3abde,,,2020-06-30 10:59:22.515,2010-07-27
102,Atelier d'Arte - Studio di esposizione permanente,488,"Via Giovanelli, 35",Trento,TN,Territorio Val D'adige,Italia,,46.0641872,11.1312581,200.0,Gallerie arte,,AE-3cf,AE-3abde,AE-1abc,,,,,,,,,,,,,,,,2010-09-17 14:31:32,2010-07-14
103,Audiometrica Trentina,492,"Via San Bernardino, 14/2",Trento,TN,Territorio Val D'adige,Italia,,46.0641714,11.1292017,200.0,Apparecchi Acustici,,AI-5b,AE-3cf,AE-3abde,AE-1abc,,,,,,,,,,,,,,,2010-09-21 12:39:51,2010-07-14
104,B & B ADA,803,"VIA MAZZINI, 4",Trento,TN,Territorio Val D'adige,Italia,www.bbada.it,46.066297,11.122649,200.0,Bed & Breakfast,,AE-3cf,AI-8i,AI-8n,AI-8efg,AI-8cd,AI-8a,AI-7bcdef,AI-7a,AE-2a,AE-3abde,,,,,,,,,2016-03-17 11:01:09.38,2013-01-11
105,B & B ANNA,802,"VIA MILANO, 12",Trento,TN,Territorio Val D'adige,Italia,,46.0599099,11.1170455,200.0,Bed & Breakfast,,AI-5b,AE-3cf,AE-3abde,AI-7bcdef,AI-7a,AI-8a,AI-8p,AI-8h,AI-8n,AI-8i,AI-8cd,,,,,,,,2016-03-17 10:53:43.569,2010-09-06
106,B & B CAFFE' CITTA',30,"PIAZZA CESARE BATTISTI, 10",Trento,TN,Territorio Val D'adige,Italia,,46.06951,11.12374,214.0,Bar,,AI-6d,AE-3cf,AE-3abde,AI-6l,AI-6i,AI-6fg,AI-6e,AI-6bc,AI-6ad,AE-1abc,AI-6p,AI-6r,,,,,,,2013-01-14 08:51:48.831,2013-01-11
107,B & B CASA POMPERMAIER,804,"VIA ALDO SCHMIDT, 5",Trento,TN,Territorio Val D'adige,Italia,www.casapompermaier.it,46.05687,11.12548,200.0,Bed & Breakfast,,AE-3cf,AE-3abde,AI-7bcdef,AI-7a,AI-8efg,AI-8a,AI-8n,AI-8i,AI-8cd,AE-2c,AE-2a,,,,,,,,2016-03-17 11:15:46.209,2010-08-27
108,BAGNI PUBBLICI,83,PIAZZA DANTE,Trento,TN,Territorio Val D'adige,Italia,,46.06824,11.12146,210.0,Servizi Igienici,,AI-6d,AE-3cf,AE-3abde,AI-6l,AI-6i,AI-6e,AE-1abc,AI-6fg,AI-6ad,AI-6r,AI-6bc,AE-2d,AI-6p,,,,,,2018-05-14 15:26:46.886,2013-01-16
109,BANCA BOVIO CALDERARI GRUPPO BANCA SELLA,265,VIA POZZO,Trento,TN,Territorio Val D'adige,Italia,,46.07056,11.12037,163.0,Bancomat,,AE-1abc,,,,,,,,,,,,,,,,,,2010-05-13 07:55:41,2010-03-30
110,BANCA DI TRENTO E BOLZANO,165,"VIA MANTOVA, 19",Trento,TN,Territorio Val D'adige,Italia,www.btbonline.it,46.06802,11.12369,173.0,Bancomat,,AE-4h,AE-1abc,AE-2d,,,,,,,,,,,,,,,,2013-01-31 14:30:23.519,2013-01-24
111,BANCA DI TRENTO E BOLZANO,172,"VIA TRAVAI, 236",Trento,TN,Territorio Val D'adige,Italia,,46.06473,11.12315,195.0,Bancomat,,AE-4h,AE-1abc,,,,,,,,,,,,,,,,,2010-12-17 15:19:49,2010-02-02
112,BANCA INTESA,314,"VIA GOCCIADORO, 20/22",Trento,TN,Territorio Val D'adige,Italia,,46.0555133,11.1325223,180.0,Bancomat,,AE-4h,AE-3cf,AE-3abde,AE-1abc,,,,,,,,,,,,,,,2010-12-17 15:22:48,2010-05-25
113,BANCA INTESA,47,"VIA ORIOLA, 36",Trento,TN,Territorio Val D'adige,Italia,,46.06854,11.12075,228.0,Bancomat,,AE-4h,AE-1abc,,,,,,,,,,,,,,,,,2010-12-17 15:24:00,2009-11-12
114,BANCA NAZIONALE DEL LAVORO,272,"PIAZZA DANTE, 1",Trento,TN,Territorio Val D'adige,Italia,,46.07265,11.11985,185.0,Bancomat,,AE-4h,AE-3cf,AE-3abde,AE-1abc,AE-2d,,,,,,,,,,,,,,2010-12-17 15:25:39,2010-03-23
115,BANCA POPOLARE DEL TRENTINO,169,"VIA S. CROCE, 43",Trento,TN,Territorio Val D'adige,Italia,,46.06388,11.12348,188.0,Bancomat,,AE-4h,,,,,,,,,,,,,,,,,,2010-12-21 09:34:28,2010-01-29
116,BANCA POPOLARE DEL TRENTINO,317,"VIA VITTORIO VENETO, 18",Trento,TN,Territorio Val D'adige,Italia,,46.057739,11.120795,180.0,Bancomat,,AE-4h,AE-1abc,,,,,,,,,,,,,,,,,2011-03-21 10:11:40,2010-05-17
117,BANCA POPOLARE DEL TRENTINO,327,"VIA BOLGHERA, 38",Trento,TN,Territorio Val D'adige,Italia,,46.0583945,11.130563,180.0,Bancomat,,AE-4h,AE-3cf,AE-3abde,AE-1abc,AE-2d,,,,,,,,,,,,,,2010-12-17 15:28:53,2010-05-17
118,BANCA POPOLARE DI VICENZA,156,"VIA ROSMINI, 1",Trento,TN,Territorio Val D'adige,Italia,,46.06821,11.11862,213.0,Bancomat,,AE-4h,AE-1abc,,,,,,,,,,,,,,,,,2017-11-17 10:15:06.274,2010-01-26
119,BANCA POPOLARE TEDESCA - VOLKSBANK,175,VIA S. CROCE,Trento,TN,Territorio Val D'adige,Italia,www.bancapopolare.it,46.06402,11.12358,220.0,Bancomat,,AE-4h,AE-3cf,AE-3abde,AE-1abc,,,,,,,,,,,,,,,2017-11-17 10:16:14.8,2010-02-02
120,BANCA SELLA NORD EST BOVIO CALDERARI,187,"VIA PERINI, 20",Trento,TN,Territorio Val D'adige,Italia,,46.06056,11.12244,210.0,Bancomat,,AE-4h,AE-1abc,,,,,,,,,,,,,,,,,2013-01-07 15:51:19.732,2010-02-09
121,BANCA SELLA NORDEST BOVIO CALDERARI,164,"VIA OSS MAZZURANA, 59",Trento,TN,Territorio Val D'adige,Italia,,46.06823,11.12244,213.0,Bancomat,,AE-4h,AE-3cf,AE-3abde,AE-1abc,AE-2c,,,,,,,,,,,,,,2013-02-01 16:47:01.951,2013-02-01
122,BANCA SELLA NORDEST BOVIO CALDERARI,72,"VIA OSS MAZZURANA, 59",Trento,TN,Territorio Val D'adige,Italia,,46.06823,11.12244,213.0,Bancomat,,AE-4h,,,,,,,,,,,,,,,,,,2010-12-17 14:51:05,2009-11-11
123,BANCOMAT BANCA ANTONVENETA GRUPPO MONTEPASCHI,589,"VIA SAN SEVERINO, 7",Trento,TN,Territorio Val D'adige,Italia,,46.0653236,11.1140684,200.0,Bancomat,,AE-4h,,,,,,,,,,,,,,,,,,2011-04-08 14:33:17,2010-04-21
124,BANCOMAT BANCA DI TRENTO E BOLZANO,586,"VIALE VERONA, 128/A",Trento,TN,Territorio Val D'adige,Italia,,46.0535972,11.129761,200.0,Bancomat,,AE-4h,,,,,,,,,,,,,,,,,,2017-11-17 10:17:34.091,2010-05-17
125,BANCOMAT BANCA NAZIONALE DEL LAVORO,538,"VIA ROMAGNOSI,"" 9 - C/O CENTRO EUROPA",Trento,TN,Territorio Val D'adige,Italia,,46.0730641,11.1222183,200.0,Bancomat,,AE-4h,,,,,,,,,,,,,,,,,,2017-11-17 10:18:27.912,2010-07-23
126,BANCOMAT BANCA POPOLARE DEL TRENTINO,542,"VIA PETRARCA, 1/7",Trento,TN,Territorio Val D'adige,Italia,,46.0724524,11.1237509,200.0,Bancomat,,AE-4h,,,,,,,,,,,,,,,,,,2011-04-07 18:58:30,2010-07-07
127,BANCOMAT BANCA POPOLARE DEL TRENTINO,613,"VIA GUARDINI, 50",Trento,TN,Territorio Val D'adige,Italia,,46.0940657,11.1179657,200.0,Bancomat,,AE-4h,,,,,,,,,,,,,,,,,,2011-04-12 13:28:53,2010-08-06
128,BANCOMAT BANCA POPOLARE DELL'EMILIA ROMAGNA,543,"PIAZZA GENERALE CANTORE, 32",Trento,TN,Territorio Val D'adige,Italia,,46.0769709,11.1198829,200.0,Bancomat,,AE-4h,AE-1abc,,,,,,,,,,,,,,,,,2011-04-07 19:04:12,2010-07-07
129,BANCOMAT BANCA POPOLARE DI SONDRIO,633,"VIA PETRARCA, 14",Trento,TN,Territorio Val D'adige,Italia,,46.0538783,11.1173177,200.0,Bancomat,,AE-4h,AE-3cf,AE-3abde,AE-1abc,,,,,,,,,,,,,,,2011-04-20 14:46:17,2010-07-20
130,BANCOMAT BANCA POPOLARE VOLKSBANK,611,"VIA ENRICO FERMI, 11",Trento,TN,Territorio Val D'adige,Italia,,46.0474893,11.126253,200.0,Bancomat,,AE-3cf,AE-3abde,,,,,,,,,,,,,,,,,2011-04-12 10:38:27,2010-06-30
131,BANCOMAT BANCA TRENTO E BOLZANO,536,"VIA FRATELLI FONTANA, 44",Trento,TN,Territorio Val D'adige,Italia,,46.0769289,11.118952,200.0,Bancomat,,AE-3cf,AE-3abde,AE-1abc,AE-2d,,,,,,,,,,,,,,,2017-11-17 10:19:55.726,2010-07-20
132,BANCOMAT BANCA TRENTO E BOLZANO,590,"VIA SAN PIO X, 97",Trento,TN,Territorio Val D'adige,Italia,,46.0538783,11.1206155,200.0,Bancomat,,AE-4h,,,,,,,,,,,,,,,,,,2017-11-17 10:20:38.565,2010-05-17
133,BANCOMAT BNL GRUPPO BNP ,534,"VIA FRATELLI FONTANA, 34",Trento,TN,Territorio Val D'adige,Italia,,46.0769089,11.118952,200.0,Bancomat,,AE-3cf,AE-3abde,AE-1abc,AE-2c,,,,,,,,,,,,,,,2011-04-07 16:04:47,2010-07-20
134,BANCOMAT CASSA DI RISPARMIO DI PADOVA E ROVIGO,539,"VIA ROMAGNOSI,"" 9 - C/O CENTRO EUROPA",Trento,TN,Territorio Val D'adige,Italia,,46.0730641,11.1222183,200.0,Bancomat,,AE-4h,AE-3cf,AE-3abde,,,,,,,,,,,,,,,,2017-11-17 10:21:40.823,2010-07-23
135,BANCOMAT CASSA RURALE DI ALDENO E CADINE,591,"VIA DEGASPERI, 92",Trento,TN,Territorio Val D'adige,Italia,,46.0500962,11.1242938,200.0,Bancomat,,AE-4h,AE-3cf,AE-3abde,,,,,,,,,,,,,,,,2017-11-17 10:22:53.951,2010-05-17
136,BANCOMAT CASSA RURALE DI ALDENO E CADINE,593,"VIA BRESCIA, 19",Trento,TN,Territorio Val D'adige,Italia,,46.0706406,11.1119991,180.0,Bancomat,,AE-4h,AE-3cf,AE-3abde,,,,,,,,,,,,,,,,2017-11-17 10:23:45.63,2010-04-22
137,BANCOMAT CASSA RURALE DI LAVIS E VALLE DI CEMBRA,533,"LARGO NAZARIO SAURO, 4",Trento,TN,Territorio Val D'adige,Italia,,46.0745334,11.1249043,200.0,Bancomat,,AE-1abc,AE-2c,,,,,,,,,,,,,,,,,2011-04-07 15:59:48,2010-07-20
138,BANCOMAT CASSA RURALE DI LAVIS E VALLE DI CEMBRA,540,"LARGO NAZARIO SAURO, 8",Trento,TN,Territorio Val D'adige,Italia,,46.0746621,11.1248997,200.0,Bancomat,,AE-1abc,AE-2c,,,,,,,,,,,,,,,,,2013-03-01 15:12:10.08,2010-07-20
139,BANCOMAT CASSA RURALE DI TRENTO,537,"CORSO BUONARROTI, 39",Trento,TN,Territorio Val D'adige,Italia,,46.0743344,11.1186019,200.0,Bancomat,,AE-4h,AE-3cf,AE-3abde,AE-1abc,AE-2c,AE-2a,,,,,,,,,,,,,2011-04-07 18:35:45,2010-07-20
140,BANCOMAT CASSA RURALE DI TRENTO,544,"PIAZZA GENERALE CANTORE, 23",Trento,TN,Territorio Val D'adige,Italia,,46.0773905,11.1199732,100.0,Bancomat,,AE-4h,AE-1abc,AE-2c,,,,,,,,,,,,,,,,2011-04-07 19:08:19,2010-07-07
141,BANCOMAT MEDIO VALTELLINESE,609,"PIAZZA PASI, 21",Trento,TN,Territorio Val D'adige,Italia,,46.0678927,11.12298,200.0,Bancomat,,AE-4h,AE-2c,,,,,,,,,,,,,,,,,2017-11-17 10:24:49.378,2010-06-28
142,BANCOMAT UNICREDIT BANCA,545,"VIA FRATELLI FONTANA, 34",Trento,TN,Territorio Val D'adige,Italia,,46.0769089,11.118952,200.0,Bancomat,,,,,,,,,,,,,,,,,,,,2011-04-07 19:53:58,2010-07-07
143,BAR 70,189,"VIA ENDRICI, 5",Trento,TN,Territorio Val D'adige,Italia,,46.06041,11.12191,226.0,Bar,,AI-6d,AE-3cf,AE-3abde,AI-6p,AI-6i,AI-6fg,AI-6e,AI-6bc,AI-6ad,AE-1abc,AE-2c,AI-6r,,,,,,,2013-01-07 15:56:11.077,2010-02-09
144,BAR 900,615,"VIA VERDI, 11",Trento,TN,Territorio Val D'adige,Italia,,46.0664885,11.1167514,200.0,Bar,,AE-3cf,AE-3abde,AE-1abc,,,,,,,,,,,,,,,,2011-04-12 13:35:13,2010-08-09
145,BAR ADRIA S.A.S.,580,"LARGO NAZARIO SAURO, 4",Trento,TN,Territorio Val D'adige,Italia,,46.0745334,11.1249043,200.0,Bar,,AE-3cf,AE-3abde,AI-6p,AI-6ad,AE-1abc,AE-2d,AI-6bc,AI-6d,AI-6r,AI-6fg,,,,,,,,,2013-01-14 12:19:08.003,2010-07-20
146,BAR AL MARINAIO,430,"VIA DEI MARINAI D'ITALIA, 28",Trento,TN,Territorio Val D'adige,Italia,www.almarinaio.eu,46.0385886,11.1232387,200.0,Pasticcerie,Bar,AI-6d,AE-3cf,AE-3abde,AI-6p,AI-6o,AI-6l,AI-6i,AI-6fg,AI-6e,,,,,,,,,,2018-05-30 10:32:04.738,2010-08-24
147,BAR BACCUS,174,"PIAZZA FIERA, 11",Trento,TN,Territorio Val D'adige,Italia,,46.06488,11.12364,196.0,Bar,,AI-6d,AE-3abde,AI-6p,AI-6o,AI-6l,AI-6i,AI-6fg,AI-6e,AE-1abc,AE-2d,AE-3cf,,,,,,,,2015-12-01 11:48:28.484,2013-01-09
148,BAR CAFFETTERIA NETTUNO,90,"VIA CAVOUR, 40",Trento,TN,Territorio Val D'adige,Italia,,46.06788,11.12082,212.0,Bar,,AI-6d,AI-5c,AE-3cf,AE-3abde,AI-6i,AI-6fg,AI-6e,AE-1abc,AE-2c,AI-6l,AI-6r,AI-6p,,,,,,,2013-01-31 08:39:57.802,2013-01-30
149,BAR CAFFÉ RANDRÉ,143,"LARGO CARDUCCI GIOSUÉ, 16",Trento,TN,Territorio Val D'adige,Italia,,46.06835,11.12433,198.0,Bar,,AI-5b,AE-3cf,AE-3abde,AI-6fg,AI-6bc,AI-6ad,AE-1abc,AI-6d,,,,,,,,,,,2017-11-17 10:27:21.648,2013-01-11
150,BAR CARDUCCI,76,"LARGO CARDUCCI, 25",Trento,TN,Territorio Val D'adige,Italia,,46.06837,11.1247,209.0,Bar,,AI-6d,AE-3cf,AE-3abde,AI-6l,AI-6i,AI-6fg,AI-6e,AI-6bc,AI-6ad,AE-1abc,,,,,,,,,2013-01-14 09:49:05.093,2013-01-11
151,BAR CARLA,518,"VIA DEL BRENNERO, 46",Trento,TN,Territorio Val D'adige,Italia,,46.076593,11.124022,200.0,Bar,,AI-6d,AI-5b,AE-3cf,AE-3abde,AI-6p,AI-6fg,AI-6bc,AI-6ad,AE-1abc,AI-6r,,,,,,,,,2015-06-08 17:56:31.336,2010-07-14
152,BAR CAVOUR,23,"PIAZZA SANTA MARIA MAGGIORE, 19",Trento,TN,Territorio Val D'adige,Italia,,46.06835,11.12003,308.0,Bar,,AI-6d,AE-3cf,AE-3abde,AI-6fg,AI-6bc,AI-6ad,AE-1abc,AI-6r,,,,,,,,,,,2013-06-06 15:43:20.276,2013-01-21
153,BAR CENTRO NORD 3,689,"VIA GILLI, 4 C/O UFFICIO CATASTO",Trento,TN,Territorio Val D'adige,Italia,,46.0906942,11.118853,200.0,Uffici Pubblici,,AI-6d,AI-6o,AI-6l,AI-6i,AI-6fg,,,,,,,,,,,,,,2011-05-24 13:19:58,2010-07-16
154,BAR CIN CIN,238,"VIA BRESCIA, 38",Trento,TN,Territorio Val D'adige,Italia,,46.0706371,11.1118726,195.0,Bar,,AI-6d,AI-5b,AE-3cf,AE-3abde,AI-6p,AI-6fg,AI-6bc,AI-6ad,AE-1abc,AE-2c,AI-6r,,,,,,,,2013-01-08 16:51:03.307,2010-05-06
155,BAR CITY,60,"VIA ROGGIA GRANDE, 24",Trento,TN,Territorio Val D'adige,Italia,,46.06778,11.12478,215.0,Bar,,AI-6d,AE-3cf,AE-3abde,AI-6fg,AI-6bc,AI-6ad,AE-1abc,,,,,,,,,,,,2013-01-17 11:56:59.918,2013-01-15
156,BAR DA CLESIO DI CACCO VITO,7,"PIAZZA DELLA MOSTRA, 22",Trento,TN,Territorio Val D'adige,Italia,,46.0715,11.12583,193.0,Bar,,AI-6d,AE-3cf,AE-3abde,AI-6i,AI-6ad,AE-1abc,AE-2d,AI-6bc,AI-6l,AI-6fg,AI-6e,,,,,,,,2013-06-06 13:55:21.327,2013-01-04
157,BAR DANY,630,"VIA GIUSTI, 45",Trento,TN,Territorio Val D'adige,Italia,,46.0589265,11.1190522,200.0,Bar,,AI-6d,AE-3cf,AE-3abde,AI-6p,AI-6o,AI-6l,AI-6i,AI-6fg,AI-6e,AI-6ad,AE-1abc,AI-6bc,,,,,,,2017-11-17 10:28:24.38,2010-07-01
158,BAR DEI CAVAI ERREDI SAS,106,"VIA SAN MARTINO, 90",Trento,TN,Territorio Val D'adige,Italia,,46.0722025,11.1251825,256.0,Bar,,AI-6d,AI-5b,AE-3cf,AI-6i,AI-6fg,AI-6bc,AE-1abc,AE-2c,AE-3abde,AI-6ad,,,,,,,,,2013-01-07 10:45:58.499,2009-10-06
159,BAR DOGANA,264,"VIA ROMAGNOSI, 2",Trento,TN,Territorio Val D'adige,Italia,,46.0734,11.12094,196.0,Bar,,AI-6d,AE-3abde,AI-6fg,AI-6bc,AI-6ad,AI-6r,AE-3cf,,,,,,,,,,,,2013-01-10 21:37:03.496,2010-03-23
160,BAR DUOMO,146,"VIA VERDI, 42",Trento,TN,Territorio Val D'adige,Italia,,46.06686,11.12063,213.0,Bar,,AI-6d,AE-3cf,AE-3abde,AI-6l,AI-6i,AI-6fg,AI-6r,AI-6e,AI-6bc,AI-6ad,AE-1abc,,,,,,,,2013-01-23 11:15:15.157,2013-01-22
161,BAR ELISABETTA,795,"VIA VENETO, 116",Trento,TN,Territorio Val D'adige,Italia,,46.0585945,11.1235398,200.0,Bar,,AI-6d,AE-3cf,AE-3abde,AI-6fg,AI-6bc,AI-6ad,AE-1abc,AE-2c,AI-6r,,,,,,,,,,2013-01-18 11:59:30.941,2010-07-01
162,BAR FIORENTINA,56,VIA CALEPINA,Trento,TN,Territorio Val D'adige,Italia,,46.06698,11.12245,205.0,Bar,,AI-6d,AE-3cf,AE-3abde,AI-6l,AI-6i,AI-6fg,AI-6e,AE-1abc,AI-6p,AI-6r,,,,,,,,,2013-01-10 12:17:16.02,2013-01-09
163,BAR FONTANARI,626,"VIA DEGASPERI, 51",Trento,TN,Territorio Val D'adige,Italia,,46.0497818,11.1248527,200.0,Bar,,AI-6d,AE-3cf,AE-3abde,AI-6p,AI-6o,AI-6l,AI-6i,AI-6fg,AI-6e,AI-6bc,AI-6ad,,,,,,,,2011-04-12 14:43:05,2010-06-30
164,BAR FUNIVIA,235,"LUNGADIGE MONTE GRAPPA, 1",Trento,TN,Territorio Val D'adige,Italia,,46.07001,11.1155238,200.0,Bar,,AI-6d,AE-3cf,AE-3abde,AI-6p,AI-6o,AI-6l,AI-6fg,AI-6e,AI-6bc,AI-6ad,AE-1abc,AI-6r,AI-6i,,,,,,2020-02-11 15:28:21.98,2010-05-06
165,BAR GAIA,710,"VIA MACCANI, 128",Trento,TN,Territorio Val D'adige,Italia,www.risto3.it,46.0890708,11.1097177,200.0,Bar,,AI-6d,AE-3cf,AE-3abde,AI-6l,AI-6i,AI-6fg,AI-6e,AI-6bc,AI-6ad,AI-6r,,,,,,,,,2013-01-14 12:40:36.62,2010-08-06
166,BAR GALASSO,161,"VIA TORRE VERDE, 4",Trento,TN,Territorio Val D'adige,Italia,,46.07064,11.12229,196.0,Bar,Osterie / Trattorie,AI-6d,AE-3cf,AE-3abde,AI-6bc,AI-6ad,AE-1abc,AI-6r,AI-6p,AI-6fg,,,,,,,,,,2013-04-11 12:25:11.083,2013-01-10
167,BAR GARZETTI,55,"PIAZZA GARZETTI, 5",Trento,TN,Territorio Val D'adige,Italia,,46.065687,11.124279,248.0,Bar,,AI-6d,AE-3cf,AI-6l,AI-6i,AI-6e,AE-2d,AE-1abc,AE-3abde,AI-6fg,AI-6r,,,,,,,,,2015-12-01 11:54:54.799,2013-01-09
168,BAR GELATERIA NUOVA,51,"VIA MAZZINI, 1",Trento,TN,Territorio Val D'adige,Italia,,46.0660869,11.1227717,194.0,Bar,,AI-6d,AE-3cf,AE-3abde,AI-6bc,AI-6ad,AE-1abc,AI-6fg,,,,,,,,,,,,2015-12-01 12:04:22.676,2013-01-09
169,BAR GIUSTI,661,"VIA GIUSTI, 22",Trento,TN,Territorio Val D'adige,Italia,,46.0611555,11.1189909,200.0,Bar,,AI-6d,AE-3cf,AE-3abde,AI-6fg,AI-6e,AI-6bc,AI-6ad,AE-1abc,AE-2c,AI-6r,,,,,,,,,2013-01-15 20:45:49.591,2010-06-30
170,BAR GOLDEN EAGLE STREET BAR,57,VIA BELENZANI 74,Trento,TN,Territorio Val D'adige,Italia,,46.06794,11.12135,214.0,Bar,,AI-6d,AI-5fb,AI-5fa,AI-5f,AE-3cf,AE-3abde,AI-6l,AI-6i,AI-6fg,AI-6e,AE-1abc,AI-6p,AI-6r,,,,,,2013-01-17 11:49:29.6,2013-01-16
171,BAR ITALIA,41,"PIAZZA DUOMO, 7",Trento,TN,Territorio Val D'adige,Italia,,46.06711,11.12072,180.0,Bar,,AI-6d,AE-3cf,AE-3abde,AI-6i,AI-6fg,AI-6e,AI-6bc,AI-6ad,AE-1abc,AE-2c,AI-6r,,,,,,,,2015-12-01 12:12:38.776,2013-01-16
172,BAR JOHNNY,75,"VIA CALEPINA, 69",Trento,TN,Territorio Val D'adige,Italia,,46.06731,11.12572,207.0,Bar,,AI-6d,AE-3cf,AE-3abde,AI-6i,AI-6fg,AE-1abc,AE-2d,AI-6r,,,,,,,,,,,2013-01-15 11:56:33.204,2013-01-14
173,BAR MADISON,579,VIA BRENNERO 5/1,Trento,TN,Territorio Val D'adige,Italia,,46.0754067,11.1246646,200.0,Bar,,AI-6d,AE-3cf,AE-3abde,AI-6p,AI-6o,AI-6l,AI-6i,AI-6fg,AI-6e,AI-6bc,AI-6ad,AE-1abc,,,,,,,2011-04-08 13:32:25,2010-07-20
174,BAR MAGNANI,700,"CORSO BUONARROTI, 26",Trento,TN,Territorio Val D'adige,Italia,,46.074644,11.1187048,200.0,Bar,,AI-6d,AE-3cf,AE-3abde,AI-6o,AI-6l,AI-6i,AI-6bc,AI-6ad,AE-1abc,AE-2c,AI-6fg,AI-6e,,,,,,,2015-12-01 12:08:43.4,2010-07-20
175,BAR MARCHIODI,43,"PIAZZA ITALIA, 4",Trento,TN,Territorio Val D'adige,Italia,,46.0694654,11.1233431,320.0,Bar,,AI-5fb,AI-6d,AI-5fa,AI-5f,AE-3cf,AE-3abde,AI-6l,AI-6i,AI-6fg,AI-6e,AI-6bc,AI-6ad,AI-6r,,,,,,2013-01-14 08:56:14.156,2013-01-11
176,BAR MAZZINI,52,"VIA MAZZINI, 50",Trento,TN,Territorio Val D'adige,Italia,,46.065612,11.122987,210.0,Bar,,AI-6d,AE-3cf,AE-3abde,AI-6l,AI-6i,AI-6fg,AI-6e,AI-6bc,AI-6ad,AI-6r,,,,,,,,,2013-01-15 10:58:04.96,2013-01-09
177,BAR MAZZOLENI MARI,566,"PIAZZA GENERALE CANTORE, 28",Trento,TN,Territorio Val D'adige,Italia,,46.0772226,11.120008,200.0,Bar,,AI-6d,AE-3cf,AE-3abde,AI-6p,AI-6fg,AE-1abc,AE-2c,AI-6r,,,,,,,,,,,2013-01-14 12:05:14.916,2010-07-07
178,BAR MEDAGLIE D'ORO,213,"LARGO MEDAGLIE D'ORO, 2",Trento,TN,Territorio Val D'adige,Italia,,46.0577455,11.1325995,180.0,Bar,,AI-6d,AE-3cf,AE-3abde,AI-6p,AI-6l,AI-6i,AI-6fg,AI-6e,AI-6bc,AI-6ad,AE-1abc,AE-2d,AI-6o,,,,,,2017-11-17 10:35:10.424,2010-04-13
179,BAR MEETING,231,"VIA XXIV MAGGIO, 1",Trento,TN,Territorio Val D'adige,Italia,,46.0637,11.12206,258.0,Bar,,AI-6d,AE-3cf,AE-3abde,AI-6p,AI-6i,AI-6fg,AI-6bc,AI-6ad,AE-1abc,AI-6r,,,,,,,,,2013-01-08 16:11:40.267,2010-03-17
180,BAR MELODY,627,"VIALE VERONA, 134",Trento,TN,Territorio Val D'adige,Italia,,46.0533334,11.12974356,200.0,Bar,,AI-6d,AE-3cf,AE-3abde,AI-6p,AI-6o,AI-6l,AI-6i,AI-6fg,AI-6e,AI-6bc,AI-6ad,AE-1abc,AE-2d,AE-2c,,,,,2017-11-17 10:36:19.489,2010-06-30
181,BAR OLIMPIA,24,"VIA BELENZANI, 33/1",Trento,TN,Territorio Val D'adige,Italia,www.caffeolimpia.com,46.06812,11.12124,195.0,Bar,,AI-6d,AI-5b,AE-3cf,AE-3abde,AI-6i,AI-6fg,AI-6bc,AI-6ad,AE-1abc,AE-2d,AI-6r,,,,,,,,2013-06-06 15:49:09.074,2013-01-15
182,BAR ORCHIDEA,15,"VIA ORFANE, 17",Trento,TN,Territorio Val D'adige,Italia,,46.068984,11.120076,203.0,Bar,,AI-6d,AI-5b,AE-3cf,AI-6i,AI-6fg,AI-6bc,AI-6ad,AE-1abc,AI-6r,AE-3abde,,,,,,,,,2013-06-06 15:01:46.472,2013-01-31
183,BAR ORIOLA,8,"VIA ORIOLA, 28",Trento,TN,Territorio Val D'adige,Italia,,46.06834,11.12346,199.0,Bar,,AI-6d,AE-3cf,AE-3abde,AI-6l,AI-6i,AI-6fg,AI-6e,AI-6bc,AI-6ad,AE-1abc,AI-6r,,,,,,,,2013-01-14 09:59:04.2,2013-01-11
184,BAR PASI,39,PIAZZA PASI,Trento,TN,Territorio Val D'adige,Italia,,46.06781,11.12209,199.0,Bar,,AI-6d,AE-3cf,AE-3abde,AI-6fg,AI-6ad,AE-1abc,AI-6r,AI-6bc,,,,,,,,,,,2013-01-14 11:46:22.333,2013-01-11
185,BAR PASTICCERIA TEATRO,1370,"Via Oss Mazzurana, 15",Trento,TN,Territorio Val D'adige,Italia,,46.069367,11.122515,0.0,Pasticcerie,Bar,AI-6e,AI-6p,AI-6d,AE-1abc,AI-6fg,AE-3abde,AI-6i,AE-3cf,AI-6l,AE-2d,AI-6o,,,,,,,,2016-01-29 11:34:18.147,2014-10-14
186,BAR PERINI CIVICO 131,192,"VIA PERINI, 131",Trento,TN,Territorio Val D'adige,Italia,,46.06042,11.12195,185.0,Bar,,AI-6d,AE-3cf,AE-3abde,AI-6p,AI-6o,AI-6l,AI-6i,AI-6fg,AI-6e,AE-1abc,AE-2d,AE-2c,AI-6r,,,,,,2016-01-05 16:30:50.263,2010-02-09
187,BAR PRATI,657,"VIA DEI MURADEI, 4",Trento,TN,Territorio Val D'adige,Italia,,46.057213,11.1181957,200.0,Bar,,AI-6d,AI-5b,AE-3cf,AE-3abde,AI-6fg,AI-6e,AI-6bc,AI-6ad,AE-1abc,AE-2c,AI-6r,,,,,,,,2013-01-15 20:53:09.797,2010-07-01
188,BAR ROBY,228,"VIA TRAVAI,"" 34",Trento,TN,Territorio Val D'adige,Italia,,46.0644,11.12117,271.0,Bar,,AI-6d,AI-5c,AE-3cf,AE-3abde,AI-6p,AI-6o,AI-6l,AI-6i,AI-6fg,AI-6e,AI-6bc,AI-6ad,AE-1abc,AE-2c,AI-6r,,,,2016-01-05 16:28:42.712,2010-03-17
189,BAR ROSA,216,"VIA PIAVE, 56",Trento,TN,Territorio Val D'adige,Italia,,46.0623,11.12565,207.0,Bar,,AI-6d,AE-3cf,AE-3abde,AI-6p,AI-6i,AI-6fg,AI-6bc,AI-6ad,AE-1abc,AI-6r,,,,,,,,,2013-01-08 16:01:25.522,2010-04-09
190,BAR ROSSINI,2,"VIA SUFFRAGIO, 27",Trento,TN,Territorio Val D'adige,Italia,,46.0714,11.125001,239.0,Bar,,AI-5e,AE-3cf,AI-6l,AI-6i,AI-6fg,AI-6e,AI-6bc,AI-6ad,AE-1abc,AE-2c,AI-6d,AE-3abde,,,,,,,2013-06-06 12:10:41.168,2013-01-04
191,BAR SANTA CHIARA (OSPEDALE S.CHIARA),210,"LARGO MEDAGLIE D'ORO, 1",Trento,TN,Territorio Val D'adige,Italia,,46.0578948,11.1329703,180.0,Bar,,AI-6d,AE-3cf,AE-3abde,AI-6p,AI-6o,AI-6l,AI-6i,AI-6fg,AI-6e,AI-6bc,AI-6ad,AE-1abc,AE-2d,,,,,,2013-01-07 17:03:31.785,2010-04-13
192,BAR SANTA CHIARA,167,"VIA SANTA CROCE, 59",Trento,TN,Territorio Val D'adige,Italia,,46.0636,11.12357,212.0,Bar,,AI-6d,AE-3cf,AE-3abde,AI-6p,AI-6fg,AI-6bc,AI-6ad,AE-1abc,AI-6r,,,,,,,,,,2013-01-07 14:50:20.284,2010-01-29
193,BAR STAZIONE TRENITALIA,270,"PIAZZA DANTE, 1",Trento,TN,Territorio Val D'adige,Italia,,46.07265,11.11985,185.0,Bar,,AE-3cf,AE-3abde,AE-1abc,AE-2d,,,,,,,,,,,,,,,2010-05-21 07:33:10,2010-03-23
194,BAR TN/MALE',269,VIA DOGANA 3,Trento,TN,Territorio Val D'adige,Italia,,46.07318,11.12061,138.0,Bar,,AI-6d,AE-3cf,AE-3abde,AI-6p,AI-6o,AI-6l,AI-6i,AI-6fg,AI-6e,AE-1abc,,,,,,,,,2013-01-11 08:40:42.979,2010-03-23
195,BAR TORINO,220,PIAZZA SILVIO PELLICO 3/2,Trento,TN,Territorio Val D'adige,Italia,,46.071742,11.123912,185.0,Bar,,AI-6d,AE-3cf,AE-3abde,AI-6p,AI-6fg,AI-6bc,AI-6ad,AE-1abc,AE-2c,AI-6r,,,,,,,,,2013-02-04 08:52:10.699,2013-02-01
196,BAR TORRE VANGA,153,"PIAZZA LEONARDO DA VINCI, 1",Trento,TN,Territorio Val D'adige,Italia,,46.069768,11.118202,188.0,Bar,,AI-6d,AE-3abde,AI-6l,AI-6r,AI-6fg,AI-6i,AI-6e,AI-6ad,AE-1abc,AE-3cf,AI-6bc,,,,,,,,2017-11-17 10:37:47.288,2013-01-22
197,BAR TRE PORTONI,170,"VIA S. CROCE, 48",Trento,TN,Territorio Val D'adige,Italia,,46.06388,11.12361,220.0,Bar,,AI-6d,AE-3cf,AE-3abde,AI-6i,AI-6fg,AI-6bc,AI-6ad,AE-1abc,AI-6r,AI-6p,,,,,,,,,2013-01-07 14:59:56.581,2010-02-02
198,BAR VEGAS,305,"Via Bezzecca, 4",Trento,TN,Territorio Val D'adige,Italia,,46.0628609,11.1310403,180.0,Bar,,AI-6d,AE-3cf,AE-3abde,AI-6l,AI-6fg,AI-6e,AI-6bc,AI-6ad,AE-1abc,,,,,,,,,,2010-06-09 06:37:56,2010-05-25
199,BAR ZINZORLA,560,"PIAZZA GENERALE CANTORE, 12",Trento,TN,Territorio Val D'adige,Italia,,46.0774364,11.1197069,200.0,Bar,,AI-6d,AE-3cf,AE-3abde,AI-6p,AI-6bc,AI-6ad,AE-1abc,AE-2c,AI-6fg,AI-6r,,,,,,,,,2016-01-05 16:18:50.303,2010-07-07
200,BARYCENTRO,218,"PIAZZA VENEZIA, 38 (ZONA PORT'AQUILA)",Trento,TN,Territorio Val D'adige,Italia,www.gruppospes.it,46.06981,11.12748,198.0,Bar,Librerie,AI-6d,AI-5c,AE-3cf,AE-3abde,AI-6p,AI-6l,AI-6i,AI-6fg,AI-6e,AI-6bc,AI-6ad,AE-1abc,AI-6r,,,,,,2013-12-03 11:00:29.121,2013-01-15
201,BENETTI,1071,"VIA DEGLI ORTI, 7",Trento,TN,Territorio Val D'adige,Italia,,46.0657,11.1216,0.0,Riparazione Autovetture,,AE-2d,AE-3cf,AE-3abde,,,,,,,,,,,,,,,,2013-03-11 15:39:21.05,2010-09-13
202,BEST WESTERN QUID HOTEL,810,"VIA INNSBRUCK, 11",Trento,TN,Territorio Val D'adige,Italia,www.quidhoteltrento.com,46.1018531,11.1013046,200.0,Alberghi / Hotel,Ristoranti,AI-6d,AI-5fb,AI-5fa,AI-5f,AE-3cf,AE-3abde,AI-6o,AI-6l,AI-6i,AI-6fg,AI-6e,AE-1abc,AI-8i,AI-8efg,AI-8efga,AI-8o,AI-8n,AI-8m,2016-03-17 12:29:29.595,2010-08-24
203,BIBLIOTECA COMUNALE DI TRENTO,91,"VIA ROMA, 55",Trento,TN,Territorio Val D'adige,Italia,www.bibcom.trento.it,46.0696,11.12073,248.0,Biblioteche,,AI-6d,AI-5fb,AI-5fa,AI-5f,AI-5c,AE-3cf,AI-6p,AI-6o,AI-6l,AI-6i,AI-6fg,AI-6e,AE-1abc,AE-3abde,,,,,2019-05-03 11:41:04.19,2016-05-03
204,BIBLIOTECA DEL MUSEO TRIDENTINO DI SCIENZE NATURALI,512,"VIA CALEPINA, 10",Trento,TN,Territorio Val D'adige,Italia,www.mtsn.it/biblioteca,46.0669458,11.13087,200.0,Associazioni,,AE-3cf,AE-3abde,AE-1abc,AE-2d,,,,,,,,,,,,,,,2011-04-06 14:54:21,2010-07-26
205,BIBLIOTECA DELL'ISTITUTO REGIONALE DI STUDI E RICERCA SOCIALE,530,"PIAZZA  SANTA MARIA MAGGIORE, 7",Trento,TN,Territorio Val D'adige,Italia,www.irsrs.tn.it,46.068675,11.119205,200.0,Biblioteche,,AI-6d,AE-3cf,AE-3abde,AI-6p,AI-6o,AI-6l,AI-6i,AI-6fg,AI-6e,AE-2d,AE-2b,AE-1abc,AI-6ad,AI-6bc,AE-2g,AE-2gb,AE-2ga,AE-2a,2013-01-23 10:01:14.784,2013-01-21
206,BIBLIOTECA DELLA GIUNTA PROVINCIALE DI TRENTO,514,"VIA ROMAGNOSI,"" 9 - C/O CENTRO EUROPA",Trento,TN,Territorio Val D'adige,Italia,www.provincia.tn.it,46.0732112,11.128254,200.0,Uffici Pubblici,Biblioteche,AI-6d,AE-3cf,AE-3abde,AI-6p,AI-6o,AI-6l,AI-6i,AI-6fg,AI-6e,,,,,,,,,,2013-01-24 16:19:50.46,2010-07-26
207,BIBLIOTECA DELLA MONTAGNA - PALAZZO SARACINI CRESSERI,390,"Via Manci, 57",Trento,TN,Territorio Val D'adige,Italia,www.sat.tn.it,46.0699422,11.1232717,200.0,Biblioteche,,AI-6d,AE-3abde,AI-6r,AI-5f,AI-5fb,AI-5fa,AI-5c,AI-6p,AI-6l,AI-6i,AI-6e,AE-1abc,AE-2a,AI-6fg,AE-3cf,,,,2016-05-05 11:03:51.718,2016-05-03
208,BIBLIOTECA SULLE AUTONOMIE E MINORANZE LINGUISTICHE,511,"VIA GAZZOLETTI, 2",Trento,TN,Territorio Val D'adige,Italia,www.regione.taa.it,46.071857,11.121855,200.0,Biblioteche,,AI-6d,AE-3cf,AI-6p,AI-6l,AI-6fg,AI-6e,AE-1abc,AE-2b,AI-6i,AE-2a,AI-6r,AE-3abde,,,,,,,2013-02-01 14:25:26.439,2013-02-01
209,BIBLIOTECA UNIVERSITARIA CENTRALE - EX PALAZZO CAVAZZANI,623,"VIA VERDI, 8",Trento,TN,Territorio Val D'adige,Italia,www.portale.unitn.it/biblioteca,46.0663801,11.1160111,200.0,Biblioteche,,AI-6d,AE-3cf,AE-3abde,AI-6p,AI-6o,AI-6l,AI-6i,AI-6fg,AI-6e,AI-6bc,AI-6ad,AE-1abc,,,,,,,2014-01-29 14:36:11.549,2013-12-12
210,BIG CENTER,575,"VIA DEGASPERI, 1/17",Trento,TN,Territorio Val D'adige,Italia,,46.0495288,11.1223165,200.0,Attivita commerciali,,AE-3cf,AE-3abde,AE-2gb,AE-2ga,AE-2g,,,,,,,,,,,,,,2011-04-08 11:06:38,2010-07-08
211,BLOCKBUSTER ITALIA SPA,776,"VIA DEL BRENNERO, 16",Trento,TN,Territorio Val D'adige,Italia,www.blockbuster.it,46.0922662,11.1158929,200.0,Librerie,,AE-3cf,AE-3abde,AE-1abc,,,,,,,,,,,,,,,,2011-05-27 14:23:11,2010-07-14
212,BLUE BAR,214,"VIA PAOLO ORSI, 7",Trento,TN,Territorio Val D'adige,Italia,,46.0572436,11.1320535,183.0,Bar,,AI-6d,AE-3cf,AE-3abde,AI-6p,AI-6l,AI-6i,AI-6fg,AI-6e,AI-6bc,AI-6ad,AE-1abc,AE-2d,AI-6r,,,,,,2016-01-11 15:53:52.288,2010-04-13
213,BNL - BANCA NAZIONALE DEL LAVORO,183,"CORSO TRE NOVEMBRE, 21",Trento,TN,Territorio Val D'adige,Italia,,46.06168,11.12444,193.0,Bancomat,,AE-4h,AE-1abc,,,,,,,,,,,,,,,,,2010-12-21 09:44:44,2010-02-03
214,BOTTEGA DEL CAFFE' DERSUT,20,"VIA DELLE ORFANE, 5",Trento,TN,Territorio Val D'adige,Italia,www.dersut.it,46.069291,11.120042,230.0,Bar,,AI-6d,AE-3cf,AE-3abde,AI-6fg,AI-6bc,AI-6ad,AE-1abc,AI-6r,AI-5b,,,,,,,,,,2013-06-06 15:27:20.523,2013-02-01
215,BOUGANVILLE,572,"VIA PETRARCA,"" 1/4",Trento,TN,Territorio Val D'adige,Italia,,46.0724524,11.1237509,200.0,Ristoranti,Pizzerie,AI-6d,AI-5c,AE-3cf,AE-3abde,AI-6p,AI-6l,AI-6i,AI-6fg,AI-6e,AE-2c,,,,,,,,,2016-02-09 15:21:17.029,2010-07-07
216,BREN CENTER,721,"VIA TRENER, 16",Trento,TN,Territorio Val D'adige,Italia,,46.0947884,11.1152304,200.0,Attivita commerciali,,AI-6d,AE-3cf,AE-3abde,AI-6o,AI-6l,AI-6i,AI-6fg,AI-6e,,,,,,,,,,,2011-05-25 13:47:13,2010-07-08
217,BRIGHENTI,342,"VIA SUFFRAGIO, 37",Trento,TN,Territorio Val D'adige,Italia,www.brighenti.eu,46.071208,11.124969,180.0,Ortopedie e Sanitarie,,AE-3cf,AE-3abde,AE-2c,,,,,,,,,,,,,,,,2013-01-11 10:57:09.964,2013-01-11
218,Bar dei Botesei,502,"Via Gorizia, 18",Trento,TN,Territorio Val D'adige,Italia,,46.0589472,11.1309134,200.0,Bar,,AI-6d,AE-3cf,AE-3abde,AI-6fg,AI-6bc,AI-6ad,AE-1abc,AE-2c,,,,,,,,,,,2010-09-21 14:09:33,2010-07-27
219,Bluvacanze Trento,396,"Via XXIV maggio, 2/2",Trento,TN,Territorio Val D'adige,Italia,www.viaggiconchiglia.net,46.0638138,11.1217172,200.0,Agenzie viaggi e Promozione Turistica,,AE-3cf,AE-3abde,AE-1abc,,,,,,,,,,,,,,,,2010-08-23 10:25:22,2010-08-19
220,C.I.R.S. CENTRO PROVINCIALE DI TRENTO - ONLUS,195,"VIA TARAMELLI, 17",Trento,TN,Territorio Val D'adige,Italia,www.cirstn.it,46.06144,11.11837,198.0,Associazioni,,AI-6d,AE-3cf,AE-3abde,AI-6p,AI-6o,AI-6l,AI-6i,AI-6fg,AI-6e,AE-1abc,AE-2a,,,,,,,,2010-03-05 08:55:06,2010-02-16
221,CAFE' CREME,197,"VIA PIAVE, 74",Trento,TN,Territorio Val D'adige,Italia,,46.06243,11.12609,194.0,Bar,,AI-6d,AE-3cf,AE-3abde,AI-6p,AI-6i,AI-6fg,AI-6bc,AI-6ad,AE-2c,AI-6r,AE-1abc,,,,,,,,2016-01-11 16:15:30.21,2010-03-03
222,CAFFE' AL CORSO,179,"CORSO 3 NOVEMBRE, 40",Trento,TN,Territorio Val D'adige,Italia,,46.06192,11.12423,227.0,Bar,,AI-6d,AE-3cf,AE-3abde,AI-6p,AI-6l,AI-6i,AI-6fg,AI-6e,AI-6bc,AI-6ad,AE-1abc,AI-6r,,,,,,,2016-01-11 16:11:31.531,2010-02-03
223,CAFFE' AL TEMPO PERSO,219,"VIA PETRARCA, 32",Trento,TN,Territorio Val D'adige,Italia,,46.072167,11.1234695,167.0,Bar,,AE-3cf,AE-3abde,AI-6p,AI-6i,AI-6fg,AI-6e,AI-6bc,AI-6ad,AE-1abc,AE-2c,AI-6r,AI-6d,,,,,,,2013-01-08 16:07:29.353,2010-03-09
224,CAFFE' DA GIORGIO,217,"VIA ROSMINI, 56",Trento,TN,Territorio Val D'adige,Italia,,46.066278,11.11899,143.0,Bar,,AI-6d,AE-3cf,AE-3abde,AI-6p,AI-6r,AI-6fg,AI-6bc,AI-6ad,AE-1abc,AE-2c,,,,,,,,,2017-11-17 10:38:53.841,2013-01-22
225,CAFFE' EXCELSIOR,26,"VIA S. PIETRO ANG. VIA MANCI, 58",Trento,TN,Territorio Val D'adige,Italia,,46.070058,11.124312,229.0,Bar,,AI-6d,AE-3cf,AE-3abde,AI-6l,AI-6i,AI-6fg,AI-6e,AE-1abc,AE-2c,AI-6r,,,,,,,,,2016-01-11 16:31:20.476,2013-01-25
226,CAFFE' LATTE,89,"VIA MANCI, 20",Trento,TN,Territorio Val D'adige,Italia,,46.069777,11.122238,200.0,Pizzerie,Bar,AI-6d,AI-6r,AI-6p,AI-5c,AE-3cf,AI-6fg,AE-1abc,AE-3abde,,,,,,,,,,,2016-01-11 16:46:28.558,2013-01-23
227,CAFFE' MANZONI,1079,"VIA MANZONI, 19",Trento,TN,Territorio Val D'adige,Italia,,46.073376,11.125052,0.0,Bar,,AI-6d,AI-6r,AI-6fg,AI-6p,AE-3cf,AE-3abde,,,,,,,,,,,,,2013-03-13 16:44:56.067,2013-03-13
228,CAFFE' PIAZZA LODRON,33,"PIAZZA LODRON, 21",Trento,TN,Territorio Val D'adige,Italia,,46.06809,11.12339,251.0,Ristoranti,Bar,AE-3abde,AI-6bc,AE-2d,AI-6i,AI-6fg,AI-6e,AE-3cf,AI-6d,AI-6ad,,,,,,,,,,2016-01-11 16:56:44.428,2009-11-03
229,CAFFE' PORTICI,96,"PIAZZA DUOMO, 10",Trento,TN,Territorio Val D'adige,Italia,,46.06769,11.12099,210.0,Bar,,AI-6d,AI-5b,AE-3cf,AE-3abde,AI-6i,AI-6fg,AI-6bc,AI-6ad,AE-1abc,AE-2c,AI-6r,,,,,,,,2016-01-11 17:13:54.414,2013-01-16
230,CAFFE' SILVANA,109,"VIA BARTOLOMEO DA TRENTO, 6",Trento,TN,Territorio Val D'adige,Italia,,46.07615,11.12451,185.0,Bar,,AI-6d,AE-3cf,AI-6fg,AI-6bc,AI-6ad,AE-1abc,AE-2d,AE-3abde,AI-6i,,,,,,,,,,2016-01-12 09:11:59.368,2009-10-06
231,CAFFE' TRIDENTE,85,PIAZZA DUOMO,Trento,TN,Territorio Val D'adige,Italia,,46.06748,11.12137,225.0,Bar,,AI-6d,AE-3cf,AE-3abde,AI-6l,AI-6i,AI-6fg,AI-6e,AI-6bc,AI-6ad,AE-1abc,AE-2d,AI-6r,,,,,,,2016-01-12 09:19:48.2,2013-01-16
232,CAFFE' VENEZIA,166,"LARGO PORTA NUOVA, 11",Trento,TN,Territorio Val D'adige,Italia,,46.0675111,11.126518,232.0,Bar,,AI-6d,AE-3cf,AE-3abde,AI-6p,AI-6o,AI-6l,AI-6i,AI-6e,AE-1abc,AE-2c,AI-6fg,,,,,,,,2016-01-12 09:25:20.365,2013-01-14
233,CAFFE' VERDI,227,"VIA VERDI, 31/3",Trento,TN,Territorio Val D'adige,Italia,,46.06663,11.11862,220.0,Bar,,AI-6d,AE-3cf,AE-3abde,AI-6p,AI-6l,AI-6fg,AI-6e,AI-6r,AI-6ad,AE-1abc,AI-6bc,,,,,,,,2016-01-12 09:54:35.547,2013-01-23
234,CAFFÉ MOZART,145,"VIA VERDI, 32",Trento,TN,Territorio Val D'adige,Italia,,46.06686,11.12063,195.0,Bar,,AI-6d,AI-5b,AE-3cf,AE-3abde,AI-6fg,AI-6r,AE-1abc,,,,,,,,,,,,2017-11-17 10:40:06.728,2013-01-22
235,CAFFÉ ONDA,714,"VIA LUNELLI, 54 - C/O PALAZZO ONDA",Trento,TN,Territorio Val D'adige,Italia,,46.0921064,11.1173985,200.0,Paninoteche,Bar,AI-6d,AE-3cf,AE-3abde,AI-6i,AI-6fg,AI-6e,AI-6ad,AI-6bc,AE-1abc,AI-6r,AI-6p,AI-6l,,,,,,,2016-01-12 10:08:45.83,2010-08-05
236,CAFFÉ RISTORANTE UNIVERSITA',144,"VIA A. PRATI, 4",Trento,TN,Territorio Val D'adige,Italia,,46.0662,11.1197,241.0,Ristoranti,Bar,AI-6d,AE-3cf,AI-6l,AI-6e,AI-6bc,AI-6ad,AE-1abc,AE-2d,AI-6fg,AI-6r,AE-3abde,,,,,,,,2016-01-12 10:14:30.405,2013-01-31
237,CALZOLERIA DA ALCIDE,416,"VICOLO DELL'ADIGE, 21",Trento,TN,Territorio Val D'adige,Italia,,46.0704475,11.1235552,200.0,Attivita commerciali,,AE-3cf,AE-3abde,AE-1abc,AE-2c,,,,,,,,,,,,,,,2013-01-28 09:49:22.583,2013-01-25
238,"CAMERA DI COMMERCIO, INDUSTRIA, ARTIGIANATO E AGRICOLTURA DI TRENTO",361,"Via Calepina, 13",Trento,TN,Territorio Val D'adige,Italia,www.tn.camcom.it,46.0669328,11.1228213,200.0,Uffici Pubblici,,AI-5fb,AI-5fa,AI-5f,AE-3cf,AE-3abde,AE-1abc,AI-6l,AI-6fg,AI-6p,AI-5c,AI-6e,AI-6d,AI-6r,AE-2d,,,,,2013-01-11 10:19:57.16,2013-01-10
239,CAMPI SPORTIVI c/o RESIDENZA UNIVERSITARIA SANTA MARGHERITA,1313,"VIA SANTA MARGHERITA, 13",Trento,TN,Territorio Val D'adige,Italia,www.operauni.tn.it,46.068298,11.117751,0.0,Impianti Sportivi,,AI-6fg,AE-2b,AE-1abc,AI-6o,AI-6i,AE-3abde,AI-5c,AE-2a,AI-6l,AI-6e,AE-3cf,AI-6p,AI-6d,,,,,,2013-12-09 09:17:47.124,2013-11-29
240,CAMPO ATLETICA LEGGERA - C.O.N.I.,355,"VIA MACCANI, 2",Trento,TN,Territorio Val D'adige,Italia,,46.0801693,11.1171418,200.0,Impianti Sportivi,,AI-5b,AE-1abc,AE-2c,,,,,,,,,,,,,,,,2011-03-21 15:11:24,2010-05-05
241,CANTINE DI TORRE MIRANA - COMUNE DI TRENTO ,151,"VIA BELENZANI, 3",Trento,TN,Territorio Val D'adige,Italia,www.comunetrento.tn.it,46.0695,11.12112,229.0,Uffici Pubblici,Edifici Storici,AI-6d,AI-5fb,AI-5fa,AI-5f,AE-3abde,AI-6l,AI-6i,AI-6fg,AI-6e,AE-1abc,AE-2d,AE-3cf,,,,,,,2013-01-16 17:22:25.499,2013-01-16
242,CAPPELLA OSPEDALE S. CHIARA,211,"LARGO MEDAGLIE D'ORO, 1",Trento,TN,Territorio Val D'adige,Italia,,46.0578948,11.1329703,,Edifici di Culto,,AE-3cf,AE-3abde,AE-1abc,AE-2d,,,,,,,,,,,,,,,2010-04-16 02:31:32,2010-04-13
243,CAPPELLA VANTINI DI PALAZZO THUN - COMUNE DI TRENTO ,745,"VIA BELENZANI, 3",Trento,TN,Territorio Val D'adige,Italia,www.comunetrento.it,46.0689399,11.1213617,200.0,Centri e sale culturali,Musei,AE-3cf,AE-1abc,AI-6o,AI-6l,AI-6i,AI-6fg,AI-6e,AI-6d,AE-2c,AE-3abde,AI-5d,,,,,,,,2018-07-11 13:54:54.595,2010-07-15
244,CARITAS DIOCESANA TRENTO,335,"VIA ENDRICI, 27",Trento,TN,Territorio Val D'adige,Italia,www.webdiocesi.chiesacattolica.it,46.0634724,11.1216852,180.0,Associazioni,,AE-3cf,AE-3abde,AE-1abc,AE-2c,,,,,,,,,,,,,,,2010-06-16 13:31:04,2010-05-18
245,CASA CIVICA DI RIPOSO,576,"VIA SAN GIOVANNI BOSCO, 10",Trento,TN,Territorio Val D'adige,Italia,www.civicatnapsp.it,46.0645971,11.126757,200.0,Strutture Residenziali,,AI-6d,AI-5fb,AI-5fa,AI-5f,AE-3cf,AE-3abde,AI-6p,AI-6o,AI-6l,AI-6i,AI-6fg,AI-6e,AE-1abc,AE-2d,,,,,2011-04-08 13:03:42,2010-07-08
246,CASA DEL CIOCCOLATO,46,"VIA BELENZANI, 21",Trento,TN,Territorio Val D'adige,Italia,,46.06872,11.12109,221.0,Pasticcerie,Dolciumi,AE-3cf,AI-6p,AI-6fg,AI-6r,AI-6i,AI-6d,AE-1abc,AE-2d,AE-3abde,,,,,,,,,,2016-02-01 10:05:22.6,2013-01-23
247,CASA DI CURA VILLA BIANCA,256,VIA PIAVE 78,Trento,TN,Territorio Val D'adige,Italia,wwww.trento1.cardionet.it,46.0625758,11.1262886,190.0,Ospedali,,AI-6d,AI-5fb,AI-5fa,AI-5f,AI-6p,AI-6o,AI-6l,AI-6i,AI-6fg,AI-6e,AI-6bc,AI-6ad,AE-1abc,AE-2gb,AE-2ga,AE-2g,AE-2c,AE-2a,2011-03-11 12:15:43,2010-05-04
248,CASANOVA CAFE',212,"LARGO MEDAGLIE D'ORO, 5",Trento,TN,Territorio Val D'adige,Italia,,46.0579492,11.1325833,180.0,Bar,,AI-6d,AE-3cf,AE-3abde,AI-6p,AI-6i,AI-6fg,AI-6bc,AI-6ad,AE-1abc,AE-2c,AI-6r,,,,,,,,2016-01-12 10:19:57.767,2010-04-13
249,CASSA RURALE ALTO GARDA filiale TRENTO,1416,"VIA FRATELLI PERINI, 33/35",Trento,TN,Territorio Val D'adige,Italia,www.cr-altogarda.net,46.05989,11.119452,200.0,Bancomat,Banca,AE-3abde,AE-2b,AE-2a,AE-1abc,AE-3cf,AE-4h,,,,,,,,,,,,,2018-01-22 15:33:36.136,2017-11-15
250,CASSA RURALE DELLA VALLE DEI LAGHI,190,"VIA PERINI, 35",Trento,TN,Territorio Val D'adige,Italia,www.cr-vallelaghi.net,46.05998,11.11998,192.0,Bancomat,,AE-4h,AE-3cf,AE-3abde,AE-1abc,AE-2d,,,,,,,,,,,,,,2013-01-07 16:02:11.124,2010-02-09
251,CASSA RURALE DI ALDENO E CADINE (esterno),259,VIA VERDI 19,Trento,TN,Territorio Val D'adige,Italia,,46.0665898,11.1176884,200.0,Bancomat,,AE-4h,AE-1abc,AE-2c,,,,,,,,,,,,,,,,2013-01-23 11:17:54.032,2013-01-22
252,CASSA RURALE DI ALDENO E CADINE (interno),260,VIA VERDI 19,Trento,TN,Territorio Val D'adige,Italia,,46.0665858,11.1176884,190.0,Bancomat,,AE-4h,AE-3cf,AE-3abde,AE-1abc,AE-2c,,,,,,,,,,,,,,2013-01-23 11:20:47.914,2013-01-22
253,CASSA RURALE DI ALDENO E CADINE,373,"Via Brennero, 256/A",Trento,TN,Territorio Val D'adige,Italia,,46.0922438,11.1153302,200.0,Bancomat,,AE-4h,AE-2a,,,,,,,,,,,,,,,,,2010-12-21 09:51:35,2010-08-04
254,CASSA RURALE DI ALDENO E CADINE,68,"VIA GALILEI, 11",Trento,TN,Territorio Val D'adige,Italia,,46.06771,11.12578,195.0,Bancomat,,AE-4h,AE-1abc,,,,,,,,,,,,,,,,,2010-12-21 09:52:20,2009-11-02
255,CASSA RURALE DI TRENTO ,301,"VIA GRAZIOLI, 38",Trento,TN,Territorio Val D'adige,Italia,,46.0668257,11.1293616,180.0,Bancomat,,AE-1abc,AE-2c,,,,,,,,,,,,,,,,,2010-06-08 12:50:43,2010-05-25
256,CASSA RURALE DI TRENTO ,372,"Via Brennero, 320 c/o TOP CENTER",Trento,TN,Territorio Val D'adige,Italia,,46.0920846,11.1153921,200.0,Bancomat,,AE-4h,,,,,,,,,,,,,,,,,,2010-12-21 10:20:44,2010-08-04
257,CASSA RURALE DI TRENTO,1319,"PIAZZA OVENO, 13 FRAZ. SOPRAMONTE",Trento,TN,Territorio Val D'adige,Italia,www.cassaruraleditrento.it,46.070709,11.058723,0.0,Bancomat,Banca,AE-3abde,AE-2b,AE-2a,AE-2d,AE-3cf,AE-4h,,,,,,,,,,,,,2013-12-09 10:31:19.327,2013-12-04
258,CASSA RURALE DI TRENTO,1323,STRADA DI VASON LOCALITA' VASON,Trento,TN,Territorio Val D'adige,Italia,http://www.cassaruraleditrento.it,46.03893,11.05684,0.0,Bancomat,,AE-4h,,,,,,,,,,,,,,,,,,2013-12-09 10:34:34.024,2013-12-04
259,CASSA RURALE DI TRENTO,173,VIA S. CROCE,Trento,TN,Territorio Val D'adige,Italia,,46.06476,11.12324,195.0,Bancomat,,AE-4h,AE-1abc,,,,,,,,,,,,,,,,,2010-12-21 09:59:31,2010-02-02
260,CASSA RURALE DI TRENTO,206,LARGO MEDAGLIE D'ORO,Trento,TN,Territorio Val D'adige,Italia,,46.0577265,11.1327659,180.0,Bancomat,,AI-5eb,AE-4h,AE-1abc,AE-2fa,AE-2f,AE-2c,,,,,,,,,,,,,2011-03-11 12:04:50,2010-04-13
261,CASSA RURALE DI TRENTO,233,"VIA DEGASPERI, 6",Trento,TN,Territorio Val D'adige,Italia,,46.0494448,11.1227919,190.0,Bancomat,,AE-4h,AE-1abc,,,,,,,,,,,,,,,,,2010-12-21 10:04:38,2010-04-29
262,CASSA RURALE DI TRENTO,254,VIA GIOVANELLI 11,Trento,TN,Territorio Val D'adige,Italia,,46.0655235,11.1318642,190.0,Bancomat,,AE-4h,AE-1abc,AE-2c,,,,,,,,,,,,,,,,2010-12-21 09:55:02,2010-04-27
263,CASSA RURALE DI TRENTO,325,"VIA GANDHI, 10",Trento,TN,Territorio Val D'adige,Italia,,46.0514496,11.1240989,180.0,Bancomat,,AE-4h,AE-1abc,AE-2c,,,,,,,,,,,,,,,,2010-12-21 10:09:22,2010-05-17
264,CASSA RURALE DI TRENTO,388,"Piazza Ezio Mosna, 19",Trento,TN,Territorio Val D'adige,Italia,,46.067082,11.115096,200.0,Bancomat,,AE-4h,AE-1abc,,,,,,,,,,,,,,,,,2010-12-21 10:21:27,2010-04-21
265,CASSA RURALE DI TRENTO,65,"VIA MANCI, 85",Trento,TN,Territorio Val D'adige,Italia,,46.07005,11.12419,222.0,Bancomat,,AE-4h,AE-1abc,,,,,,,,,,,,,,,,,2010-12-21 09:55:46,2009-10-30
266,CASSA RURALE DI TRENTO,79,"VIA BELENZANI, 4",Trento,TN,Territorio Val D'adige,Italia,,46.06956,11.1211,190.0,Bancomat,,AE-4h,AE-1abc,,,,,,,,,,,,,,,,,2010-12-21 09:58:00,2009-11-26
267,CASSA RURALE PINETANA FORNACE E SEREGNANO,196,"VIA PIAVE, 20",Trento,TN,Territorio Val D'adige,Italia,,46.06221,11.12468,218.0,Bancomat,,AE-4h,AE-1abc,,,,,,,,,,,,,,,,,2010-12-21 10:22:07,2010-03-03
268,CASTELLO DEL BUONCONSIGLIO,137,"VIA BERNARDO CLESIO, 5",Trento,TN,Territorio Val D'adige,Italia,www.buonconsiglio.it,46.07181,11.12611,204.0,Edifici Storici,,AI-6d,AI-5fb,AI-5fa,AE-3abde,AI-6o,AI-6p,AI-6i,AE-2d,AE-1abc,AI-5f,AI-6fg,AE-3cf,AI-6e,AI-6l,,,,,2018-05-24 14:57:53.191,2018-03-05
269,CATTEDRALE DI SAN VIGILIO - DUOMO,114,PIAZZA DUOMO,Trento,TN,Territorio Val D'adige,Italia,,46.067412,11.121297,260.0,Edifici di Culto,,AE-3cf,AE-1abc,AE-2d,AE-3abde,,,,,,,,,,,,,,,2017-11-15 16:46:46.471,2013-01-16
270,CENTRO ALLOGGI A.T.S.M.,578,"VIA SUFFRAGIO, 53",Trento,TN,Territorio Val D'adige,Italia,www.atsm-cfm.org,46.071042,11.124637,200.0,Strutture Residenziali,,AI-5fb,AE-3cf,AE-3abde,AI-6o,AI-6l,AI-6fg,AI-6d,AI-5fa,AE-1abc,AI-6i,AI-5f,AE-2a,AI-6e,AI-6p,,,,,2013-01-07 14:04:17.325,2013-01-04
271,CENTRO ANTIVIOLENZA,334,"VIA DOGANA, 1",Trento,TN,Territorio Val D'adige,Italia,www.centroantiviolenzatn.it,46.0734942,11.1209013,180.0,Associazioni,,AI-5fb,AI-5fa,AI-5f,AE-3cf,AE-3abde,AE-1abc,AE-2c,AE-2a,,,,,,,,,,,2010-06-16 13:18:38,2010-05-14
272,CENTRO BERNARDO CLESIO,634,"VIA BARBACOVI, 4",Trento,TN,Territorio Val D'adige,Italia,,46.0654969,11.1258503,200.0,Centri e sale culturali,,AI-6d,AE-3cf,AE-3abde,AI-6p,AI-6o,AI-6i,AI-6fg,AI-6bc,AI-6ad,AE-1abc,AE-2c,AE-2a,,,,,,,2013-01-15 10:26:08.918,2013-01-14
273,CENTRO CONGRESSI PANORAMA,531,"STRADA DELLA FUNIVIA, 66",Trento,TN,Territorio Val D'adige,Italia,www.operauni.tn.it,46.0660794,11.099928,420.0,Centri e sale culturali,,AI-6d,AI-5fb,AI-5fa,AI-5f,AE-3cf,AE-3abde,AI-6p,AI-6o,AI-6l,AI-6i,AI-6fg,AI-6e,AE-2d,,,,,,2011-04-07 15:17:00,2010-07-26
274,CENTRO DI DOCUMENTAZIONE EUROPEA - PAT,513,"VIA ROMAGNOSI,"" 9 - C/O CENTRO EUROPA",Trento,TN,Territorio Val D'adige,Italia,www.cde.provincia.tn.it,46.0732112,11.1218254,200.0,Uffici Pubblici,,AI-6d,AE-3cf,AE-3abde,AI-6p,AI-6o,AI-6l,AI-6i,AI-6fg,AI-6e,,,,,,,,,,2011-04-06 15:25:58,2010-07-23
275,CENTRO DI RICERCA E TUTELA DEI CONSUMATORI E DEGLI UTENTI,223,"VIA PETRARCA, 32",Trento,TN,Territorio Val D'adige,Italia,www.centroconsumatori.tn.it,46.072167,11.1234695,200.0,Uffici Pubblici,,AE-3cf,AE-3abde,AE-1abc,,,,,,,,,,,,,,,,2010-04-19 03:56:10,2010-03-09
276,CENTRO GOMMA,429,"PIAZZA MOSTRA, 27",Trento,TN,Territorio Val D'adige,Italia,,46.0716641,11.125949,200.0,Riparazione Autovetture,,AE-3cf,,,,,,,,,,,,,,,,,,2010-12-22 10:20:39,2010-08-23
277,CENTRO ORTOPEDICO TRENTINO,343,"VIA MILANO, 41",Trento,TN,Territorio Val D'adige,Italia,,46.0625822,11.1302147,180.0,Ortopedie e Sanitarie,,AE-3cf,AE-3abde,AE-1abc,AE-2c,,,,,,,,,,,,,,,2010-06-17 13:25:42,2010-05-25
278,CENTRO PER L'IMPIEGO,706,"VIA MACCANI, 80",Trento,TN,Territorio Val D'adige,Italia,www.agenziadellavoro.tn.it,46.0841476,11.115201,200.0,Uffici Pubblici,,AI-6d,AE-3cf,AE-3abde,AI-6fg,AE-1abc,AE-2a,AI-6r,,,,,,,,,,,,2013-01-15 19:45:40.682,2010-08-06
279,CENTRO PER LA FORMAZIONE ALLA SOLIDARIETA' INTERNAZIONALE - EX CONVENTO AGOSTINIANI,645,"VIA SAN MARCO, 1",Trento,TN,Territorio Val D'adige,Italia,www.tcic.eu,46.0697855,11.1255673,200.0,Uffici Pubblici,Centri e sale culturali,AE-3cf,AE-1abc,AE-2a,AI-6fg,AI-6bc,AI-6r,AI-6p,AI-6d,AI-6ad,AE-3abde,,,,,,,,,2017-05-04 11:53:57.595,2013-01-25
280,CENTRO RISORSE INTEGRAZIONE AREA BISOGNI EDUCATIVI SPECIALI,624,"VIA TOMMASO GAR, 10",Trento,TN,Territorio Val D'adige,Italia,www.vivoscuola.it,46.0687101,11.1168629,200.0,Uffici Pubblici,,AI-6d,AE-3cf,AE-3abde,AI-6p,AI-6o,AI-6l,AI-6i,AI-6fg,AI-6e,AE-1abc,AE-2a,,,,,,,,2011-04-12 14:32:45,2010-08-09
281,CENTRO SERVIZI CGIL DEL TRENTINO,655,"VIA GIUSTI, 49",Trento,TN,Territorio Val D'adige,Italia,www.cgil.tn.it,46.0585815,11.1186475,200.0,Uffici Pubblici,,AE-3cf,AE-3abde,AE-1abc,AE-2d,AE-2a,,,,,,,,,,,,,,2011-05-23 08:19:28,2010-07-01
282,CENTRO SERVIZIO ANZIANI,62,"VIA BELENZANI, 49",Trento,TN,Territorio Val D'adige,Italia,,46.067981,11.121538,214.0,Centri Sociali,,AI-6d,AI-5d,AE-3cf,AE-3abde,AI-6p,AI-6l,AI-6i,AI-6fg,AI-6e,AI-6bc,AI-6ad,AE-1abc,AI-6r,,,,,,2013-01-17 11:23:37.067,2013-01-15
283,CENTRO SPORTIVO A.T.A. BATTISTI,354,"VIA FERSINA, 21 LOC. GHIAIE",Trento,TN,Territorio Val D'adige,Italia,www.tennis.atatrento.it,46.045539,11.121093,190.0,Impianti Sportivi,,AI-6d,AE-3cf,AE-3abde,AI-6l,AI-6fg,AI-6e,AE-2d,,,,,,,,,,,,2013-01-11 09:07:17.256,2010-05-05
284,CENTRO SPORTIVO ITALIANO,353,"VIA TOMMASO GAR, 8",Trento,TN,Territorio Val D'adige,Italia,,46.0691212,11.1169756,200.0,Uffici Pubblici,,AE-3cf,AE-3abde,AE-1abc,,,,,,,,,,,,,,,,2014-03-25 15:23:09.501,2010-05-05
285,CENTRO SPORTIVO UNIVERSITA' MATTARELLO,1326,VIA DELLE REGOLE,Trento,TN,Territorio Val D'adige,Italia,www.unisport.tn.it,46.008867,11.134192,0.0,Impianti Sportivi,,AI-6r,AI-6i,AE-3abde,AI-6l,AI-6fg,AI-6e,AE-3cf,AI-6d,,,,,,,,,,,2017-11-15 16:49:29.785,2014-01-20
286,CENTRO VOLO A VELA CUS,1328,"VIA LIDORNO, 3",Trento,TN,Territorio Val D'adige,Italia,www.voloavela.tn.it,46.017767277216855,11.126183867454529,0.0,Impianti Sportivi,,AI-6r,AI-6bc,AI-6fg,AI-5b,AI-6d,AI-6ad,,,,,,,,,,,,,2017-11-15 16:51:30.815,2014-02-18
287,CHE BANCA - GRUPPO MEDIOBANCA,186,"VIA PERINI, 175",Trento,TN,Territorio Val D'adige,Italia,www.chebanca.it,46.06078,11.1241,222.0,Bancomat,,AE-3cf,AE-3abde,AE-4h,AE-1abc,AE-2d,,,,,,,,,,,,,,2013-01-07 15:43:07.468,2010-02-09
288,CHIESA CRISTO RE,263,PIAZZA DEL CONCILIO,Trento,TN,Territorio Val D'adige,Italia,,46.0772637,11.1174907,180.0,Edifici di Culto,,AI-5b,AE-3cf,AE-3abde,AE-1abc,AE-2d,,,,,,,,,,,,,,2011-03-21 09:59:51,2010-04-22
289,CHIESA DEL SACRO CUORE,587,"VIALE VERONA, 143",Trento,TN,Territorio Val D'adige,Italia,,46.0533334,11.1297435,200.0,Edifici di Culto,,AI-5c,AE-3cf,AE-3abde,,,,,,,,,,,,,,,,2011-04-08 14:15:25,2010-05-17
290,CHIESA DELL'ANNUNZIATA,63,"VIA BELENZANI, 55",Trento,TN,Territorio Val D'adige,Italia,,46.067877,11.121613,214.0,Edifici di Culto,,AE-3cf,AE-3abde,AE-1abc,,,,,,,,,,,,,,,,2013-01-17 12:04:41.103,2013-01-16
291,CHIESA DI SAN CARLO BORROMEO,319,"VIA M. GANDHI, 7",Trento,TN,Territorio Val D'adige,Italia,,46.0667123,11.1190591,180.0,Edifici di Culto,,AI-5b,AE-3cf,AE-3abde,AE-1abc,AE-2d,,,,,,,,,,,,,,2011-03-21 15:01:58,2010-05-17
292,CHIESA DI SAN FRANCESCO SAVERIO,135,"VIA ROMA, 57",Trento,TN,Territorio Val D'adige,Italia,,46.06961,11.12096,241.0,Edifici di Culto,,AE-3cf,AE-1abc,AE-3abde,,,,,,,,,,,,,,,,2014-01-28 16:51:00.509,2013-01-23
293,CHIESA DI SAN GIUSEPPE,316,"VIA VITTORIO VENETO, 18",Trento,TN,Territorio Val D'adige,Italia,,46.0578373,11.1196797,180.0,Edifici di Culto,,AI-5b,AE-3cf,AE-3abde,AE-1abc,,,,,,,,,,,,,,,2011-03-21 10:09:33,2010-05-17
294,CHIESA DI SAN MARCO,98,"VICOLO SAN MARCO, 3",Trento,TN,Territorio Val D'adige,Italia,,46.06998,11.12537,156.0,Edifici di Culto,,AE-3cf,AE-3abde,AE-1abc,AE-2d,,,,,,,,,,,,,,,2013-01-28 10:02:36.421,2013-01-25
295,CHIESA DI SAN MARTINO,108,"VIA BRENNERO, 22",Trento,TN,Territorio Val D'adige,Italia,,46.0762,11.12445,190.0,Edifici di Culto,,AI-5b,AE-3cf,AE-3abde,AE-1abc,AE-2d,,,,,,,,,,,,,,2017-11-15 16:39:03.694,2009-10-06
296,CHIESA DI SAN PIETRO,160,VIA SAN PIETRO,Trento,TN,Territorio Val D'adige,Italia,,46.069486,11.124551,216.0,Edifici di Culto,,AI-5b,AE-3cf,AE-3abde,AE-1abc,,,,,,,,,,,,,,,2013-01-07 12:18:47.962,2013-01-04
297,CHIESA DI SAN PIO X,588,"VIA SAN PIO X, 34",Trento,TN,Territorio Val D'adige,Italia,,46.0528135,11.1208073,200.0,Edifici di Culto,,AI-5b,AE-3cf,AE-3abde,,,,,,,,,,,,,,,,2011-04-08 14:28:49,2010-05-17
298,CHIESA DI SANT'ANTONIO,318,"VIA BOLGHERA, 40",Trento,TN,Territorio Val D'adige,Italia,,46.0583969,11.1306109,180.0,Edifici di Culto,,AI-5b,AE-3cf,AE-3abde,AE-1abc,AE-2d,,,,,,,,,,,,,,2011-03-21 15:00:32,2010-05-17
299,CHIESA S. CHIARA,178,"VIA S. CROCE, 65",Trento,TN,Territorio Val D'adige,Italia,,46.0634,11.12323,103.0,Edifici di Culto,,AI-5b,AE-1abc,,,,,,,,,,,,,,,,,2010-05-13 08:50:32,2010-02-03
300,CHIESA SPOSALIZIO DI MARIA VERGINE - BERTONIANI,303,"VIA SAN BERNARDINO, 8",Trento,TN,Territorio Val D'adige,Italia,,46.0642915,11.1285536,180.0,Edifici di Culto,,AI-5b,AE-3cf,AE-3abde,AE-1abc,AE-2c,,,,,,,,,,,,,,2011-03-21 10:07:43,2010-05-14
301,CHIESA SS. SACRAMENTO,171,VIA S. CROCE,Trento,TN,Territorio Val D'adige,Italia,,46.06234,11.12381,221.0,Edifici di Culto,,AE-3cf,AE-3abde,AE-1abc,AE-2d,AE-2c,,,,,,,,,,,,,,2017-11-17 10:41:09.842,2010-02-02
302,CHIESA VASON,1320,STRADA DI VASON LOCALITA' VASON,Trento,TN,Territorio Val D'adige,Italia,,46.03907,11.057573,0.0,Edifici di Culto,,AE-3abde,AE-3cf,,,,,,,,,,,,,,,,,2017-11-17 10:42:09.134,2013-12-04
303,CIGL DEL TRENTINO,662,"VIA DEI MUREDEI, 8",Trento,TN,Territorio Val D'adige,Italia,www.cigl.tn.it,46.0568666,11.1181927,200.0,Uffici Pubblici,,AI-6d,AI-5c,AE-3cf,AE-3abde,AI-6o,AI-6l,AI-6i,AI-6fg,AI-6e,AE-1abc,,,,,,,,,2011-05-23 09:18:34,2010-07-13
304,CIMA PNEUMATICI,565,"VIA PETRARCA, 1/A",Trento,TN,Territorio Val D'adige,Italia,,46.0724524,11.1237509,200.0,Riparazione Autovetture,,,,,,,,,,,,,,,,,,,,2011-04-08 09:16:19,2010-07-07
305,CINEMA ASTRA,121,"CORSO BUONAROTTI, 16",Trento,TN,Territorio Val D'adige,Italia,www.cineworld.info,46.0756123,11.1191714,0.0,Cinema,,AI-6d,AI-5fb,AI-5fa,AI-5f,AE-3cf,AI-6l,AI-6i,AI-6fg,AI-6e,AE-1abc,AE-3abde,,,,,,,,2018-07-11 15:41:30.145,2016-11-02
306,CINEMA MULTISALA MODENA,124,"VIA S. FRANCESCO D'ASSISI, 8/A",Trento,TN,Territorio Val D'adige,Italia,www.cineworldtrento.it,46.066963,11.12624,230.0,Cinema,,AI-6d,AE-3cf,AI-6l,AI-6r,AI-6i,AI-6fg,AI-6e,AE-1abc,AE-3abde,AE-2d,AI-6p,,,,,,,,2017-05-04 10:37:48.764,2016-05-03
307,CINEMA NUOVO ROMA,122,"CORSO TRE NOVEMBRE, 35",Trento,TN,Territorio Val D'adige,Italia,www.cineworld.info,46.0614124,11.1247703,250.0,Cinema,,AI-6d,AE-3cf,AE-3abde,AI-6i,AI-6e,AE-1abc,AI-6l,AI-6fg,,,,,,,,,,,2013-01-07 11:52:24.235,2009-12-10
308,CINEMA VITTORIA,123,"VIA MANCI,"" 54",Trento,TN,Territorio Val D'adige,Italia,www.cineworld.info,46.07001,11.12414,131.0,Cinema,,AI-6d,AI-5b,AE-3cf,AE-3abde,AI-6i,AI-6fg,AI-6e,AE-1abc,AI-6l,AI-6p,AE-2c,AI-6o,,,,,,,2015-05-11 11:06:22.792,2013-02-01
309,CINFORMI,619,"VIA ZAMBRA, 11",Trento,TN,Territorio Val D'adige,Italia,www.cinformi.it,46.091365,11.1172002,200.0,Uffici Pubblici,,AI-6d,AI-5fb,AI-5fa,AI-5f,AE-3cf,AI-6p,AI-6o,AI-6l,AI-6i,AI-6fg,AI-6e,AI-6bc,AI-6ad,AE-1abc,AE-2d,AE-3abde,,,2017-11-17 10:43:10.746,2010-06-24
310,CIRCOSCRIZIONE MONTE BONDONE,1317,"VIA DI REVOLTA, 4 FRAZ. SOPRAMONTE",Trento,TN,Territorio Val D'adige,Italia,www.comune.trento.it,46.071896,11.059871,0.0,Uffici Pubblici,,AI-6fg,AI-5fa,AI-6r,AI-6bc,AE-2b,AE-1abc,AI-6i,AE-3abde,AI-5f,AE-2a,AE-3cf,AI-6d,AI-6ad,,,,,,2013-12-04 16:15:46.744,2013-12-04
311,COMANDO PROVINCIALE CARABINIERI DI TRENTO,357,"Via Barbacovi, 24",Trento,TN,Territorio Val D'adige,Italia,www.carabinieri.it,46.0648741,11.1282018,200.0,Carabinieri - Guardia di Finanza - Polizia - Polizia Municipale - Vigili del Fuoco,,AI-6d,AI-5fa,AI-5f,AE-3abde,AI-6l,AI-6i,AI-6e,AE-1abc,AE-2a,AI-6fg,,,,,,,,,2013-02-07 08:41:45.954,2013-02-01
312,COMMISSARIATO DEL GOVERNO PER LA PROVINCIA DI TRENTO,669,"VIA PIAVE, 1",Trento,TN,Territorio Val D'adige,Italia,www.prefettura.it/trento,46.0621724,11.1250495,200.0,Uffici Giudiziari,Uffici Pubblici,AI-6d,AI-5fb,AI-5fa,AI-5f,AE-3cf,AE-3abde,AI-6o,AI-6l,AI-6i,AI-6fg,AI-6e,AI-6bc,AI-6ad,AE-1abc,AE-2d,,,,2011-05-23 12:17:26,2010-07-13
313,COMPRENSORIO DELLA VALLE DELL'ADIGE,656,"VIA ZAMBRA, 11",Trento,TN,Territorio Val D'adige,Italia,www.comprensorioc5.tn.it,46.091365,11.1172002,200.0,Uffici Pubblici,,AI-6d,AI-5fb,AI-5fa,AI-5f,AE-3cf,AE-3abde,AI-6fg,AI-6bc,AI-6ad,AE-1abc,AI-6p,AI-6r,,,,,,,2013-01-18 09:07:58.746,2010-06-24
314,CONFESERCENTI DEL TRENTINO,708,"VIA MACCANI, 207",Trento,TN,Territorio Val D'adige,Italia,www.confesercenti.it,46.093154,11.1062525,200.0,Uffici Pubblici,,AI-6d,AE-3abde,AI-6o,AI-6i,AI-6fg,AI-6ad,AE-2gb,AE-2ga,AE-2g,AI-6bc,AE-3cf,,,,,,,,2013-01-15 19:41:00.399,2010-08-06
315,CONSIGLIERA DI PARITA',786,"VIA JACOPO ACONCIO, 5",Trento,TN,Territorio Val D'adige,Italia,www.pariopportunita.provincia.tn.it,46.0746387,11.1221533,200.0,Uffici Pubblici,,AI-6d,AE-3cf,AE-3abde,AI-6o,AI-6l,AI-6i,AI-6fg,AI-6e,AI-6bc,AI-6ad,AE-1abc,,,,,,,,2013-02-04 10:19:36.636,2010-08-11
316,CONSIGLIO REGIONALE - SALA DI RAPPRESENTANZA,638,"PIAZZA DANTE, 16",Trento,TN,Territorio Val D'adige,Italia,www.consiglio.regione.taa.it,46.072283,11.1207961,200.0,Uffici Pubblici,,AI-6d,AI-5fb,AI-5fa,AI-5f,AE-3cf,AE-3abde,AI-6p,AI-6l,AI-6i,AI-6fg,AI-6e,AE-1abc,AI-6bc,AI-6r,AI-6ad,,,,2017-05-05 10:02:51.207,2010-07-26
317,"CONSULTORIO DI TRENTO PER IL SINGOLO, LA COPPIA E LA FAMIGLIA",253,"VIA MALTA, 12",Trento,TN,Territorio Val D'adige,Italia,www.apss.tn.it,46.0620141,11.1277653,190.0,Ambulatori Medici,,AI-6d,AE-3cf,AE-3abde,AI-6p,AI-6o,AI-6l,AI-6i,AI-6fg,AI-6e,AE-1abc,AE-2d,AE-2a,,,,,,,2010-05-12 01:07:28,2010-04-27
318,COOPERATIVA ARIANNA,356,"Via S. Francesco D'Assisi, 10",Trento,TN,Territorio Val D'adige,Italia,www.arianna.coop,46.066536,11.1260075,200.0,Cooperative e Laboratori Sociali,,AI-6d,AE-3abde,AI-6p,AI-6o,AI-6l,AI-6i,AI-6fg,AI-6e,AE-1abc,,,,,,,,,,2013-01-15 10:32:42.997,2013-01-14
319,"COOPERATIVA F.A.I. (FAMIGLIA, ANZIANI, INFANZIA)",782,"VIA GRAMSCI, 48/A - 50/A",Trento,TN,Territorio Val D'adige,Italia,www.faicoop.com,46.0533996,11.1257565,200.0,Cooperative e Laboratori Sociali,,AE-3cf,AE-3abde,AE-1abc,,,,,,,,,,,,,,,,2011-05-30 08:03:48,2010-07-13
320,COORDINAMENTO CIRCOLI PENSIONATI ED ANZIANI DELLA PROVINCIA DI TRENTO,1500,"VIA SIGHELE, 5",Trento,TN,Territorio Val D'adige,Italia,www.circolitn.altervista.org,46.060606,11.123717,200.0,Associazioni,,AE-2b,AE-1abc,AE-3abde,AE-2a,AI-5fa,AI-5fb,AI-5c,AI-5f,AE-3cf,,,,,,,,,,2019-06-25 12:22:14.104,2019-06-10
321,CORNER CAFFE' BAR BIANCO,21,"VIA SAN GIOVANNI, 34",Trento,TN,Territorio Val D'adige,Italia,,46.068995,11.119038,235.0,Bar,,AI-6d,AE-3cf,AE-3abde,AI-6l,AI-6i,AI-6fg,AI-6e,AI-6ad,AI-6bc,AE-1abc,AI-6r,,,,,,,,2013-06-27 10:21:15.696,2013-01-21
322,CREDEM,202,"VIA GAZZOLETTI, 35",Trento,TN,Territorio Val D'adige,Italia,,46.07184,11.1223,224.0,Bancomat,,AE-4h,AE-1abc,AE-2c,,,,,,,,,,,,,,,,2013-02-01 14:44:54.667,2010-02-24
323,CREDITO VALTELLINESE ,188,"VIA PERINI, 24 (AGENZIA 2)",Trento,TN,Territorio Val D'adige,Italia,,46.0601,11.12311,247.0,Bancomat,,AE-4h,AE-3cf,AE-3abde,AE-1abc,AE-2d,,,,,,,,,,,,,,2010-12-21 10:38:39,2010-02-09
324,CREDITO VALTELLINESE,45,"VIA DORDI, 5",Trento,TN,Territorio Val D'adige,Italia,,46.06725,11.12228,130.0,Bancomat,,AE-4h,AE-1abc,,,,,,,,,,,,,,,,,2010-12-21 10:37:45,2009-11-12
325,Centro Servizi Volontariato Trentino,410,"Piazzetta Leonardo da Vinci, 2",Trento,TN,Territorio Val D'adige,Italia,www.volontariatotrentino.it,46.069822,11.118041,200.0,Associazioni,,AI-6d,AI-5fb,AI-5fa,AI-5f,AE-3cf,AE-3abde,AI-6fg,AE-1abc,AE-2d,AI-6r,AE-2a,,,,,,,,2013-01-21 13:58:58.308,2013-01-21
326,Centro Teatro Ragazzi ,283,"Viale degli Olmi, 26",Trento,TN,Territorio Val D'adige,Italia,,46.0499184,11.1328933,180.0,Teatri e Auditorium,,AI-6d,AI-5b,AE-3cf,AE-3abde,AI-6l,AI-6i,AI-6fg,AI-6e,AE-2d,AE-2c,,,,,,,,,2011-03-21 10:05:11,2010-05-17
327,Comando Provinciale Vigili del Fuoco,358,"Via Secondo da Trento, 2",Trento,TN,Territorio Val D'adige,Italia,www.vvftrento.it,46.0766559,11.1227336,200.0,Carabinieri - Guardia di Finanza - Polizia - Polizia Municipale - Vigili del Fuoco,,AI-5fb,AI-5fa,AI-5f,AE-3cf,AE-3abde,AE-1abc,AE-2c,,,,,,,,,,,,2010-08-03 13:44:35,2010-06-30
328,DA GUIDO - OSTERIA CON CUCINA,737,PARCO SAN MARCO,Trento,TN,Territorio Val D'adige,Italia,www.osteriadaguido.com,46.070343,11.125889,200.0,Osterie / Trattorie,Ristoranti,AI-6d,AE-3cf,AE-3abde,AI-6fg,AE-1abc,AE-2c,AE-2a,AI-6p,AI-6r,,,,,,,,,,2013-01-31 10:30:39.694,2013-01-30
329,DEMATTÉ FRUTTA E VERDURA,583,"PIAZZA DUOMO, 38-39",Trento,TN,Territorio Val D'adige,Italia,,46.067685,11.120857,200.0,Frutta e Verdura,,AE-3cf,AE-3abde,AE-1abc,AE-2d,,,,,,,,,,,,,,,2013-01-17 12:50:56.965,2013-01-16
330,DIPARTIMENTO AFFARI RELAZIONI ISTITUZIONALI,639,"PIAZZA DANTE, 15",Trento,TN,Territorio Val D'adige,Italia,www.provincia.tn.it,46.072283,11.1207961,200.0,Uffici Pubblici,,AI-6d,AI-5fb,AI-5fa,AI-5f,AE-3cf,AE-3abde,AI-6p,AI-6o,AI-6l,AI-6i,AI-6fg,AI-6e,AE-1abc,,,,,,2017-11-29 15:07:53.702,2010-06-30
331,DIPARTIMENTO AGRICOLTURA E ALIMENTAZIONE,683,"VIA TRENER, 3",Trento,TN,Territorio Val D'adige,Italia,wwww.provincia.tn.it,46.0948131,11.1152147,200.0,Uffici Pubblici,,AI-6d,AI-5fb,AI-5fa,AI-5f,AE-3cf,AE-3abde,AI-6o,AI-6l,AI-6i,AI-6fg,AI-6e,AE-1abc,AE-2d,,,,,,2011-05-23 14:35:31,2010-07-16
332,DIPARTIMENTO DI ECONOMIA E MANAGEMENT,120,"VIA INAMA, 1",Trento,TN,Territorio Val D'adige,Italia,www.unitn.it/economia,46.0664636,11.1174824,240.0,Scuole e universita,,AI-6d,AI-5fa,AI-5f,AE-3cf,AI-6l,AI-6fg,AI-6e,AE-1abc,AE-4h,AI-5fb,AI-6o,AE-3abde,AI-6bc,AI-6i,AI-6p,AI-6ad,,,2017-11-15 16:53:43.804,2016-05-03
333,DIPARTIMENTO DI LETTERE E FILOSOFIA,1056,"VIA TOMMASO GAR, 14",Trento,TN,Territorio Val D'adige,Italia,www.unitn.it/lettere,46.067363,11.117236,0.0,Scuole e universita,,AI-5fb,AI-6fg,AI-5fa,AE-1abc,AE-3abde,AI-6o,AI-6i,AI-5f,AI-6l,AI-6e,AE-3cf,AI-6d,AI-6p,,,,,,2014-05-20 09:26:45.761,2012-11-06
334,DIPARTIMENTO DI SOCIOLOGIA E RICERCA SOCIALE,115,"VIA VERDI, 26",Trento,TN,Territorio Val D'adige,Italia,www.sociologia.unitn.it,46.066625,11.119334,230.0,Scuole e universita,,AI-6d,AI-5f,AE-3cf,AE-3abde,AI-6l,AI-6i,AI-6fg,AI-6e,AE-1abc,AE-2d,AE-2b,AE-2a,AI-5fb,AI-5fa,AI-6bc,AI-6r,AI-6ad,AI-6p,2017-05-04 11:41:12.259,2016-05-03
335,"DIPARTIMENTO INDUSTRIA, ARTIGIANATO E MINIERE",684,"VIA TRENER, 3",Trento,TN,Territorio Val D'adige,Italia,wwww.provincia.tn.it,46.0948131,11.1152147,200.0,Uffici Pubblici,,AI-6d,AI-5fb,AI-5fa,AI-5f,AE-3cf,AE-3abde,AI-6o,AI-6l,AI-6i,AI-6fg,AI-6e,AE-1abc,AE-2d,,,,,,2011-05-23 14:43:04,2010-07-16
336,DIPARTIMENTO ISTRUZIONE,784,"VIA GILLI, 3",Trento,TN,Territorio Val D'adige,Italia,wwww.provincia.tn.it,46.0906082,11.1192757,200.0,Uffici Pubblici,,AI-6d,AI-5fb,AI-5fa,AI-5f,AE-3cf,AE-3abde,AI-6o,AI-6l,AI-6i,AI-6fg,AI-6e,AI-6bc,AI-6ad,AE-1abc,AE-2d,,,,2011-05-30 12:22:18,2010-06-18
337,DIPARTIMENTO POLITICHE SANITARIE,676,"VIA GILLI, 4 C/O CENTRO NORD EST",Trento,TN,Territorio Val D'adige,Italia,wwww.provincia.tn.it,46.0906942,11.118853,200.0,Uffici Pubblici,,AI-6d,AI-5fb,AI-5fa,AI-5f,AE-3cf,AE-3abde,AI-6o,AI-6l,AI-6i,AI-6e,AI-6bc,AE-1abc,AE-2d,AE-2a,,,,,2011-05-23 13:12:58,2010-06-09
338,DIPARTIMENTO POLITICHE SOCIALI E DEL LAVORO,785,"VIA GILLI, 4 C/O CENTRO NORD EST",Trento,TN,Territorio Val D'adige,Italia,wwww.provincia.tn.it,46.0906742,11.118853,200.0,Uffici Pubblici,,AI-6d,AI-5fb,AI-5fa,AI-5f,AE-3cf,AE-3abde,AI-6o,AI-6l,AI-6i,AI-6fg,AI-6e,AE-1abc,AE-2d,AE-2a,,,,,2011-05-30 12:40:54,2010-06-18
339,DIPARTIMENTO PROTEZIONE CIVILE E INFRASTRUTTURE,692,"VIA VANNETTI, 41",Trento,TN,Territorio Val D'adige,Italia,wwww.provincia.tn.it,46.072511,11.121801,200.0,Uffici Pubblici,,AI-6d,AI-5fb,AI-5fa,AI-5f,AE-3cf,AE-3abde,AI-6i,AI-6fg,AE-2d,AE-2a,AI-6r,AI-6p,AI-6ad,AE-1abc,AI-6bc,,,,2013-03-05 09:47:42.211,2013-03-04
340,DIPARTIMENTO RISORSE FORESTALI E MONTANE,685,"VIA TRENER, 3",Trento,TN,Territorio Val D'adige,Italia,wwww.provincia.tn.it,46.0948131,11.1152147,200.0,Uffici Pubblici,,AI-6d,AI-5fb,AI-5fa,AI-5f,AE-3cf,AE-3abde,AI-6o,AI-6l,AI-6i,AI-6fg,AI-6e,,,,,,,,2011-05-23 14:50:35,2010-07-16
341,"DIPARTIMENTO TURISMO, COMMERCIO, PROMOZIONE E INTERNAZIONALIZZAZIONE",665,"VIA ROMAGNOSI,"" 9 - C/O CENTRO EUROPA",Trento,TN,Territorio Val D'adige,Italia,www.provincia.tn.it,46.0732112,11.1218254,200.0,Uffici Pubblici,,AI-6d,AE-3cf,AE-3abde,AI-6o,AI-6l,AI-6i,AI-6fg,AI-6e,AI-6ad,AE-2g,AE-2gb,AE-2ga,AE-2d,AE-2a,AI-6bc,,,,2017-11-17 10:44:23.159,2010-07-23
342,DIPARTIMENTO URBANISTICA E AMBIENTE,640,"VIA VANNETTI, 32",Trento,TN,Territorio Val D'adige,Italia,www.provincia.tn.it,46.0721708,11.1215888,200.0,Uffici Pubblici,,AI-6d,AI-5fb,AI-5fa,AI-5f,AE-3cf,AE-3abde,AI-6p,AI-6o,AI-6l,AI-6i,AI-6fg,AI-6e,AI-6bc,AI-6ad,AE-1abc,AE-2d,AE-2a,,2011-05-10 10:12:42,2010-07-23
343,DOC ,490,"Via Milano, 148",Trento,TN,Territorio Val D'adige,Italia,www.doctrento.it,46.0637814,11.1310344,200.0,Ristoranti,Pizzerie,AI-6d,AI-5fb,AI-5fa,AI-5f,AE-3cf,AE-3abde,AI-6p,AI-6o,AI-6l,AI-6i,AI-6fg,AI-6e,AI-6bc,AI-6ad,AE-1abc,,,,2016-02-09 15:50:52.999,2010-07-14
344,DOCTOR GLASS,612,"VIA DEL BRENNERO, 140",Trento,TN,Territorio Val D'adige,Italia,,46.0923744,11.1156126,200.0,Riparazione Autovetture,,AE-3cf,AE-3abde,AE-2d,,,,,,,,,,,,,,,,2011-04-12 13:19:05,2010-08-06
345,DOLOMITI GOMME SRL,616,"VIALE VERONA, 190/24",Trento,TN,Territorio Val D'adige,Italia,www.dolomitigomme.com,46.0466647,11.1304653,200.0,Riparazione Autovetture,,,,,,,,,,,,,,,,,,,,2011-04-12 13:42:51,2010-08-09
346,DORIGATTI AUTO SNC,427,"VIA BOLGHERA, 59",Trento,TN,Territorio Val D'adige,Italia,,46.0580451,11.1320798,200.0,Riparazione Autovetture,,AE-3cf,AE-3abde,AE-1abc,AE-2c,,,,,,,,,,,,,,,2010-09-02 10:27:13,2010-08-23
347,DRINKING TEAM,712,"VIA PRANZELORES, 46",Trento,TN,Territorio Val D'adige,Italia,,46.087412,11.1197527,200.0,Paninoteche,Bar,AI-6d,AE-3cf,AE-3abde,AI-6o,AI-6l,AI-6i,AI-6bc,AI-6ad,AI-6e,AI-6r,AI-6fg,,,,,,,,2016-02-02 16:20:03.201,2010-08-04
348,DUE GIGANTI,736,"VIA DEL SIMONINO, 14",Trento,TN,Territorio Val D'adige,Italia,,46.068622,11.123828,200.0,Ristoranti,Self Service,AE-3abde,AI-6fg,AE-3cf,AI-6d,AI-6r,AI-6p,,,,,,,,,,,,,2013-02-27 16:37:56.777,2013-01-11
349,DUOMO 34 CAFE',80,PIAZZA DUOMO,Trento,TN,Territorio Val D'adige,Italia,,46.067549,11.120827,229.0,Bar,,AI-6d,AI-5d,AE-3cf,AI-6fg,AE-1abc,AI-6r,AE-3abde,,,,,,,,,,,,2016-01-12 10:35:18.732,2013-01-16
350,EIS CENTER,517,"VIA DEL BRENNERO, 30",Trento,TN,Territorio Val D'adige,Italia,,46.1842743,11.1239215,200.0,Gelaterie,,AE-3cf,AE-3abde,AE-1abc,AE-2d,,,,,,,,,,,,,,,2011-04-06 17:35:14,2010-07-14
351,ELISA,798,"VIALE ROVERETO, 17",Trento,TN,Territorio Val D'adige,Italia,www.bbelisa.com,46.0595906,11.127682,200.0,Bed & Breakfast,,AE-3cf,AE-3abde,AE-1abc,AE-2c,AI-8a,AI-8h,AI-8p,AI-8n,AI-8i,AI-8cd,AI-7a,AI-7bcdef,AE-2a,,,,,,2016-03-17 10:21:38.222,2010-09-03
352,ENOTECA DEL CORSO,605,"CORSO 3 NOVEMBRE, 64",Trento,TN,Territorio Val D'adige,Italia,,46.0614452,11.1242711,200.0,Enoteche,,AE-3cf,AE-3abde,AE-2d,,,,,,,,,,,,,,,,2016-01-29 10:39:34.346,2010-06-28
353,ENTE NAZIONALE SORDOMUTI ,332,"VIA SAN BERNARDINO, 4",Trento,TN,Territorio Val D'adige,Italia,www.enstrento.it,46.0643716,11.1281215,180.0,Associazioni,,AE-3cf,AE-3abde,AE-1abc,AE-2c,AE-2a,,,,,,,,,,,,,,2010-06-16 13:04:42,2010-05-20
354,ERBORISTERIA ARNICA,383,"Via degli Orti, 29",Trento,TN,Territorio Val D'adige,Italia,,46.0654506,11.1230189,200.0,Erboristerie,,AE-3cf,AE-3abde,AE-2a,,,,,,,,,,,,,,,,2013-01-31 12:08:37.784,2013-01-30
355,ERBORISTERIA DROGHERIA SANTONI,384,"Via Mazzini, 37",Trento,TN,Territorio Val D'adige,Italia,,46.0657695,11.1229396,200.0,Erboristerie,,AE-3cf,AE-3abde,,,,,,,,,,,,,,,,,2013-01-10 11:06:07.599,2013-01-09
356,ERBORISTERIA SERENA - COSMESI NATURALE,718,"VIA TRENER, 16 - C/O BREN CENTER",Trento,TN,Territorio Val D'adige,Italia,,46.0958196,11.118455,200.0,Erboristerie,,AE-3cf,AE-3abde,,,,,,,,,,,,,,,,,2011-05-25 13:11:52,2010-08-05
357,ERBORISTERIA SPAZIO VERDE,606,"CORSO 3 NOVEMBRE, 54",Trento,TN,Territorio Val D'adige,Italia,,46.0609564,11.124796,200.0,Erboristerie,,AE-3cf,AE-3abde,AE-2d,,,,,,,,,,,,,,,,2011-04-12 10:09:38,2010-06-28
358,ERBORISTERIA STARBENE,770,"VIA 24 MAGGIO, 4",Trento,TN,Territorio Val D'adige,Italia,,46.0638891,11.1216995,200.0,Erboristerie,,AE-3cf,AE-3abde,AE-1abc,AE-2c,,,,,,,,,,,,,,,2011-05-27 13:44:40,2010-06-29
359,EUROBRICO,418,"VIA DEL BRENNERO, 151",Trento,TN,Territorio Val D'adige,Italia,www.eurobrico.com,46.0916669,11.1145103,200.0,Attivita commerciali,,AE-3cf,AE-3abde,,,,,,,,,,,,,,,,,2010-09-02 08:47:29,2010-08-23
360,EUROP ASSISTANCE,731,PIAZZA LEONARDO DA VINCI,Trento,TN,Territorio Val D'adige,Italia,www.trapasso.eu,46.069825,11.117735,200.0,Riparazione Autovetture,,AE-3cf,AE-3abde,AE-1abc,AE-2c,,,,,,,,,,,,,,,2013-01-21 14:23:48.691,2013-01-21
361,EUROPCAR,403,"Vai Torre Vanga,18",Trento,TN,Territorio Val D'adige,Italia,,46.0701274,11.1196209,200.0,Autonoleggi,,AE-3cf,,,,,,,,,,,,,,,,,,2010-12-22 10:16:28,2010-08-16
362,EXTASY PUB CAFFÉ,568,"VIA PETRARCA,"" 1/2",Trento,TN,Territorio Val D'adige,Italia,,46.0724524,11.1237509,200.0,Bar,,AI-6d,AE-3cf,AE-3abde,AI-6l,AI-6i,AI-6fg,AI-6e,AI-6bc,AE-2d,AI-6r,AI-6ad,,,,,,,,2016-01-12 10:47:35.704,2010-07-07
363,Erboristeria Non solo Erbe,371,"Via Brennero, 320 c/o TOP CENTER",Trento,TN,Territorio Val D'adige,Italia,,46.0920846,11.1153921,200.0,Erboristerie,,AE-3cf,AE-3abde,,,,,,,,,,,,,,,,,2010-08-05 12:42:36,2010-08-04
364,Estuario onlus - Associazione per il sostegno e l'auto mutuo aiuto nel disagio psichico,330,"Via Sighele, 9",Trento,TN,Territorio Val D'adige,Italia,www.estuario.it,46.060217,11.123794,180.0,Associazioni,,AI-6d,AE-3cf,AE-3abde,AI-6r,AE-2b,AI-6i,AI-6l,AI-6p,AI-6fg,AI-6e,AE-1abc,AE-2a,,,,,,,2019-06-24 12:18:49.605,2010-05-20
365,FACOLTA' DI GIURISPRUDENZA,119,"VIA VERDI, 53",Trento,TN,Territorio Val D'adige,Italia,www.unitn.it/giurisprudenza,46.0659623,11.119198,250.0,Scuole e universita,,AI-6d,AI-5fa,AI-5f,AE-3cf,AE-3abde,AI-6l,AI-6i,AI-6e,AE-1abc,AE-2b,AE-2a,AI-5fb,AI-6o,AI-6bc,AI-6p,AI-6ad,AI-6fg,,2018-05-24 14:59:41.858,2016-05-03
366,FARMACIA  AI SOLTERI,716,"VIA LUNELLI, 40 - C/O PALAZZO ONDA",Trento,TN,Territorio Val D'adige,Italia,,46.0921908,11.1177383,200.0,Farmacie,,AE-3cf,AE-3abde,AE-1abc,,,,,,,,,,,,,,,,2011-05-25 13:02:48,2010-08-05
367,FARMACIA ALLA MADONNA,87,"VIA MANCI, 42",Trento,TN,Territorio Val D'adige,Italia,,46.069866,11.123148,172.0,Farmacie,,AE-3cf,AE-3abde,AE-1abc,AE-2c,,,,,,,,,,,,,,,2013-01-28 09:31:28.793,2013-01-25
368,FARMACIA BOLGHERA,207,"LARGO MEDAGLIE D'ORO, 8",Trento,TN,Territorio Val D'adige,Italia,www.farmaciabolghera.it,46.0578948,11.1329703,200.0,Farmacie,,AE-3abde,AE-1abc,AE-2d,AE-2a,AE-3cf,,,,,,,,,,,,,,2013-01-07 16:37:50.633,2010-04-13
369,FARMACIA COMUNALE 3,853,"VIA BRIONE, 23",Trento,TN,Territorio Val D'adige,Italia,,45.9034233,11.0428456,200.0,Farmacie,,AE-3cf,AE-3abde,AE-1abc,AE-2d,AE-2a,,,,,,,,,,,,,,2011-06-08 13:00:01,2010-11-15
370,FARMACIA COMUNALE CLARINA,596,"VIA DEGASPERI, 92/1",Trento,TN,Territorio Val D'adige,Italia,,46.0500962,11.1242938,200.0,Farmacie,,AE-3cf,AE-3abde,,,,,,,,,,,,,,,,,2011-04-08 15:01:57,2010-05-17
371,FARMACIA COMUNALE PIEDICASTELLO,322,VIA BRESCIA 19/A,Trento,TN,Territorio Val D'adige,Italia,,46.0706406,11.1119991,180.0,Farmacie,,AE-3cf,AE-3abde,AE-1abc,,,,,,,,,,,,,,,,2010-08-05 14:31:24,2010-04-22
372,FARMACIA COMUNALE PIO X,315,"VIA SAN PIO X, 77",Trento,TN,Territorio Val D'adige,Italia,,46.0539723,11.1208247,180.0,Farmacie,,AE-3cf,AE-3abde,AE-2d,,,,,,,,,,,,,,,,2017-11-17 10:45:29.519,2010-05-17
373,FARMACIA COMUNALE SAN CAMILLO,255,VIA GIOVANELLI 5,Trento,TN,Territorio Val D'adige,Italia,www.farcomtrento.com,46.0656591,11.1319573,195.0,Farmacie,,AE-3cf,AE-3abde,AE-1abc,AE-2d,AE-2a,,,,,,,,,,,,,,2013-01-10 21:21:06.703,2010-04-27
374,FARMACIA COMUNALE SAN GIUSEPPE,261,"VIA VITTORIO VENETO, 39",Trento,TN,Territorio Val D'adige,Italia,www.farcomtrento.com,46.0582467,11.1215535,190.0,Farmacie,,AE-3cf,AE-3abde,AE-2d,AE-2a,AE-1abc,,,,,,,,,,,,,,2013-01-10 21:26:18.818,2010-04-22
375,FARMACIA DALL'ARMI,40,"PIAZZA DUOMO, 10",Trento,TN,Territorio Val D'adige,Italia,,46.06765,11.12186,162.0,Farmacie,,AE-3cf,AE-3abde,AE-1abc,AE-2d,,,,,,,,,,,,,,,2013-06-06 17:01:46.726,2013-01-15
376,FARMACIA DE GERLONI,1316,"STRADA SPINEDA,16 FRAZ. SOPRAMONTE",Trento,TN,Territorio Val D'adige,Italia,,46.073063,11.058525,0.0,Farmacie,,AE-2d,AE-3cf,AE-3abde,,,,,,,,,,,,,,,,2013-12-05 15:06:32.492,2013-12-04
377,FARMACIA GALLO,61,"VIA MANTOVA, 51",Trento,TN,Territorio Val D'adige,Italia,,46.067449,11.124129,186.0,Farmacie,,AE-3cf,AE-3abde,AE-1abc,AE-2c,,,,,,,,,,,,,,,2013-01-07 14:21:57.371,2013-01-04
378,FARMACIA GRANDI,104,"VIA MANZONI, 7/A",Trento,TN,Territorio Val D'adige,Italia,,46.0743348,11.1249288,216.0,Farmacie,,AE-3abde,AE-3cf,AE-1abc,AE-2b,AE-2a,,,,,,,,,,,,,,2010-01-15 01:57:22,2009-10-05
379,FARMACIA S. CHIARA,168,"VIA S. CROCE, 57",Trento,TN,Territorio Val D'adige,Italia,,46.06365,11.12345,224.0,Farmacie,,AI-5c,AE-3cf,AE-3abde,AE-1abc,AE-2a,,,,,,,,,,,,,,2010-04-13 23:56:36,2010-01-29
380,FARMACIA SAN BARTOLOMEO,595,"VIALE VERONA, 92",Trento,TN,Territorio Val D'adige,Italia,,46.0539798,11.1291017,200.0,Farmacie,,AE-3cf,AE-3abde,AE-2a,,,,,,,,,,,,,,,,2011-04-08 14:57:54,2010-05-17
381,FARMACIA SAN LORENZO,262,VIA FONTANA 29,Trento,TN,Territorio Val D'adige,Italia,,46.076957,11.119139,180.0,Farmacie,,AE-3cf,AE-3abde,AE-1abc,AE-2d,,,,,,,,,,,,,,,2010-11-16 09:42:36,2010-04-22
382,FARMACIA SANTONI,71,"PIAZZA PASI, 20",Trento,TN,Territorio Val D'adige,Italia,,46.06789,11.12227,230.0,Farmacie,,AE-3cf,AE-3abde,AE-1abc,AE-2d,AE-2b,AE-2c,AE-2a,,,,,,,,,,,,2013-01-14 11:11:18.56,2009-11-11
383,FEDERAZIONE TRENTINA DELLA COOPERAZIONE,125,"VIA SEGANTINI, 10",Trento,TN,Territorio Val D'adige,Italia,www.ftcoop.it,46.0750032,11.122061,150.0,Uffici Pubblici,,AI-6d,AE-3cf,AE-3abde,AI-6l,AI-6i,AI-6fg,AI-6e,AE-1abc,,,,,,,,,,,2013-01-07 11:55:51.635,2009-12-10
384,FERSINA VIAGGI,426,"VIA MARSALA, 13",Trento,TN,Territorio Val D'adige,Italia,www.fersinaviaggi.it,46.0580601,11.1265041,200.0,Agenzie viaggi e Promozione Turistica,,AE-3cf,AE-3abde,AE-1abc,AE-2c,,,,,,,,,,,,,,,2010-09-02 09:52:38,2010-08-23
385,FIAB TRENTO - FEDERAZIONE ITALIANA AMICI DELLA BICICLETTA,510,"Via al Torrione, 6",Trento,TN,Territorio Val D'adige,Italia,www.fiab-trento.it,46.065148,11.122281,200.0,Associazioni,,AI-6d,AE-3cf,AE-3abde,AI-6p,AE-1abc,AE-2d,AI-6fg,AI-5fb,AI-5fa,AI-6r,AI-6bc,AE-2b,AI-6i,AI-5f,AI-6l,AI-6e,AI-6ad,AE-2a,2019-06-04 13:09:06.185,2010-07-27
386,FIORERIA DA ALDO,1077,"PIAZZA SANTA MARIA MAGGIORE, 30",Trento,TN,Territorio Val D'adige,Italia,,46.06845,11.11903,0.0,Attivita commerciali,,AE-3abde,AE-2d,AE-3cf,,,,,,,,,,,,,,,,2013-03-11 15:43:24.353,2010-09-13
387,FIORERIA FLORIS,1076,"VIA ROSMINI, 67",Trento,TN,Territorio Val D'adige,Italia,,46.063984,11.119706,0.0,Attivita commerciali,,AE-3abde,AE-3cf,,,,,,,,,,,,,,,,,2013-03-11 15:42:42.885,2010-09-13
388,FLAMBARD,629,"VIA DEGLI OLMI, 4",Trento,TN,Territorio Val D'adige,Italia,,46.0499886,11.1314937,200.0,Bar,,AI-6d,AE-3cf,AE-3abde,AI-6p,AI-6l,AI-6i,AI-6fg,AI-6e,AI-6bc,AI-6ad,AE-2d,AI-6r,,,,,,,2016-01-12 10:59:23.624,2010-06-30
389,FLORART,1075,"LARGO CARDUCCI, 10",Trento,TN,Territorio Val D'adige,Italia,,46.06832,11.12421,0.0,Attivita commerciali,,AE-3abde,AI-5b,AE-3cf,,,,,,,,,,,,,,,,2013-03-11 15:42:04.429,2010-09-13
390,FONDAZIONE BRUNO KESSLER - SALA CONFERENZE,127,"VIA SANTA CROCE, 77",Trento,TN,Territorio Val D'adige,Italia,www.fbk.eu,46.0638997,11.1234869,230.0,Centri e sale culturali,Uffici Pubblici,AI-6d,AI-5c,AE-3abde,AI-6l,AI-6i,AI-6fg,AI-6e,AE-2b,AE-2a,AE-1abc,AE-3cf,AI-6p,AI-6o,AI-6ad,AI-6bc,AE-2d,,,2013-05-02 17:15:21.562,2013-04-29
391,FONDAZIONE FRANCO DEMARCHI,22,"PIAZZA SANTA MARIA MAGGIORE, 7",Trento,TN,Territorio Val D'adige,Italia,www.fdemarchi.it,46.068675,11.119205,210.0,Associazioni,Scuole e universita,AI-5fb,AI-5f,AI-5c,AE-3cf,AE-3abde,AI-6p,AI-6o,AI-6l,AI-6i,AI-6fg,AI-6e,AI-6bc,AI-6ad,AI-5fa,AE-2b,AE-1abc,AE-2a,AI-6d,2017-11-24 10:24:27.277,2016-05-03
392,FORMAT - CENTRO AUDIOVISIVI,112,VIA ZANELLA 10/2,Trento,TN,Territorio Val D'adige,Italia,www.format.provincia.tn.it,46.0674137,11.118169,0.0,Centri e sale culturali,,AI-6d,AI-5c,AE-3cf,AE-3abde,AI-6l,AI-6i,AI-6fg,AI-6e,AE-1abc,AI-6r,AI-6p,AE-2d,AE-2b,AE-2a,,,,,2013-01-23 10:15:18.373,2013-01-21
393,FORST,34,"VIA OSS MAZZURANA, 35",Trento,TN,Territorio Val D'adige,Italia,www.forst.it,46.06881,11.12259,217.0,Ristoranti,Pizzerie,AI-6d,AE-3abde,AI-6i,AI-6fg,AI-6e,AI-6ad,AE-2c,AI-6bc,AE-3cf,AI-6r,AI-6l,AI-6p,,,,,,,2016-02-09 11:07:17.166,2013-01-15
394,FORTE BUS DE VELA DI CADINE,1515,VIA AL PASIEL,Trento,TN,Territorio Val D'adige,Italia,www.museostorico.it,46.085006,11.070129,0.0,Punti di interesse,Edifici Storici,AE-2c,AI-6fg,AI-6r,AI-6bc,AE-2b,AE-2d,AE-3abde,AE-2a,AI-6l,AI-6e,AE-3cf,AI-6ad,AI-6d,,,,,,2021-01-26 10:14:04.621,2016-08-10
395,FOTO GOTTARDINI OTTICA SRL,558,"VIA SAN PIETRO, 24",Trento,TN,Territorio Val D'adige,Italia,www.gottardini.it,46.069487,11.124545,200.0,Ottica,,AE-3cf,AE-3abde,AE-1abc,AE-2c,AI-5fb,AI-5fa,AI-5f,,,,,,,,,,,,2013-01-10 16:28:01.043,2013-01-10
396,FRIENDS - PIZZERIA KEBAB,380,"Via Prepositura, 8",Trento,TN,Territorio Val D'adige,Italia,,46.069585,11.118261,200.0,Pizzerie,Fast Food,AE-3cf,AE-3abde,AE-1abc,AE-2c,,,,,,,,,,,,,,,2013-01-21 14:29:29.902,2013-01-21
397,FRUTTA E VERDURA DA LINA,585,"VIA GIOVANNI A PRATO, 8",Trento,TN,Territorio Val D'adige,Italia,,46.0620013,11.1261783,200.0,Frutta e Verdura,,AE-3cf,AE-3abde,AE-1abc,,,,,,,,,,,,,,,,2011-04-08 14:06:07,2010-07-14
398,FUNIVIA TRENTO - SARDAGNA stazione a valle,1506,LUNGADIGE MONTE GRAPPA,Trento,TN,Territorio Val D'adige,Italia,www.trentinotrasporti.it,46.069626,11.115644,200.0,Uffici Pubblici,,AE-1abc,AE-3cf,AE-3abde,AE-2e,,,,,,,,,,,,,,,2020-02-11 15:50:50.265,2020-01-30
399,FUNIVIA TRENTO SARDAGNA stazione a monte,1507,STRADA ALLA FUNIVIA,Trento,TN,Territorio Val D'adige,Italia,,46.065978,11.102663,600.0,Uffici Pubblici,,AI-6fg,AI-6r,AE-2d,AE-1abc,AI-6i,AE-3abde,AI-6l,AI-6p,AI-6d,AI-6e,AE-3cf,,,,,,,,2020-02-11 16:21:07.239,2020-01-30
400,GAIA,709,"VIA MACCANI, 128",Trento,TN,Territorio Val D'adige,Italia,www.risto3.it,46.0890708,11.1097177,200.0,Ristoranti,,AI-6d,AI-5fa,AI-5f,AE-3cf,AE-3abde,AI-6fg,AI-6bc,AI-6ad,AI-6r,,,,,,,,,,2013-01-15 19:37:20.709,2010-08-06
401,GALLERIA CIVICA DI TRENTO,92,"VIA BELENZANI, 44",Trento,TN,Territorio Val D'adige,Italia,www.mart.trento.it,46.068253,11.121313,133.0,Gallerie arte,,AI-6d,AI-5d,AE-3cf,AE-3abde,AI-6p,AI-6o,AI-6i,AI-6fg,AI-6e,AI-6bc,AI-6ad,AE-1abc,AI-6l,,,,,,2019-05-03 11:39:40.243,2013-10-15
402,GALLERIA D'ARTE M.FOGOLINO - CENTRO CULTURALE,347,"VIA S. TRINITA', 30",Trento,TN,Territorio Val D'adige,Italia,,46.0664671,11.1238666,180.0,Gallerie arte,,AE-3cf,AE-3abde,AE-1abc,,,,,,,,,,,,,,,,2013-01-10 08:54:16.764,2013-01-09
403,GALLERIA D'ARTE TORRE VERDE,350,"VIC. DELL'ADIGE, 5",Trento,TN,Territorio Val D'adige,Italia,,46.0708169,11.1235379,190.0,Gallerie arte,,AE-3cf,AE-3abde,,,,,,,,,,,,,,,,,2013-01-15 10:52:20.568,2013-01-14
404,GALLERIE PIEDICASTELLO,129,PIAZZA DI PIEDICASTELLO,Trento,TN,Territorio Val D'adige,Italia,www.museostorico.tn.it,46.078913,11.1130071,320.0,Edifici Storici,,AE-3cf,AE-3abde,,,,,,,,,,,,,,,,,2018-07-12 10:17:26.123,2009-12-10
405,GARAGE TORRE VERDE,273,"VIA TORRE VERDE, 40",Trento,TN,Territorio Val D'adige,Italia,,46.0711506,11.1237823,200.0,Parcheggi,,AE-2d,,,,,,,,,,,,,,,,,,2010-05-21 07:50:05,2010-04-26
406,GECELE,604,"VIA DELLE ORNE, 20",Trento,TN,Territorio Val D'adige,Italia,www.eyewear.it,46.0690052,11.1219634,200.0,Ottica,,AE-3abde,AE-2c,AI-5f,AI-5fa,,,,,,,,,,,,,,,2013-01-14 12:04:28.233,2013-01-11
407,GELATERIA IGLOO,701,"VIA SCOPOLI, 3",Trento,TN,Territorio Val D'adige,Italia,,46.0771255,11.1180381,200.0,Gelaterie,,AE-3cf,AE-3abde,AE-1abc,,,,,,,,,,,,,,,,2011-05-25 09:29:59,2010-07-20
408,GELATERIA ROBIN,99,"VIA SUFFRAGIO, 86",Trento,TN,Territorio Val D'adige,Italia,,46.070376,11.124655,194.0,Gelaterie,Dolciumi,AE-3cf,AE-1abc,AE-3abde,,,,,,,,,,,,,,,,2013-02-28 11:50:32.337,2013-02-28
409,GELATERIA VIENNESE,773,"VIA SANTA CROCE, 82",Trento,TN,Territorio Val D'adige,Italia,,46.0632822,11.1236094,200.0,Gelaterie,,AE-3cf,AE-3abde,AE-1abc,AE-2d,,,,,,,,,,,,,,,2011-05-27 14:09:53,2010-06-14
410,GELATOMANIA,387,"Via Garibaldi, 9",Trento,TN,Territorio Val D'adige,Italia,,46.0675862,11.1221699,200.0,Gelaterie,,AI-5b,AE-3cf,AE-3abde,,,,,,,,,,,,,,,,2013-03-01 08:43:26.899,2013-02-28
411,GIARDINO DI PIAZZA DANTE,1371,PIAZZA DANTE,Trento,TN,Territorio Val D'adige,Italia,,46.071548,11.120288,0.0,Parchi Pubblici,,AE-1abc,,,,,,,,,,,,,,,,,,2017-05-05 11:28:28.768,2014-11-19
412,GIGI'S CAFFE',159,"VIA POZZO, 24",Trento,TN,Territorio Val D'adige,Italia,,46.07014,11.1198,233.0,Bar,,AI-6d,AI-5b,AE-3cf,AE-3abde,AI-6fg,AI-6bc,AI-6ad,AE-1abc,AE-2c,AI-6r,,,,,,,,,2016-01-12 11:05:07.85,2013-01-31
413,GITAN VIAGGI SRL,428,"VIALE BOLOGNINI, 2",Trento,TN,Territorio Val D'adige,Italia,www.gitanviaggi.it,46.0587969,11.1274353,200.0,Agenzie viaggi e Promozione Turistica,,AE-3cf,AE-3abde,AE-1abc,AE-2d,AE-2c,,,,,,,,,,,,,,2011-03-21 15:14:23,2010-08-23
414,GRADO 12 ENOTECA,603,"LARGO CARDUCCI, 12",Trento,TN,Territorio Val D'adige,Italia,,46.068419,11.1242347,200.0,Enoteche,,AE-3cf,AE-3abde,AE-1abc,,,,,,,,,,,,,,,,2013-01-14 12:25:57.096,2013-01-11
415,GRAND HOTEL TRENTO,800,"VIA ALFIERI, 1",Trento,TN,Territorio Val D'adige,Italia,www.grandhoteltrento.com,46.070867,11.121361,200.0,Alberghi / Hotel,,AI-6d,AI-5fb,AI-5fa,AI-5f,AI-6l,AI-6fg,AI-6e,AI-6bc,AI-6ad,AE-1abc,AE-2d,AE-2a,AE-2b,AE-3cf,AI-8m,AI-8p,AI-8n,AI-8i,2016-03-17 10:33:44.388,2013-02-01
416,GRAZIANO'S ,142,"VIA CARLO ESTERLE, 9",Trento,TN,Territorio Val D'adige,Italia,,46.06595,11.12108,189.0,Fast Food,,AE-3cf,AE-1abc,AE-2d,AE-3abde,,,,,,,,,,,,,,,2013-01-31 11:17:04.923,2013-01-30
417,GROM il gelato come una volta ,310,"Piazza Duomo, 27",Trento,TN,Territorio Val D'adige,Italia,www.grom.it,46.0673408,11.1209968,180.0,Bar,Gelaterie,AE-3cf,AE-3abde,AE-1abc,,,,,,,,,,,,,,,,2013-01-17 12:15:00.471,2013-01-16
418,GRUPPO DEUTSCHE BANK,78,"VIA TORRE VERDE, 36",Trento,TN,Territorio Val D'adige,Italia,,46.07102,11.12344,215.0,Bancomat,,AE-4h,AE-1abc,,,,,,,,,,,,,,,,,2010-12-21 10:39:19,2009-11-19
419,Globtrotter - Trentina viaggi,399,"Via Santa Croce, 29",Trento,TN,Territorio Val D'adige,Italia,www.globtrotter.it,46.0642114,11.1234317,200.0,Agenzie viaggi e Promozione Turistica,,AE-3cf,AE-3abde,AE-1abc,AE-2c,,,,,,,,,,,,,,,2010-08-23 11:56:20,2010-08-19
420,HOME CARE,516,"VIA PROVINA, 3",Trento,TN,Territorio Val D'adige,Italia,www.homecare.unifarm.it,46.0383456,11.1158338,200.0,Ortopedie e Sanitarie,,AI-6d,AE-3cf,AE-3abde,AI-6p,AI-6o,AI-6l,AI-6i,AI-6fg,AI-6e,AI-6bc,AI-6ad,AE-2d,AE-2a,,,,,,2017-11-17 10:48:12.185,2010-07-19
421,HOTEL AMERICA,799,"VIA TORRE VERDE, 52",Trento,TN,Territorio Val D'adige,Italia,www.hotelamerica.it,46.071627,11.124532,200.0,Alberghi / Hotel,,AI-6d,AI-5fa,AI-5d,AI-6i,AI-6e,AI-6bc,AE-2d,AE-2a,AI-7a,AI-8n,AI-6l,AI-6ad,AI-6fg,AI-5f,AE-3abde,AI-5fb,AE-3cf,AI-6r,2017-11-17 10:49:58.502,2013-01-04
422,HOTEL EVEREST,809,"CORSO ALPINI, 14",Trento,TN,Territorio Val D'adige,Italia,www.hoteleverest.it,46.0783419,11.1184832,200.0,Alberghi / Hotel,Ristoranti,AI-6d,AI-5fb,AI-5fa,AI-5f,AE-3cf,AE-3abde,AI-6o,AI-6l,AI-6i,AI-6fg,AI-6e,AI-6bc,AI-6ad,AE-1abc,AI-8o,AI-8cd,AI-8efgb,AI-7bcdef,2016-03-18 11:06:35.077,2010-08-27
423,HOTEL SPORTING TRENTO,797,"VIA R. DA SANSEVERINO, 125",Trento,TN,Territorio Val D'adige,Italia,www.hotelsportingtrento.com,46.0517559,11.1118271,200.0,Alberghi / Hotel,,AI-6d,AI-5fb,AI-5fa,AI-5f,AE-3cf,AE-3abde,AI-6o,AI-6l,AI-6i,AI-6fg,AI-6e,AI-6ad,AI-8efga,AI-8efg,AI-8p,AI-8n,AI-8i,AI-8a,2016-03-17 10:18:45.931,2010-09-03
424,HOTEL VELA,1385,"VIA SANTI COSMA E DAMIANO, 21",Trento,TN,Territorio Val D'adige,Italia,www.hotelvela.com,46.07432,11.10727,0.0,Alberghi / Hotel,,AI-6fg,AI-6d,AI-6e,AI-5fb,AI-5fa,AI-5f,AE-3cf,AE-3abde,AI-8o,AI-8n,AI-8efgb,AI-8efga,AI-8efg,AI-8cd,AI-8a,AI-7bcdef,AI-7a,AI-6o,2016-03-18 10:41:48.984,2010-08-27
425,HOTEL VENEZIA,806,"VIA BELENZANI, 70",Trento,TN,Territorio Val D'adige,Italia,www.hotelveneziatn.it,46.067832,11.121351,200.0,Alberghi / Hotel,Bed & Breakfast,AI-6d,AI-5fb,AI-5fa,AI-5f,AE-3cf,AI-7bcdef,AI-8efga,AE-3abde,AI-8o,AI-6ad,AI-8n,AI-8m,AI-8efg,AI-8a,AI-7a,AI-6r,AI-6i,AI-6fg,2016-03-17 11:47:53.602,2013-01-23
426,Handicrea,1,"Via S. Martino, 46",Trento,TN,Territorio Val D'adige,Italia,www.handicrea.it,46.07294,11.12536,189.0,Cooperative e Laboratori Sociali,Uffici Pubblici,AE-3cf,AI-6o,AI-6e,AE-1abc,AE-2a,AI-6l,AI-6d,AI-6fg,AE-3abde,AI-6i,,,,,,,,,2014-04-10 14:42:50.232,2013-02-11
427,I FIORI DI FRENCY,1074,"VIA PRATI, 22",Trento,TN,Territorio Val D'adige,Italia,,46.0664,11.12079,0.0,Attivita commerciali,,AE-3cf,AE-3abde,,,,,,,,,,,,,,,,,2013-03-11 15:41:22.541,2010-09-13
428,I MONDI DI ALICE - Viaggi Vacanze,397,"Vicolo dell'Adige,11",Trento,TN,Territorio Val D'adige,Italia,www.imondidialice.it,46.070696,11.123545,200.0,Agenzie viaggi e Promozione Turistica,,AE-3cf,AE-3abde,AE-1abc,AE-2c,,,,,,,,,,,,,,,2013-01-28 09:52:42.634,2010-08-20
429,IL LIBERTINO,240,PIAZZA PIEDICASTELLO 4 - 6,Trento,TN,Territorio Val D'adige,Italia,,46.0710746,11.1131468,185.0,Ristoranti,Enoteche,AI-6d,AE-3cf,AI-6p,AI-6l,AI-6i,AI-6fg,AI-6e,AE-1abc,AE-2d,AI-6r,AE-3abde,,,,,,,,2016-02-09 10:21:10.608,2010-05-06
430,IL PANIERE,607,"VIA PERINI, 137",Trento,TN,Territorio Val D'adige,Italia,,46.0603972,11.121995,200.0,Panifici,,AE-3cf,AE-3abde,AE-1abc,AE-2c,,,,,,,,,,,,,,,2011-04-12 10:14:36,2010-06-28
431,IL PANIERE,769,"VIA VENETO, 100",Trento,TN,Territorio Val D'adige,Italia,,46.0583943,11.1224154,200.0,Panifici,,AE-3cf,AE-3abde,AE-1abc,,,,,,,,,,,,,,,,2011-05-27 13:30:58,2010-07-01
432,IL PAPIRO,257,VIA GRAZIOLI 37,Trento,TN,Territorio Val D'adige,Italia,www.libreriailpapiro.it,46.0663852,11.1305904,190.0,Librerie,,AE-3cf,AE-3abde,AE-1abc,,,,,,,,,,,,,,,,2010-05-13 07:13:13,2010-05-04
433,ILARY'S CAFE',77,"VICOLO DELL'ADIGE, 3",Trento,TN,Territorio Val D'adige,Italia,,46.070929,11.123461,211.0,Bar,,AI-6d,AE-3cf,AE-3abde,AI-6l,AI-6i,AI-6fg,AI-6e,AI-6ad,AE-1abc,AE-2d,AI-6bc,AI-6r,,,,,,,2016-01-12 11:11:25.858,2013-01-28
434,INDAL SRL - CIOCCOLATO E CACAO,602,"VIA MANTOVA, 28",Trento,TN,Territorio Val D'adige,Italia,,46.067734,11.123954,200.0,Dolciumi,,AE-3cf,AE-3abde,AE-1abc,AE-2c,,,,,,,,,,,,,,,2013-01-07 14:14:10.937,2013-01-04
435,INDAL SRL,766,"VIA 24 MAGGIO, 9",Trento,TN,Territorio Val D'adige,Italia,,46.0641785,11.1215919,200.0,Dolciumi,,AE-3cf,AE-3abde,AE-1abc,AE-2c,,,,,,,,,,,,,,,2011-05-27 13:20:11,2010-06-29
436,INFRASTRUTTURE STRADALI E FERROVIARIE,746,"VIA GAZZOLETTI, 33 - PALAZZO GIULIA",Trento,TN,Territorio Val D'adige,Italia,wwww.provincia.tn.it,46.0719662,11.1222282,200.0,Uffici Pubblici,,AI-6d,AI-5fa,AI-5f,AE-3cf,AI-6o,AI-6l,AI-6i,AI-6fg,AI-6e,AE-2d,AE-2a,AI-5fb,AE-1abc,AE-3abde,,,,,2013-01-17 10:51:22.838,2013-01-14
437,INPS,12,"VIA ORFANE, 8",Trento,TN,Territorio Val D'adige,Italia,www.inps.it,46.0691,11.11927,230.0,Uffici Pubblici,,AI-6d,AI-5fb,AI-5fa,AI-5f,AE-3cf,AE-3abde,AI-6l,AI-6i,AI-6e,AI-6bc,AI-6ad,AE-2d,AI-6fg,AE-1abc,AI-6r,AE-2b,AI-6p,AE-2a,2013-06-06 14:22:46.898,2013-02-04
438,INTERCULTURA,697,"VIA BRONZETTI, 29",Trento,TN,Territorio Val D'adige,Italia,www.interculturatrento.it,46.058677,11.121518,200.0,Associazioni,,AI-6d,AI-5fa,AE-3cf,AE-3abde,AI-6fg,AI-6e,AI-5fb,AE-2d,AE-2b,AI-6i,AI-6l,AI-6p,AE-1abc,AE-2a,AI-5f,AI-6r,,,2020-06-30 12:00:34.508,2010-07-16
439,INTERNATIONAL BAR,620,"PIAZZA VICENZA, 9/10",Trento,TN,Territorio Val D'adige,Italia,,46.0617288,11.1336416,200.0,Bar,,AI-6d,AE-3cf,AE-3abde,AI-6p,AI-6o,AI-6l,AI-6i,AI-6fg,AI-6e,AI-6bc,AI-6ad,AE-1abc,,,,,,,2011-04-12 14:09:46,2010-08-09
440,ISIT - ISTITUTO UNIVERSITARIO PER INTERPRETI E TRADUTTORI,741,"VICOLO SANTA MARIA MADDALENA, 22",Trento,TN,Territorio Val D'adige,Italia,www.isit.tn.it,46.0680795,11.1264644,200.0,Uffici Pubblici,Scuole e universita,AI-6d,AI-5fb,AI-5fa,AI-5f,AI-5d,AE-3cf,AE-3abde,AI-6o,AI-6l,AI-6i,AI-6fg,AI-6e,AE-1abc,AE-2c,AE-2a,,,,2013-01-15 08:36:18.851,2013-01-14
441,JUST CAFE DAM SNC,32,"VIA MALPAGA, 20",Trento,TN,Territorio Val D'adige,Italia,,46.06844,11.12339,204.0,Bar,,AI-6d,AE-3cf,AE-3abde,AI-6l,AI-6i,AI-6fg,AI-6e,AI-6bc,AI-6ad,AI-6r,,,,,,,,,2016-01-12 11:44:09.976,2013-01-11
442,KEBAB IL TURCO 4,9,"VIA CAVOUR, 29",Trento,TN,Territorio Val D'adige,Italia,,46.06806,11.1206,199.0,Fast Food,,AE-3cf,AE-3abde,AE-1abc,AE-2c,,,,,,,,,,,,,,,2016-02-02 16:47:07.917,2013-01-30
443,KEBAB SARA,158,"VIA ROMA, 19",Trento,TN,Territorio Val D'adige,Italia,,46.06966,11.11906,233.0,Fast Food,,AE-3abde,AE-3cf,AE-1abc,AE-2d,,,,,,,,,,,,,,,2013-01-24 11:52:05.765,2013-01-23
444,KING CAR,617,"VIA FERMI, 26",Trento,TN,Territorio Val D'adige,Italia,,46.0471951,11.1270559,200.0,Riparazione Autovetture,,,,,,,,,,,,,,,,,,,,2011-04-12 13:55:10,2010-08-09
445,L'ANDALUSIA KEBAB,177,"PIAZZA GARZETTI, 13",Trento,TN,Territorio Val D'adige,Italia,,46.06573,11.12389,201.0,Fast Food,,AI-6d,AI-5b,AE-3cf,AE-3abde,AI-6p,AI-6fg,AE-1abc,AE-2c,AI-6r,,,,,,,,,,2013-01-31 14:12:40.481,2013-01-31
446,L'ANGOLO DELLE ERBE,771,"VIALE VERONA, 41",Trento,TN,Territorio Val D'adige,Italia,,46.056926,11.128522,0.0,Erboristerie,,AE-3cf,AE-3abde,,,,,,,,,,,,,,,,,2019-01-23 15:53:44.984,2019-01-23
447,L'OFFICINA,618,"VIA FERMI, 26",Trento,TN,Territorio Val D'adige,Italia,,46.0471951,11.127059,200.0,Riparazione Autovetture,,,,,,,,,,,,,,,,,,,,2011-04-12 13:59:17,2010-08-09
448,L.I.L.A. TRENTINO,698,"VIA BRONZETTI, 29",Trento,TN,Territorio Val D'adige,Italia,www.lilatrentino.it,46.058677,11.121518,200.0,Associazioni,,AI-6d,AI-5fa,AI-5f,AE-3cf,AE-3abde,AI-6fg,AI-5fb,AE-2d,AE-2b,AI-6i,AI-6l,AI-6p,AE-1abc,AE-2a,AI-6e,AI-6r,,,2019-06-24 10:27:50.269,2010-07-16
449,L.I.L.T. Lega Italiana per la Lotta contro i Tumori,329,"Corso 3 Novembre, 134",Trento,TN,Territorio Val D'adige,Italia,www.legatumori.it,46.0604311,11.1253101,180.0,Associazioni,,AE-3cf,AE-3abde,AE-1abc,AE-2a,,,,,,,,,,,,,,,2010-06-16 12:22:39,2010-05-17
450,LA  RIVISTERIA,200,"VIA S. VIGILIO, 21",Trento,TN,Territorio Val D'adige,Italia,,46.06656,11.12202,250.0,Librerie,,AI-5c,AE-3cf,AE-3abde,AE-1abc,,,,,,,,,,,,,,,2013-01-10 12:03:39.938,2013-01-09
451,LA BIBLIOTECA DEI RAGAZZI - PALAZZINA LIBERTY,1389,"PIAZZA DANTE, 32",Trento,TN,Territorio Val D'adige,Italia,www.bibcom.trento.it,46.070904,11.121065,200.0,Biblioteche,Centri e sale culturali,AE-1abc,AE-2a,AI-6bc,AI-6r,AI-6i,AI-5f,AE-3cf,AI-6l,AI-6e,AI-6ad,AI-6p,AI-5fb,AI-6fg,AI-5fa,AI-6d,AE-2d,AE-3abde,AE-2b,2017-10-09 17:48:05.746,2017-09-28
452,LA BIBLIOTECA DEI RAGAZZI,515,"PASSAGGIO PETERLONGO, 3",Trento,TN,Territorio Val D'adige,Italia,www.bibcom.trento.it,46.069663,11.120251,200.0,Biblioteche,,AI-6d,AE-3cf,AE-3abde,AI-6p,AI-6o,AI-6l,AI-6i,AI-6fg,AI-6e,AE-1abc,AE-2d,,,,,,,,2013-01-24 12:11:51.589,2013-01-23
453,LA DELIZIA,386,"Via Mazzini, 20",Trento,TN,Territorio Val D'adige,Italia,,46.0660008,11.1227875,200.0,Gelaterie,,AI-5c,AE-3cf,AE-3abde,AE-2c,,,,,,,,,,,,,,,2013-02-28 12:03:14.472,2013-02-28
454,LA GELATERIA,385,"Via Belenzani, 50",Trento,TN,Territorio Val D'adige,Italia,,46.0683092,11.1213567,200.0,Gelaterie,,AI-5c,AE-3cf,AE-3abde,AE-1abc,,,,,,,,,,,,,,,2013-01-23 10:30:36.147,2013-01-23
455,LA PANETTERIA DI GIOVANELLA NIVES,559,"PIAZZA GENERALE CANTORE, 9",Trento,TN,Territorio Val D'adige,Italia,,46.0774609,11.1195507,200.0,Panifici,,AE-3cf,AE-3abde,AE-1abc,AE-2c,,,,,,,,,,,,,,,2011-04-08 08:45:00,2010-07-07
456,LA POSADA,58,"LARGO CARDUCCI, 24",Trento,TN,Territorio Val D'adige,Italia,,46.06835,11.12473,185.0,Ristoranti,Pizzerie,AE-3cf,AE-3abde,AI-6l,AI-6i,AI-6fg,AI-6e,AE-1abc,AI-6d,AE-2d,,,,,,,,,,2016-02-09 11:54:48.521,2013-01-11
457,LA RETE,194,"VIA TARAMELLI, 8/10",Trento,TN,Territorio Val D'adige,Italia,www.cooplarete.org,46.0608,11.11614,157.0,Cooperative e Laboratori Sociali,,AI-6d,AE-3cf,AE-3abde,AI-6p,AI-6o,AI-6l,AI-6i,AI-6fg,AI-6e,AI-6bc,AI-6ad,AE-2a,,,,,,,2018-01-05 15:53:50.227,2010-02-16
458,LA RUOTA,781,"VIA BRENNERO, 165",Trento,TN,Territorio Val D'adige,Italia,www.laruota.coop,46.0730641,11.122183,200.0,Cooperative e Laboratori Sociali,,AE-3cf,AE-3abde,,,,,,,,,,,,,,,,,2011-05-30 07:57:23,2010-07-26
459,LA STUA,198,"VIA DEI MILLE, 20",Trento,TN,Territorio Val D'adige,Italia,,46.062387,11.1280688,195.0,Ristoranti,Bar,AI-6d,AI-5b,AE-3abde,AI-6fg,AI-6bc,AI-6ad,AE-1abc,AE-2d,AI-6r,AE-3cf,,,,,,,,,2017-11-17 10:52:44.869,2010-03-03
460,LABORATORIO ANALISI ADIGE,201,"VIA GAZZOLETTI, 25",Trento,TN,Territorio Val D'adige,Italia,www.laboratorioadige.it,46.07232,11.12256,284.0,Laboratori di Analisi,,AI-6d,AE-3cf,AE-3abde,AI-6p,AI-6o,AI-6l,AI-6i,AI-6fg,AI-6e,AE-1abc,AE-2d,AE-2a,,,,,,,2010-03-05 09:49:46,2010-02-24
461,LABORATORIO ANALISI DRUSO,308,"Via Madruzzo, 68",Trento,TN,Territorio Val D'adige,Italia,,46.06391,11.12295,196.0,Laboratori di Analisi,,AI-6d,AE-3cf,AE-3abde,AI-6l,AI-6i,AI-6fg,AI-6e,AE-1abc,,,,,,,,,,,2010-06-09 12:09:27,2010-05-25
462,LE DUE SPADE ,215,"VIA DON ARCANGELO RIZZI, 11",Trento,TN,Territorio Val D'adige,Italia,,46.0670044,11.1202225,170.0,Osterie / Trattorie,,AI-6d,AE-3cf,AE-3abde,AI-6p,AI-6i,AI-6fg,AI-6bc,AI-6ad,AE-1abc,AE-2c,AI-6r,,,,,,,,2016-02-09 10:00:14.251,2013-01-16
463,LE SFIZIOSE,147,"PIAZZA D'AROGNO, 13",Trento,TN,Territorio Val D'adige,Italia,,46.066744,11.120892,204.0,Fast Food,,AE-3cf,AE-3abde,AE-1abc,,,,,,,,,,,,,,,,2013-01-23 13:55:19.794,2013-01-22
464,LI' LA',1073,"VIA TRAVAI, 39",Trento,TN,Territorio Val D'adige,Italia,,46.06467,11.1216,0.0,Attivita commerciali,,AE-2d,AE-1abc,AE-3abde,AE-3cf,,,,,,,,,,,,,,,2013-03-11 15:40:43.97,2010-09-13
465,LIBERCAFE' - PALAZZINA LIBERTY,1390,"PIAZZA DANTE, 29",Trento,TN,Territorio Val D'adige,Italia,www.libercafe.it,46.070878,11.120989,200.0,Bar,,AE-3abde,AI-6ad,AI-6r,AI-6l,AI-6p,AI-6i,AI-6e,AI-6d,AI-6fg,AI-6bc,AE-1abc,AE-2d,AE-3cf,,,,,,2017-10-09 17:49:13.2,2017-09-28
466,LIBERI TUTTI,400,"Via San Pietro, 3",Trento,TN,Territorio Val D'adige,Italia,www.liberitutti.net,46.070062,11.1244423,200.0,Agenzie viaggi e Promozione Turistica,,AE-1abc,AE-2c,AE-3cf,AE-3abde,,,,,,,,,,,,,,,2013-01-07 12:06:49.929,2010-08-19
467,LIBRERIA - VIAGGERIA,199,"VIA S. VIGILIO, 20",Trento,TN,Territorio Val D'adige,Italia,,46.0665,11.12246,184.0,Librerie,,AI-5c,AE-3cf,AE-3abde,AE-1abc,AE-2d,,,,,,,,,,,,,,2013-01-10 12:01:15.864,2013-01-09
468,LIBRERIA ANCORA,249,"VAI SANTA CROCE, 35",Trento,TN,Territorio Val D'adige,Italia,,46.0640685,11.123466,190.0,Librerie,,AE-3cf,AE-3abde,AE-1abc,AE-2d,,,,,,,,,,,,,,,2013-01-10 21:13:07.721,2010-04-27
469,LIBRERIA CARTOLERIA BENIGNI,324,VIA BELENZANI  51,Trento,TN,Territorio Val D'adige,Italia,,46.067959,11.121544,180.0,Librerie,,AE-3cf,AE-3abde,AE-1abc,AE-2c,,,,,,,,,,,,,,,2013-01-17 11:16:52.982,2013-01-15
470,LIBRERIA DISERTORI,321,VIA DIAZ 11,Trento,TN,Territorio Val D'adige,Italia,,46.0691218,11.1230799,180.0,Librerie,,AI-5b,AE-3cf,AE-3abde,AE-2c,,,,,,,,,,,,,,,2013-01-14 12:13:52.067,2013-01-11
471,LIBRERIA DRAKE,248,"VIA GIUSEPPE VERDI, 3",Trento,TN,Territorio Val D'adige,Italia,,46.0663465,11.1152559,200.0,Librerie,,AE-3cf,AE-3abde,AE-1abc,,,,,,,,,,,,,,,,2010-05-10 23:28:14,2010-04-26
472,LIBRERIA EINAUDI ELECTA,309,"Piazza Mostra, 8 ",Trento,TN,Territorio Val D'adige,Italia,www.einaudi.it,46.071028,11.126237,180.0,Librerie,,AE-1abc,AE-3cf,AE-3abde,,,,,,,,,,,,,,,,2013-01-07 11:03:03.483,2013-01-04
473,LIBRERIA GIUNTI AL PUNTO SPA,717,"VIA TRENER, 16 - C/O BREN CENTER",Trento,TN,Territorio Val D'adige,Italia,www.giuntialpunto.it,46.0947884,11.1152304,200.0,Librerie,,AE-3cf,AE-3abde,,,,,,,,,,,,,,,,,2011-05-25 13:07:36,2010-08-05
474,LIBRERIA UBIK,182,"CORSO TRE NOVEMBRE, 10/12",Trento,TN,Territorio Val D'adige,Italia,,46.06263,11.1237,218.0,Librerie,,AI-5d,AE-3cf,AE-3abde,AE-1abc,AE-2d,AE-2c,,,,,,,,,,,,,2010-03-04 08:04:16,2010-03-03
475,LIBRERIA UNIVERSITARIA,229,"VIA TRAVAI, 28",Trento,TN,Territorio Val D'adige,Italia,www.libreriauniversitaria.it,46.06465,11.12097,161.0,Librerie,,AE-3cf,AE-3abde,AE-1abc,AE-2d,,,,,,,,,,,,,,,2010-04-20 08:56:49,2010-03-17
476,LICEO PRATI - AULA MAGNA,1114,"VIA SS. TRINITA', 36",Trento,TN,Territorio Val D'adige,Italia,www.liceoprati.it,46.066563,11.124701,200.0,Centri e sale culturali,Scuole e universita,AI-5f,AE-2a,AE-3abde,AI-5fb,AI-6fg,AI-5fa,AI-6r,AI-6bc,AE-2d,AE-2b,AE-1abc,AI-6i,AI-5c,AI-6l,AI-6e,AE-3cf,AI-6p,AI-6d,2013-05-03 12:30:32.553,2013-04-29
477,LICIA DI TAZZI & C,754,"VIA CERVARA, 19",Trento,TN,Territorio Val D'adige,Italia,,46.0723344,11.1281926,200.0,Frutta e Verdura,,AE-3cf,AE-3abde,AE-1abc,,,,,,,,,,,,,,,,2011-05-27 12:03:04,2010-08-02
478,LINE CAFE' CONTEMPORANEITY,226,"VIA VERDI, 75",Trento,TN,Territorio Val D'adige,Italia,,46.0668891,11.1205348,180.0,Bar,,AI-6d,AE-3cf,AE-3abde,AI-6p,AI-6l,AI-6i,AI-6fg,AI-6r,AI-6e,AI-6bc,AI-6ad,AE-1abc,AE-2d,,,,,,2016-01-12 11:50:25.798,2013-01-23
479,LOGOPEDIA,756,"VIA PIAVE, 108",Trento,TN,Territorio Val D'adige,Italia,www.logopedia.iaps.tn.it,46.0641212,11.127659,200.0,Ambulatori Medici,Apparecchi Acustici,AE-3cf,AE-3abde,AE-1abc,AE-2d,,,,,,,,,,,,,,,2011-05-27 12:16:04,2010-07-14
480,LUNELLI CARMEN E CARLA S.N.C.,779,"LARGO CARDUCCI, 48",Trento,TN,Territorio Val D'adige,Italia,,46.0684122,11.1252456,200.0,Panifici,,AI-5c,AI-5b,AE-3cf,AE-3abde,AE-2c,,,,,,,,,,,,,,2013-01-14 12:27:56.525,2013-01-11
481,La Tana del Ghiro,501,"Via Anzoletti, 14",Trento,TN,Territorio Val D'adige,Italia,,46.0575934,11.1355669,200.0,Bar,,AI-6d,AE-3cf,AE-3abde,AI-6fg,AI-6bc,AI-6ad,AE-1abc,AE-2c,AI-6r,,,,,,,,,,2016-01-12 11:56:01.237,2010-07-27
482,Libreria Giunti al Punto Spa,366,"Via Oss Mazzurana, 45-47",Trento,TN,Territorio Val D'adige,Italia,www.giuntialpunto.it,46.0689054,11.1225649,200.0,Librerie,,AI-5c,AE-3cf,AE-3abde,,,,,,,,,,,,,,,,2017-11-17 10:54:02.945,2010-08-04
483,Libreria Gulliver,375,"Via Brennero, 320 c/o TOP CENTER",Trento,TN,Territorio Val D'adige,Italia,,46.0920846,11.1153921,200.0,Librerie,,AE-3cf,AE-3abde,,,,,,,,,,,,,,,,,2010-08-05 14:37:15,2010-08-04
484,MALYBAR,793,"VIA VENETO, 96",Trento,TN,Territorio Val D'adige,Italia,,46.058377,11.1223412,200.0,Bar,,AI-6d,AE-3cf,AE-3abde,AI-6fg,AI-6bc,AI-6ad,AE-1abc,AE-2d,AE-2c,AI-6r,AI-6p,,,,,,,,2016-01-12 13:19:58.382,2010-07-01
485,MERA EMILIO S.N.C.,761,"VIA 2 ANDRONA DI BORGONUOVO, 1",Trento,TN,Territorio Val D'adige,Italia,,46.0657174,11.1229574,200.0,Frutta e Verdura,,AI-5c,AE-3cf,AE-3abde,AE-1abc,AE-2c,,,,,,,,,,,,,,2013-01-10 11:01:58.521,2013-01-09
486,MILKY WALKY,53,"VIA GARIBALDI, 27",Trento,TN,Territorio Val D'adige,Italia,www.milkywalky.com,46.06705,11.122,199.0,Bar,,AI-6d,AI-5c,AI-5d,AE-3cf,AI-6l,AI-6i,AI-6fg,AI-6e,AE-1abc,AE-2d,AE-3abde,AI-6p,,,,,,,2016-01-12 15:00:51.52,2013-01-09
487,MINI BAR,205,"VIA GEROLA, 7",Trento,TN,Territorio Val D'adige,Italia,,46.0581109,11.1328964,180.0,Bar,,AI-6d,AE-3cf,AE-3abde,AI-6p,AI-6fg,AI-6bc,AI-6ad,AE-1abc,AE-2c,,,,,,,,,,2016-01-12 15:07:37.395,2010-04-13
488,MINI BISTRO' DORDI,93,"VIA DORDI, 21",Trento,TN,Territorio Val D'adige,Italia,,46.06727,11.12295,181.0,Bar,,AI-6d,AI-5b,AE-3cf,AE-3abde,AI-6i,AI-6bc,AI-6ad,AE-1abc,AI-6fg,,,,,,,,,,2016-02-03 11:20:49.499,2013-01-04
489,MIRMAR SNC,789,"VIA BARBACOVI, 40",Trento,TN,Territorio Val D'adige,Italia,,46.0643369,11.1307227,200.0,Bar,,AI-6d,AI-5c,AE-3cf,AE-3abde,AI-6o,AI-6l,AI-6i,AI-6fg,AI-6e,AE-1abc,AE-2d,,,,,,,,2016-02-03 12:02:30.459,2010-07-14
490,MORDI E FUGGI BAR,232,"VIA DEGASPERI, 8",Trento,TN,Territorio Val D'adige,Italia,,46.0497697,11.1221836,190.0,Bar,,AI-6d,AE-3cf,AE-3abde,AI-6p,AI-6l,AI-6i,AI-6fg,AI-6e,AI-6bc,AI-6ad,AE-1abc,,,,,,,,2010-05-11 07:17:56,2010-04-29
491,MOSCHEA COMUNITA' ISLAMICA DEL TRENTINO ALTO ADIGE,671,"VIA VIVALDI, 15",Trento,TN,Territorio Val D'adige,Italia,,46.0551628,11.1219394,200.0,Edifici di Culto,,AE-3cf,AE-3abde,AE-1abc,,,,,,,,,,,,,,,,2011-05-23 12:34:21,2010-05-17
492,MOSER CICLI,417,"VIA CALEPINA, 65",Trento,TN,Territorio Val D'adige,Italia,www.mosercicli.com,46.0672287,11.1254952,200.0,Attivita commerciali,,AI-5c,AE-3cf,AE-3abde,AE-1abc,,,,,,,,,,,,,,,2013-01-15 12:00:04.396,2013-01-14
493,MOT,557,"VIA GALILEI, 15",Trento,TN,Territorio Val D'adige,Italia,www.motcenter.it,46.06779,11.1260165,0.0,Ottica,,AE-3cf,AE-3abde,AE-1abc,AE-2c,,,,,,,,,,,,,,,2013-01-15 08:55:41.872,2013-01-14
494,MOTORIZZAZIONE CIVILE,723,"VIA LUNG'ADIGE S. NICOLO', 14",Trento,TN,Territorio Val D'adige,Italia,"www.motorizzazione,provincia.tn.it",46.0815273,11.1119896,200.0,Uffici Pubblici,,AI-6d,AI-5fb,AI-5fa,AI-5f,AE-3cf,AE-3abde,AI-6o,AI-6l,AI-6i,AI-6fg,AI-6e,,,,,,,,2011-05-25 14:00:35,2010-08-03
495,MUSE - MUSEO DELLE SCIENZE,1236,"CORSO DEL LAVORO E DELLA SCIENZA, 3",Trento,TN,Territorio Val D'adige,Italia,www.muse.it,46.062247,11.113108,0.0,Musei,,AI-6o,AI-6p,AE-3cf,AI-6d,AI-6fg,AE-1abc,AI-5fa,AI-5fb,AI-6i,AE-3abde,AI-5f,AI-6l,AI-6e,,,,,,2019-07-22 09:39:11.634,2016-05-03
496,MUSEO DEL RAME - MUSEO NAVARINI,377,"Via Val Gola, 22",Trento,TN,Territorio Val D'adige,Italia,www.navariniramoe.com,46.0371946,11.1046005,190.0,Musei,,AE-3cf,AE-3abde,AE-2c,,,,,,,,,,,,,,,,2013-03-04 09:54:03.674,2010-08-05
497,MUSEO DELLA SAT - PALAZZO SARACINI CRESSERI,117,"VIA MANCI, 57",Trento,TN,Territorio Val D'adige,Italia,www.sat.tn.it,46.0699422,11.1232717,230.0,Edifici Storici,Musei,AI-6d,AE-3cf,AE-3abde,AI-6fg,AE-1abc,AI-6i,AI-5c,AE-2a,AI-5f,AI-6l,AI-6e,AI-6p,AI-5fb,AI-5fa,AE-2b,AI-6r,,,2017-11-17 10:56:54.848,2016-05-03
498,MUSEO DIOCESANO TRIDENTINO C/O PALAZZO PRETORIO,140,"PIAZZA DUOMO, 18",Trento,TN,Territorio Val D'adige,Italia,www.museodiocesanotridentino.it,46.06758,11.12176,206.0,Edifici Storici,Musei,AI-6d,AI-5fa,AI-5f,AI-5d,AE-3cf,AI-6l,AI-6i,AI-6e,AE-1abc,AI-6r,AE-3abde,AE-2d,AI-6fg,,,,,,2020-10-13 14:02:13.106,2013-01-16
499,MUSEO NAZIONALE STORICO DEGLI ALPINI,1483,DOSS TRENTO,Trento,TN,Territorio Val D'adige,Italia,www.museonazionalealpini.it,46.079942,11.131239,0.0,Musei,,AI-5c,AE-2d,AE-3cf,AE-3abde,,,,,,,,,,,,,,,2018-07-11 15:15:52.219,2016-11-07
500,N.A.A.A. (NATWORK AIUTO ASSISTENZA ACCOGLIENZA),507,"VIA BRONZETTI,"" 29",Trento,TN,Territorio Val D'adige,Italia,www.naaa.it,46.058677,11.121518,200.0,Associazioni,,AE-3cf,AI-6p,AI-6fg,AE-1abc,AE-2d,AI-5fb,AI-5fa,AE-2b,AI-6i,AI-5f,AI-6l,AI-6e,AE-3abde,AE-2a,AI-6r,AI-6d,,,2020-06-30 10:56:15.74,2010-07-27
501,NATURERBE E SANITARI,556,"PIAZZA FIERA, 7",Trento,TN,Territorio Val D'adige,Italia,,46.064979,11.1240549,200.0,Erboristerie,,AE-3cf,AE-3abde,AE-1abc,AE-2d,,,,,,,,,,,,,,,2013-01-10 09:08:34.704,2013-01-09
502,NIKY'S,658,"VIA SAN PIO X, 29",Trento,TN,Territorio Val D'adige,Italia,www.nikys.it,46.0528103,11.1207524,200.0,Ristoranti,Pizzerie,AI-6d,AE-3cf,AE-3abde,AI-6o,AI-6l,AI-6i,AI-6fg,AI-6e,AI-6bc,AI-6ad,AE-1abc,AE-2d,,,,,,,2016-02-09 16:00:09.908,2010-07-01
503,NON SOLO PIZZA,69,"VIA SUFFRAGIO, 83",Trento,TN,Territorio Val D'adige,Italia,,46.07044,11.1246,172.0,Fast Food,,AE-3cf,AE-3abde,AE-1abc,,,,,,,,,,,,,,,,2013-01-07 11:45:45.632,2013-01-04
504,NUOVA APULEIO,234,"VIA MARCO APULEIO, 58",Trento,TN,Territorio Val D'adige,Italia,,46.0718294,11.1152496,180.0,Gelaterie,Pasticcerie,AI-6d,AI-5b,AE-3cf,AE-3abde,AI-6p,AI-6i,AI-6bc,AI-6ad,AE-2c,AI-6fg,AI-6r,,,,,,,,2017-11-17 11:00:13.742,2010-05-06
505,NUOVA ASIA,735,"VIA PREPOSITURA, 15",Trento,TN,Territorio Val D'adige,Italia,,46.0692054,11.1185675,200.0,Ristoranti,,AI-6d,AE-3cf,AE-3abde,AI-6o,AI-6l,AI-6i,AI-6fg,AI-6e,AE-1abc,,,,,,,,,,2013-01-21 14:36:20.523,2013-01-21
506,NUOVA CASTELLI,732,"PIAZZA DI CENTA, 11",Trento,TN,Territorio Val D'adige,Italia,,46.076036,11.1239391,200.0,Ristoranti,Pizzerie,AI-6d,AE-3cf,AE-3abde,AI-6o,AI-6l,AI-6i,AI-6fg,AI-6e,AE-1abc,AE-2d,AI-6p,,,,,,,,2016-02-10 16:58:56.223,2010-07-29
507,NUOVO BAR CHISTÉ,788,"VIA DEL BRENNERO, 6",Trento,TN,Territorio Val D'adige,Italia,,46.0922414,11.1159069,200.0,Bar,,AI-6d,AE-3cf,AE-3abde,AI-6fg,AI-6bc,AI-6ad,AE-1abc,AE-2c,AI-6r,AI-6p,,,,,,,,,2016-02-03 11:52:37.892,2010-07-14
508,NUOVO BAR PARADISO,155,"VIA PREPOSITURA, 72",Trento,TN,Territorio Val D'adige,Italia,,46.068794,11.118577,225.0,Bar,,AI-6d,AE-3cf,AE-3abde,AI-6l,AI-6fg,AI-6e,AE-1abc,AI-6r,AE-2d,,,,,,,,,,2013-01-21 15:42:18.446,2013-01-21
509,OASI DELLA SPERANZA ONLUS - CENTRO SOLIDARIETA' PER FAMIGLIE TOSSICODIPENDENTI,521,"VIA VENETO, 24",Trento,TN,Territorio Val D'adige,Italia,www.oasidellasperanza.com,46.0579773,11.1203449,200.0,Associazioni,,AI-6d,AE-3cf,AE-3abde,AI-6p,AI-6fg,AI-6bc,AI-6ad,AE-1abc,AE-2g,AE-2gb,AE-2ga,AE-2a,AI-6r,,,,,,2017-11-17 11:12:54.322,2010-07-16
510,OBI,420,"VIA DEL BRENNERO, 230",Trento,TN,Territorio Val D'adige,Italia,www.obi-italia.it,46.0923121,11.1153171,200.0,Attivita commerciali,,AE-3cf,AE-3abde,,,,,,,,,,,,,,,,,2010-09-02 09:09:04,2010-08-23
511,OLD BAR FOOD,59,"VIA ROGGIA GRANDE, 8",Trento,TN,Territorio Val D'adige,Italia,www.oldbar.it,46.06761,11.12442,214.0,Bar,,AI-6d,AI-5c,AE-3cf,AE-3abde,AI-6i,AI-6fg,AI-6bc,AI-6ad,AE-1abc,AI-6r,AI-6p,,,,,,,,2016-02-03 10:57:59.838,2013-01-14
512,OPERA UNIVERSITARIA - SERVIZIO DISABILITA',154,"VIA PREPOSITURA, 48",Trento,TN,Territorio Val D'adige,Italia,www.operauni.tn.it,46.06899,11.11824,222.0,Scuole e universita,,AI-6d,AE-3cf,AE-3abde,AI-6l,AI-6i,AI-6e,AI-6bc,AI-6ad,AE-1abc,AI-6r,AI-6fg,AI-6p,,,,,,,2013-01-21 14:39:53.622,2013-01-21
513,OPERA UNIVERSITARIA,526,"VIA ZANELLA, 1/A",Trento,TN,Territorio Val D'adige,Italia,www.operauni.tn.it,46.0673551,11.1173177,200.0,Uffici Pubblici,,AI-6d,AI-5fb,AI-5fa,AI-5f,AI-5d,AE-3cf,AE-3abde,AI-6p,AI-6o,AI-6l,AI-6i,AI-6fg,AI-6e,AE-1abc,AE-2a,,,,2011-04-07 12:53:27,2010-08-03
514,OPTISSIMO,584,"VIA ORIOLA, 4",Trento,TN,Territorio Val D'adige,Italia,www.optissimo.it,46.0682586,11.1226458,200.0,Ottica,,AE-3cf,AE-3abde,AE-2c,,,,,,,,,,,,,,,,2013-01-14 10:47:39.856,2013-01-11
515,ORGANIZZAZIONE CENTRALE PER LO SVILUPPO LOCALE (OCSE) - EX CONVENTO AGOSTINIANI,111,"VIA SAN MARCO, 1",Trento,TN,Territorio Val D'adige,Italia,www.trento.oecd.org,46.0697855,11.1255673,310.0,Uffici Pubblici,Centri e sale culturali,AE-3cf,AE-3abde,AE-1abc,AE-2b,AE-2a,AI-6r,AI-6fg,AI-6bc,AI-6p,AI-6d,AI-6ad,,,,,,,,2017-11-17 11:16:33.794,2016-05-03
516,ORTOPROTESI - OFFICINA ORTOPEDICA,344,"VIA GRAZIOLI, 128",Trento,TN,Territorio Val D'adige,Italia,,46.0653614,11.1330553,180.0,Ortopedie e Sanitarie,,AE-3cf,AE-3abde,AE-1abc,,,,,,,,,,,,,,,,2010-06-17 13:37:36,2010-05-25
517,OSPEDALE SAN CAMILLO,250,VIA BONELLI,Trento,TN,Territorio Val D'adige,Italia,www.sancamillo.com,46.0646823,11.1324542,190.0,Ospedali,,AI-6d,AI-5fb,AI-5fa,AI-5f,AE-3cf,AE-3abde,AI-6p,AI-6o,AI-6l,AI-6i,AI-6fg,AI-6e,AE-1abc,AE-2d,,,,,2010-05-10 23:52:00,2010-04-27
518,OSPEDALE SANTA CHIARA,208,"LARGO MEDAGLIE D'ORO, 1",Trento,TN,Territorio Val D'adige,Italia,www.apss.tn.it,46.0578948,11.1329703,180.0,Ospedali,,AI-6d,AI-5fb,AI-5fa,AI-5f,AE-3cf,AE-3abde,AI-6p,AI-6o,AI-6l,AI-6i,AI-6fg,AI-6e,AI-6bc,AI-6ad,AE-1abc,AE-2d,,,2013-01-07 17:01:49.459,2010-04-13
519,OSTERIA - VINERIA SAN MARTINO,102,"VIA SAN MARTINO, 42",Trento,TN,Territorio Val D'adige,Italia,,46.0731892,11.1254168,216.0,Osterie / Trattorie,,AI-6d,AE-3cf,AE-3abde,AI-6i,AI-6bc,AE-1abc,AI-6r,AI-6p,AI-6l,AI-6ad,AI-6fg,AI-6e,,,,,,,2016-02-09 12:01:57.17,2013-01-18
520,OSTERIA DELLA MAL'OMBRA,181,"CORSO 3 NOVEMBRE, 43",Trento,TN,Territorio Val D'adige,Italia,www.osteriadellamalombra.com,46.06104,11.12472,156.0,Enoteche,,AI-6d,AE-3cf,AE-3abde,AI-6p,AI-6e,AE-1abc,AI-6r,AI-6fg,,,,,,,,,,,2016-01-29 10:50:21.915,2010-02-03
521,OSTERIA TRENTINA,18,"VIA ROMA, 48",Trento,TN,Territorio Val D'adige,Italia,,46.069524,11.120017,165.0,Osterie / Trattorie,,AI-6d,AE-3cf,AE-3abde,AI-6r,AI-6l,AI-6i,AI-6fg,AI-6e,AI-6bc,AI-6ad,AE-1abc,,,,,,,,2016-02-09 15:07:57.085,2013-01-23
522,OTTICA BENINI,370,"Via Brennero, 320 c/o TOP CENTER",Trento,TN,Territorio Val D'adige,Italia,,46.0920846,11.1153921,200.0,Ottica,,AE-3cf,AE-3abde,,,,,,,,,,,,,,,,,2010-08-05 12:23:18,2010-08-04
523,OTTICA PETERLANA,608,"VIA PERINI, 171",Trento,TN,Territorio Val D'adige,Italia,www.otticapeterlana.it,46.0607464,11.1238213,200.0,Ottica,,AE-3cf,AE-3abde,AE-2c,,,,,,,,,,,,,,,,2011-04-12 10:20:02,2010-06-28
524,OTTICA ROMANI ,313,"Via Fogazzaro, 9",Trento,TN,Territorio Val D'adige,Italia,www.romanitn.it,46.0560137,11.1292488,180.0,Ottica,,AE-3cf,AE-3abde,AE-1abc,AE-2d,,,,,,,,,,,,,,,2010-06-11 12:16:38,2010-05-25
525,OTTICA ROMANI due,311,"Via Piave, 12",Trento,TN,Territorio Val D'adige,Italia,www.romanitn.it,46.0619954,11.1245666,180.0,Ottica,,AE-3cf,AE-3abde,AE-1abc,AE-2d,,,,,,,,,,,,,,,2010-06-09 13:02:35,2010-05-25
526,PALAGHIACCIO DI TRENTO,1303,"VIA FERSINA, 15",Trento,TN,Territorio Val D'adige,Italia,www.asis.trento.it,46.041375,11.123735,0.0,Impianti Sportivi,,AI-6fg,AI-5fa,AI-6r,AI-6bc,AE-1abc,AI-6i,AE-3abde,AI-5f,AI-6l,AI-6e,AE-3cf,AI-6d,AI-6ad,,,,,,2017-11-16 10:59:44.707,2013-11-22
527,PALATRENTO,244,"VIA FERSINA, 11",Trento,TN,Territorio Val D'adige,Italia,www.trentinovolley.it/palatrento,46.041341,11.123772,200.0,Impianti Sportivi,,AI-6d,AI-5fb,AI-5fa,AI-5f,AE-3cf,AE-3abde,AI-6l,AI-6fg,AI-6e,AE-1abc,,,,,,,,,2013-01-09 14:11:53.651,2010-03-05
528,PALAZZINA A - APSS,1392,"VIALE VERONA, 16 - C/O BIG CENTER",Trento,TN,Territorio Val D'adige,Italia,www.apss.tn.it,46.057848,11.128029,200.0,Uffici Pubblici,,AI-6p,AI-6l,AI-6i,AI-6fg,AI-6e,AI-6d,AI-6bc,AI-6ad,AE-3cf,AE-3abde,AI-5fb,AI-5fa,AI-5f,AE-2b,AE-2a,AI-6r,,,2017-11-17 11:56:33.696,2010-04-29
529,PALAZZINA B - APSS,751,"VIALE VERONA, 16  - C/O BIG CENTER",Trento,TN,Territorio Val D'adige,Italia,www.apss.tn.it,46.0577763,11.1279189,200.0,Uffici Pubblici,,AI-6d,AI-5fb,AI-5fa,AI-5f,AE-3cf,AI-6o,AI-6l,AI-6i,AI-6fg,AI-6e,AI-6bc,AI-6ad,AE-3abde,,,,,,2017-11-17 12:02:07.131,2010-04-29
530,PALAZZINA C1 - APSS,748,"VIALE VERONA, 16  - C/O BIG CENTER",Trento,TN,Territorio Val D'adige,Italia,www.apss.tn.it,46.0577763,11.1279189,200.0,Uffici Pubblici,,AI-6d,AI-5fb,AI-5f,AI-6l,AE-3cf,AI-6o,AI-6i,AI-6fg,AI-6e,AI-6bc,AI-6ad,AE-3abde,,,,,,,2013-01-24 16:07:38.775,2010-04-29
531,PALAZZINA C2 - APSS,749,"VIALE VERONA, 16  - C/O BIG CENTER",Trento,TN,Territorio Val D'adige,Italia,www.apss.tn.it,46.0577763,11.1279189,200.0,Uffici Pubblici,,AI-5fb,AI-5fa,AI-5f,AE-3cf,AE-3abde,,,,,,,,,,,,,,2017-11-17 12:03:15.082,2010-04-29
532,PALAZZINA D - APSS,752,"VIALE VERONA, 16  - C/O BIG CENTER",Trento,TN,Territorio Val D'adige,Italia,www.apss.tn.it,46.00577763,11.1279189,200.0,Uffici Pubblici,,AI-6d,AI-5fb,AI-5fa,AI-5f,AE-3cf,AE-3abde,AI-6o,AI-6i,AI-6fg,AI-6e,,,,,,,,,2011-05-27 10:19:47,2010-04-29
533,PALAZZO BASSETTI - SEDE INTESA SAN PAOLO,203,"VIA MANTOVA, 19",Trento,TN,Territorio Val D'adige,Italia,www.intesasanpaolo.com,46.067959,11.124009,190.0,Banca,Edifici Storici,AI-6d,AI-5fb,AI-5fa,AI-5f,AE-3cf,AE-3abde,AI-6fg,AI-6e,AE-2a,AE-1abc,AI-6o,AI-6i,AI-6l,AI-6p,,,,,2017-05-04 10:30:43.009,2016-05-03
534,PALAZZO CALEPINI - SALA FONDAZIONE CARITRO,107,"VIA CALEPINA, 1",Trento,TN,Territorio Val D'adige,Italia,www.fondazionecaritro.it,46.0668733,11.1223369,230.0,Uffici Pubblici,Centri e sale culturali,AI-6d,AE-3cf,AI-6i,AI-6fg,AI-6e,AE-1abc,AE-2b,AE-2a,AI-6l,AI-5fb,AI-5fa,AI-6bc,AI-6r,AI-5f,AI-6ad,AI-6p,AE-3abde,,2019-05-03 12:02:37.21,2016-05-03
535,PALAZZO CONSOLATI - CONSERVATORIO,670,"VIA SANTA MARIA MADDALENA, 1",Trento,TN,Territorio Val D'adige,Italia,www.conservatorio.tn.it,46.0684668,11.1253234,200.0,Centri e sale culturali,,AI-6d,AI-5fb,AI-5fa,AI-5f,AI-5c,AE-3cf,AE-3abde,AI-6o,AI-6l,AI-6i,AI-6fg,AI-6e,AI-6bc,AI-6ad,,,,,2013-01-15 10:18:00.361,2013-01-14
536,PALAZZO DELLA PROVINCIA - SALA DEPERO,118,"PIAZZA DANTE, 15",Trento,TN,Territorio Val D'adige,Italia,www.provincia.tn.it,46.072283,11.1207961,250.0,Uffici Pubblici,Centri e sale culturali,AI-6d,AI-5fa,AI-5f,AE-3cf,AE-3abde,AI-6l,AI-6i,AI-6fg,AE-1abc,AE-2d,AE-2b,AE-2a,AI-6e,,,,,,2017-05-03 15:48:20.42,2016-05-03
537,PALAZZO DELLA PROVINCIA - SALA STAMPA,644,"PIAZZA DANTE, 15",Trento,TN,Territorio Val D'adige,Italia,www.provincia.tn.it,46.072283,11.1207961,200.0,Uffici Pubblici,Centri e sale culturali,AI-6d,AI-5fa,AI-5f,AE-3cf,AE-3abde,AI-6p,AI-6o,AI-6l,AI-6i,AI-6fg,AI-6e,AE-1abc,AE-2d,AE-2a,,,,,2013-05-03 11:07:39.926,2013-01-07
538,PALAZZO GALASSO ,320,VIA MANCI 5,Trento,TN,Territorio Val D'adige,Italia,,46.0698673,11.1221291,180.0,Edifici Storici,,AE-3abde,AE-3cf,AE-1abc,AE-2d,,,,,,,,,,,,,,,2014-01-27 16:51:09.676,2010-05-05
539,PALAZZO GEREMIA,116,"VIA BELENZANI, 19",Trento,TN,Territorio Val D'adige,Italia,www.comunetrento.tn.it,46.0689614,11.1212427,250.0,Uffici Pubblici,Centri e sale culturali,AI-6d,AI-5fb,AI-5fa,AI-5f,AE-3cf,AE-3abde,AI-6l,AI-6fg,AI-6e,AE-1abc,AE-2b,AE-2a,AI-6o,AI-6p,,,,,2020-12-10 14:12:52.78,2016-05-03
540,PALAZZO REGIONE - SALA RAPPRESENTANZA,1329,"PIAZZA DANTE, 16",Trento,TN,Territorio Val D'adige,Italia,www.consiglio.regione.taa.it,46.071647,11.121219,0.0,Uffici Pubblici,Centri e sale culturali,AI-6i,AI-5f,AE-3abde,AI-5fb,AI-5fa,AI-6r,AI-6bc,AI-6l,AE-1abc,AE-3cf,AI-6d,AI-6e,AI-6ad,AI-6p,,,,,2017-11-16 11:14:28.216,2014-05-16
541,PALAZZO REGIONE - SALA ROSA,637,"PIAZZA DANTE, 16",Trento,TN,Territorio Val D'adige,Italia,www.consiglio.regione.taa.it,46.072283,11.1207961,200.0,Uffici Pubblici,,AI-6d,AI-5fa,AI-5f,AE-3cf,AE-3abde,AI-6p,AI-6l,AI-6i,AI-6fg,AI-6e,AE-1abc,AI-6r,AI-6bc,AI-6ad,,,,,2017-05-05 10:26:38.544,2010-07-26
542,PALAZZO ROCCABRUNA,138,"VIA SS TRINITA', 24",Trento,TN,Territorio Val D'adige,Italia,www.palazzoroccabruna.it,46.066336,11.123432,172.0,Edifici Storici,,AI-5fa,AE-3cf,AE-3abde,AI-6l,AI-6i,AI-6fg,AI-6e,AE-2b,AI-6o,AI-6p,AI-6d,AE-1abc,AI-5f,AE-2a,,,,,2016-12-05 10:15:09.575,2016-05-02
543,PALAZZO THUN,646,"VIA BELENZANI, 3",Trento,TN,Territorio Val D'adige,Italia,www.comune.trento.it,46.0691,11.12127,200.0,Uffici Pubblici,Centri e sale culturali,AI-6d,AI-5f,AE-3cf,AE-3abde,AI-6o,AI-6l,AI-6i,AI-6fg,AI-6e,AE-1abc,AI-5fb,AI-5fa,AI-6p,,,,,,2019-05-03 11:48:45.735,2013-01-16
544,PALAZZO TRENTINI - CONSIGLIO PROVINCIALE,134,"VIA MANCI, 27",Trento,TN,Territorio Val D'adige,Italia,www.consiglio.provincia.tn.it,46.069972,11.123086,139.0,Uffici Pubblici,,AI-6d,AI-5fa,AI-5f,AE-3cf,AE-3abde,AI-6l,AI-6i,AI-6fg,AI-6e,AE-2b,AE-1abc,AE-2a,AI-6o,,,,,,2015-10-29 14:42:54.189,2013-01-28
545,PALESTRA BLU SAN BARTOLAMEO,1305,"VIA MALPENSADA, 140",Trento,TN,Territorio Val D'adige,Italia,www.operauni.tn.it,46.047634,11.133112,0.0,Impianti Sportivi,,AE-2g,AI-6fg,AE-2gb,AE-2ga,AE-1abc,AI-6o,AI-6i,AE-3abde,AI-6l,AI-6e,AE-3cf,AI-6p,AI-6d,,,,,,2017-11-16 11:19:28.199,2013-11-22
546,PALESTRA C/O DIPARTIMENTO DI SOCIOLOGIA E RICERCA SOCIALE,1327,"VIA VERDI, 26",Trento,TN,Territorio Val D'adige,Italia,www.unisport.tn.it,46.066412,11.119503,0.0,Impianti Sportivi,,AI-6fg,AI-6r,AI-6bc,AI-6i,AI-6l,AI-6e,AI-6p,AI-6d,AI-6ad,AI-5d,AI-5f,AE-2a,AE-3abde,AI-5fb,AI-5fa,AE-1abc,AE-2d,AE-2b,2017-11-16 11:21:12.168,2016-05-03
547,PALESTRA GIALLA SAN BARTOLAMEO,1304,"VIA MALPENSADA, 140",Trento,TN,Territorio Val D'adige,Italia,www.operauni.tn.it,46.047634,11.133112,0.0,Impianti Sportivi,,AI-6o,AE-3abde,AE-2g,AI-6fg,AE-2gb,AE-2ga,AE-2d,AE-1abc,AI-6i,AI-6l,AI-6e,AE-3cf,AI-6p,AI-6d,,,,,2017-11-16 11:25:28.306,2013-11-22
548,PALESTRA ROSSA SAN BARTOLAMEO,1306,"VIA MALPENSADA, 90",Trento,TN,Territorio Val D'adige,Italia,www.operauni.tn.it,46.046915,11.133511,0.0,Impianti Sportivi,,AI-5fb,AI-5fa,AE-2b,AE-1abc,AE-2a,AI-5f,AI-6bc,AI-6ad,AE-3abde,AI-6fg,AI-6r,AE-3cf,AI-6p,AI-6d,,,,,2017-11-16 11:27:20.553,2013-11-22
549,PAN CARRARO SRL,546,"VIA ORIOLA, 33",Trento,TN,Territorio Val D'adige,Italia,www.pancarraro.com,46.0683146,11.123409,200.0,Panifici,,AE-3cf,AE-3abde,AE-1abc,,,,,,,,,,,,,,,,2013-01-14 12:23:55.311,2013-01-11
550,PAN CARRARO SRL,601,VIA GARIBALDI 21/A,Trento,TN,Territorio Val D'adige,Italia,www.pancarraro.com,46.0673355,11.1221826,200.0,Panifici,,AE-3abde,AE-1abc,AE-2c,,,,,,,,,,,,,,,,2013-01-15 11:52:14.918,2013-01-14
551,PANETTERIA DALLBRIDA ANNA,554,"VIA DEL BRENNERO, 18",Trento,TN,Territorio Val D'adige,Italia,,46.0922711,11.115902,200.0,Panifici,,AE-3cf,AE-3abde,AE-1abc,AE-2d,,,,,,,,,,,,,,,2011-04-08 08:13:59,2010-10-06
552,PANIFICIO BRUGNARA ELIO,713,"VIA LUNELLI, 58 - C/O PALAZZO ONDA",Trento,TN,Territorio Val D'adige,Italia,,46.0920823,11.1173015,200.0,Panifici,,AE-3cf,AE-3abde,AE-1abc,,,,,,,,,,,,,,,,2011-05-25 12:49:05,2010-08-05
553,PANIFICIO DAL LAGO,1070,"VIA ESTERLE, 22",Trento,TN,Territorio Val D'adige,Italia,,46.06579,11.12113,0.0,Panifici,,AI-5c,AE-3cf,AE-3abde,,,,,,,,,,,,,,,,2013-03-11 15:38:41.381,2010-09-13
554,PANIFICIO FRATELLI DALPRA',614,"VIA VERDI, 11",Trento,TN,Territorio Val D'adige,Italia,,46.0664885,11.1167514,200.0,Panifici,,AE-3cf,AE-3abde,AE-1abc,,,,,,,,,,,,,,,,2011-04-12 13:31:57,2010-08-09
555,PANIFICIO FRATELLI DALPRA',702,"VIA SCOPOLI, 9",Trento,TN,Territorio Val D'adige,Italia,,46.0769224,11.1179735,200.0,Panifici,,AE-3cf,AE-3abde,AE-1abc,,,,,,,,,,,,,,,,2011-05-25 09:33:09,2010-07-20
556,PANIFICIO IANES,582,"LARGO PRATI, 5",Trento,TN,Territorio Val D'adige,Italia,,46.066064,11.1201311,200.0,Panifici,,AE-3cf,AE-3abde,AE-1abc,AE-2c,,,,,,,,,,,,,,,2011-04-08 13:54:51,2010-07-13
557,PANIFICIO IANES,759,"VIA TRAVAI, 27",Trento,TN,Territorio Val D'adige,Italia,,46.0646851,11.12147,200.0,Panifici,,AI-5c,AE-3cf,AE-3abde,AE-1abc,,,,,,,,,,,,,,,2011-05-27 12:40:18,2010-06-29
558,PANIFICIO IANES,762,"VIA MAZZINI, 15",Trento,TN,Territorio Val D'adige,Italia,,46.0660869,11.1227717,200.0,Panifici,,AI-5b,AE-3cf,AE-2c,AE-3abde,,,,,,,,,,,,,,,2013-01-10 11:20:55.26,2013-01-09
559,PANIFICIO LE DELIZIE,760,"VIA MAZZINI, 45",Trento,TN,Territorio Val D'adige,Italia,,46.0655622,11.130226,2200.0,Panifici,,AE-3cf,AE-3abde,AE-1abc,AE-2c,,,,,,,,,,,,,,,2011-05-27 12:44:28,2010-06-29
560,PANIFICIO SOSI,758,"VIA TRAVAI, 36",Trento,TN,Territorio Val D'adige,Italia,,46.0646506,11.1214276,200.0,Panifici,,AE-3cf,AE-3abde,AE-1abc,AE-2d,,,,,,,,,,,,,,,2011-05-27 12:33:37,2010-06-29
561,PANIFICIO TECCHIOLI,547,"CORSO BUONARROTI, 32",Trento,TN,Territorio Val D'adige,Italia,,46.0740186,11.118145,200.0,Panifici,,AE-3cf,AE-3abde,AE-1abc,,,,,,,,,,,,,,,,2011-04-07 14:27:19,2010-07-20
562,PAOLINE LIBRERIE,659,"VIA PERINI, 159",Trento,TN,Territorio Val D'adige,Italia,"www,paoline.it",46.0606318,11.123165,200.0,Librerie,,AE-3cf,AE-3abde,AE-1abc,AE-2d,,,,,,,,,,,,,,,2011-05-23 08:55:23,2010-06-28
563,PARCHEGGIO CENTRO EUROPA,598,"VIA SEGANTINI, 7",Trento,TN,Territorio Val D'adige,Italia,,46.0754087,11.1223902,200.0,Parcheggi,,AI-5fb,AI-5fa,AI-5f,,,,,,,,,,,,,,,,2011-04-08 15:12:58,2010-04-21
564,PARCHEGGIO CTE,279,VIA BOMPORTO,Trento,TN,Territorio Val D'adige,Italia,,46.0651834,11.1172275,190.0,Parcheggi,,AE-1abc,,,,,,,,,,,,,,,,,,2010-12-22 10:00:48,2010-04-21
565,PARCHEGGIO DUOMO,280,PIAZZA MOSNA,Trento,TN,Territorio Val D'adige,Italia,,46.0653236,11.1140684,190.0,Parcheggi,,AE-2gb,AE-2ga,AE-2g,,,,,,,,,,,,,,,,2017-11-17 12:04:21.632,2010-04-21
566,PARCHEGGIO MONTE BALDO,275,VIA SAN SEVERINO,Trento,TN,Territorio Val D'adige,Italia,,46.0571528,11.1124669,200.0,Parcheggi,,AE-1abc,,,,,,,,,,,,,,,,,,2017-11-17 12:05:44.508,2010-04-22
567,PARCHEGGIO PALAZZO ONDA,276,VIA ZAMBRA,Trento,TN,Territorio Val D'adige,Italia,,46.091365,11.117202,200.0,Parcheggi,,AE-1abc,,,,,,,,,,,,,,,,,,2017-11-17 12:06:58.507,2010-04-22
568,PARCHEGGIO SANSEVERINO,278,VIA SANSEVERINO,Trento,TN,Territorio Val D'adige,Italia,,46.0571528,11.1124669,190.0,Parcheggi,,AE-1abc,,,,,,,,,,,,,,,,,,2014-05-19 16:11:17.036,2014-05-16
569,PARCHEGGIO SIT (AREA EX SIT),599,VIA CANESTRINI,Trento,TN,Territorio Val D'adige,Italia,,46.0683748,11.1161846,200.0,Parcheggi,,,,,,,,,,,,,,,,,,,,2011-04-08 15:17:40,2010-04-21
570,PARCO DELLA PREDARA,131,"VIA TORRRE D'AUGUSTO, 37",Trento,TN,Territorio Val D'adige,Italia,,46.0723752,11.1267079,321.0,Parchi Pubblici,,AE-1abc,AE-2d,,,,,,,,,,,,,,,,,2010-01-20 01:18:27,2009-12-10
571,PARCO PUBBLICO SANTA CHIARA,346,VIA PIAVE,Trento,TN,Territorio Val D'adige,Italia,,46.0627295,11.1264901,180.0,Parchi Pubblici,,AE-1abc,,,,,,,,,,,,,,,,,,2010-06-22 12:20:50,2010-04-27
572,PARK PIAZZA FIERA,258,PIAZZA FIERA,Trento,TN,Territorio Val D'adige,Italia,www.bestinparking.it,46.0653509,11.1243443,200.0,Parcheggi,,AI-5fb,AI-5fa,AI-5f,,,,,,,,,,,,,,,,2013-01-15 11:53:49.036,2013-01-09
573,PASTICCERIA BERTELLI,94,"VIA ORIOLA, 29",Trento,TN,Territorio Val D'adige,Italia,www.pasticceriabertelli.it,46.06828,11.12323,197.0,Pasticcerie,Bar,AI-6d,AE-3cf,AE-3abde,AI-6fg,AI-6bc,AI-6ad,AE-1abc,AE-2d,,,,,,,,,,,2016-02-01 10:13:13.307,2013-01-11
574,PASTICCERIA DI IANNI SNC,562,"VIA FRATELLI FONTANA, 44",Trento,TN,Territorio Val D'adige,Italia,,46.0767064,11.120074,200.0,Pasticcerie,,AE-3cf,AE-3abde,AE-1abc,,,,,,,,,,,,,,,,2016-02-01 12:01:48.757,2010-07-07
575,PASTICCERIA FILIPPI E GARDUMI SNC,506,"VIA BOLGHERA, 34",Trento,TN,Territorio Val D'adige,Italia,www.filippiegardumi.it,46.0584356,11.1303979,200.0,Pasticcerie,,AE-3abde,AE-1abc,AE-2d,AE-3cf,,,,,,,,,,,,,,,2016-02-01 11:53:48.248,2010-07-27
576,PASTICCERIA S. VIGILIO,64,"VIA S. VIGILIO, 8",Trento,TN,Territorio Val D'adige,Italia,,46.066587,11.122276,208.0,Pasticcerie,Bar,AI-6d,AE-3cf,AE-3abde,AI-6l,AI-6i,AI-6e,AI-6bc,AI-6ad,AE-1abc,AE-2d,AI-6fg,AI-6r,,,,,,,2016-02-01 10:20:38.611,2013-01-09
577,PASTICCERIA VIENNESE,176,"CORSO 3 NOVEMBRE, 2",Trento,TN,Territorio Val D'adige,Italia,,46.06299,11.123631,204.0,Pasticcerie,Bar,AI-6d,AI-5b,AE-3cf,AE-3abde,AI-6p,AI-6i,AI-6fg,AE-1abc,AE-2c,AI-6r,,,,,,,,,2017-11-17 12:13:36.944,2010-02-02
578,PATELLI,730,"VIA DIETRO LE MURA A, 1",Trento,TN,Territorio Val D'adige,Italia,,46.065467,11.123148,200.0,Ristoranti,,AI-6d,AE-3cf,AE-3abde,AI-6o,AE-2b,AI-6p,AI-6l,AI-6i,AI-6fg,AI-6e,AE-1abc,AE-2a,,,,,,,2013-01-23 14:22:17.204,2013-01-22
579,PEDAVENA,729,"PIAZZA FIERA, 13",Trento,TN,Territorio Val D'adige,Italia,www.birreriapedavena.com,46.0650329,11.1232603,200.0,Bar,Ristoranti,AI-6d,AI-5b,AE-3cf,AI-6o,AI-6l,AI-6i,AI-6fg,AI-6e,AE-1abc,AE-3abde,,,,,,,,,2013-01-15 12:04:15.973,2013-01-14
580,PERLA D'ORIENTE,422,"LARGO NAZARIO SAURO, 12",Trento,TN,Territorio Val D'adige,Italia,,46.0747909,11.1248951,200.0,Rosticcerie,,AE-3cf,AE-3abde,AE-1abc,,,,,,,,,,,,,,,,2016-02-04 13:58:35.292,2010-08-23
581,PETER'S TEA HOUSE,777,"VIA GARIBALDI, 21",Trento,TN,Territorio Val D'adige,Italia,www.peters-teahouse.com,46.0673355,11.1221826,200.0,Erboristerie,,AE-3cf,AE-3abde,AE-1abc,AE-2d,,,,,,,,,,,,,,,2013-01-10 12:29:59.652,2013-01-09
582,PIADINERIA L'ANGOLO TONDO,622,"PIAZZA DELLA PORTELA, 11",Trento,TN,Territorio Val D'adige,Italia,,46.0695877,11.1184416,200.0,Fast Food,,AE-3abde,AE-1abc,AE-3cf,AE-2c,,,,,,,,,,,,,,,2016-02-02 16:00:50.329,2013-01-21
583,PIAZZA BENNY,715,"VIA LUNELLI, 18/20 - C/O PALAZZO ONDA",Trento,TN,Territorio Val D'adige,Italia,,46.0923233,11.1182721,200.0,Self Service,,AE-3cf,AE-3abde,AE-1abc,,,,,,,,,,,,,,,,2011-05-25 12:57:44,2010-08-05
584,PIAZZA CESARE BATTISTI,648,PIAZZA CESARE BATTISTI,Trento,TN,Territorio Val D'adige,Italia,,46.0691459,11.1235013,200.0,Piazza,,AE-1abc,,,,,,,,,,,,,,,,,,2019-05-03 12:14:55.429,2016-05-03
585,PIAZZA D'AROGNO,647,PIAZZA D'AROGNO,Trento,TN,Territorio Val D'adige,Italia,,46.0665666,11.121445,200.0,Piazza,,AE-1abc,,,,,,,,,,,,,,,,,,2011-05-20 13:28:12,2011-04-28
586,PIAZZA DANTE,654,PIAZZA DANTE,Trento,TN,Territorio Val D'adige,Italia,,46.072002,11.1198094,200.0,Piazza,,AE-1abc,,,,,,,,,,,,,,,,,,2017-11-17 12:20:25.592,2011-04-28
587,PIAZZA DUOMO,649,PIAZZA DUOMO,Trento,TN,Territorio Val D'adige,Italia,,46.067399,11.121235,200.0,Piazza,,AE-1abc,,,,,,,,,,,,,,,,,,2019-05-03 12:00:41.119,2016-05-03
588,PIAZZA FIERA,650,PIAZZA FIERA,Trento,TN,Territorio Val D'adige,Italia,,46.0653509,11.1243443,200.0,Piazza,,AE-1abc,AE-2g,AE-2gb,AE-2ga,,,,,,,,,,,,,,,2017-11-17 12:21:48.824,2016-05-03
589,PIAZZA HOUSE,628,"VIA DEGLI OLMI, 4",Trento,TN,Territorio Val D'adige,Italia,,46.0499886,11.131937,200.0,Self Service,,AE-3cf,AE-3abde,AE-2c,,,,,,,,,,,,,,,,2011-04-12 14:56:10,2010-06-30
590,PIAZZA LODRON,653,PIAZZA LODRON,Trento,TN,Territorio Val D'adige,Italia,,46.0679183,11.122898,200.0,Piazza,,AE-1abc,,,,,,,,,,,,,,,,,,2019-05-03 12:04:50.666,2011-04-28
591,PIAZZA PASI,651,PIAZZA PASI,Trento,TN,Territorio Val D'adige,Italia,,46.0678983,11.1222824,200.0,Piazza,,AE-1abc,,,,,,,,,,,,,,,,,,2019-05-03 12:03:53.264,2016-05-05
592,PIAZZA SANTA MARIA MAGGIORE,1386,PIAZZA SANTA MARIA MAGGIORE,Trento,TN,Territorio Val D'adige,Italia,,46.071548,11.120288,0.0,Piazza,,AE-1abc,,,,,,,,,,,,,,,,,,2017-11-16 11:32:01.033,2016-05-03
593,PIAZZALE AREA EX ZUFFO,277,VIA BERLINO,Trento,TN,Territorio Val D'adige,Italia,,46.07643,11.111,180.0,Parcheggi,,AE-1abc,,,,,,,,,,,,,,,,,,2010-12-22 14:56:01,2010-04-22
594,PICARO,241,"VIA SAN GIOVANNI, 36/2",Trento,TN,Territorio Val D'adige,Italia,,46.0688643,11.1191353,192.0,Bar,Pub,AI-6d,AE-3abde,AI-6p,AI-6fg,AE-1abc,AE-2c,AI-6bc,AI-6ad,AI-6r,AE-3cf,,,,,,,,,2013-02-01 10:26:27.333,2013-01-31
595,PIZZA AL TAGLIO - BELLA ITALIA,505,"VIA GORIZIA, 5",Trento,TN,Territorio Val D'adige,Italia,,46.0584553,11.1306202,200.0,Self Service,,AE-3cf,AE-3abde,AE-1abc,AE-2c,,,,,,,,,,,,,,,2016-02-03 10:13:18.171,2010-07-27
596,PIZZA CAVOUR,10,"VIA CAVOUR, 22",Trento,TN,Territorio Val D'adige,Italia,,46.06822,11.12039,191.0,Fast Food,,AE-3cf,AE-3abde,AE-1abc,AE-2d,AE-2c,,,,,,,,,,,,,,2016-02-02 16:52:46.557,2013-01-30
597,PIZZA E BRUSCHETTA CRISTORÉ,703,"VIA FRATELLI FONTANA, 15",Trento,TN,Territorio Val D'adige,Italia,,46.0771184,11.118218,200.0,Self Service,,AE-3cf,AE-3abde,AE-1abc,AE-2c,,,,,,,,,,,,,,,2016-02-02 16:16:08.268,2010-07-20
598,PIZZA E PIZZA,230,"VIA MADRUZZO, 76",Trento,TN,Territorio Val D'adige,Italia,,46.06403,11.12307,232.0,Fast Food,,AE-3cf,AE-3abde,AE-1abc,,,,,,,,,,,,,,,,2016-02-02 16:40:19.692,2010-03-17
599,PIZZA GRANDA,38,"VIA MANZONI, 31",Trento,TN,Territorio Val D'adige,Italia,www.pizzagranda.com,46.072857,11.124794,187.0,Fast Food,Pizzerie,AI-6d,AE-3cf,AE-3abde,AI-6i,AI-6fg,AI-6bc,AI-6ad,AE-1abc,AI-6o,AI-6p,,,,,,,,,2016-02-03 10:01:11.922,2013-01-18
600,PIZZA PAZZA D'ASPORTO,239,"VIA BRESCIA, 6",Trento,TN,Territorio Val D'adige,Italia,,46.070848,11.1126171,195.0,Fast Food,,AE-3cf,AE-3abde,AE-1abc,AE-2c,,,,,,,,,,,,,,,2016-02-02 16:42:51.526,2010-05-06
601,PIZZA SAN MICHELE,13,"VIA CAVOUR, 1",Trento,TN,Territorio Val D'adige,Italia,,46.06845,11.12004,218.0,Fast Food,,AE-3cf,AE-3abde,AE-1abc,AE-2c,,,,,,,,,,,,,,,2016-02-02 16:56:58.87,2013-01-30
602,PIZZERIA PRIMAVERA SNC,29,"VIA SUFFRAGIO, 92",Trento,TN,Territorio Val D'adige,Italia,,46.071014,11.124692,181.0,Ristoranti,Pizzerie,AI-6d,AE-3cf,AE-3abde,AI-6i,AI-6fg,AI-6bc,AI-6ad,AE-1abc,,,,,,,,,,,2016-02-09 11:01:25.516,2013-01-04
603,PIZZERIA VECCHIA TRENTO,792,"VIA SANTA CROCE, 88",Trento,TN,Territorio Val D'adige,Italia,,46.0631058,11.1236492,200.0,Ristoranti,Pizzerie,AI-6d,AI-5b,AE-3cf,AE-3abde,AI-6l,AI-6i,AI-6fg,AI-6e,AI-6bc,AI-6ad,AE-1abc,AI-6p,AI-6r,,,,,,2016-02-09 08:58:53.313,2010-06-14
604,PIZZERIA VESUVIO,739,"VIA DELLA MALVASIA, 103",Trento,TN,Territorio Val D'adige,Italia,,46.0752258,11.1250703,200.0,Ristoranti,Pizzerie,AI-6d,AI-5b,AE-3cf,AE-3abde,AI-6fg,AE-1abc,AE-2c,AI-6p,AI-6r,,,,,,,,,,2013-01-18 10:11:32.278,2010-07-29
605,PNEUS CENTER - ASSISTENZA PNEUMATICI,600,"VIA DEL BRENNERO, 18",Trento,TN,Territorio Val D'adige,Italia,,46.0922711,11.1158902,200.0,Riparazione Autovetture,,AE-3cf,AE-3abde,,,,,,,,,,,,,,,,,2011-04-08 15:20:44,2010-08-06
606,PNEUS CENTER - ASSISTENZA PNEUMATICI,704,"VIA BRENNERO, 19",Trento,TN,Territorio Val D'adige,Italia,www.pneuscentertrento.it,46.0932177,11.1112298,200.0,Riparazione Autovetture,,,,,,,,,,,,,,,,,,,,2011-05-25 09:42:25,2010-08-06
607,POLIAMBULATORI CROSINA SARTORI,246,"VIA GOCCIADORO, 82",Trento,TN,Territorio Val D'adige,Italia,www.apss.tn.it,46.055434,11.1321065,180.0,Ambulatori Medici,,AI-6d,AI-5fb,AI-5fa,AI-5f,AE-3cf,AE-3abde,AI-6p,AI-6o,AI-6l,AI-6i,AI-6fg,AI-6e,AI-6bc,AI-6ad,AE-1abc,AE-2d,,,2010-05-10 23:19:42,2010-04-13
608,POSTE ITALIANE CENTRALI (postamat),48,"VIA CALEPINA, 18",Trento,TN,Territorio Val D'adige,Italia,www.posteitaliane.it,46.06725,11.12367,199.0,Postamat,,AE-4h,AE-1abc,AE-2d,,,,,,,,,,,,,,,,2017-11-20 09:49:50.013,2009-11-12
609,POSTE ITALIANE CENTRALI (uffici),49,"PIAZZA VITTORIA ALESSANDRO, 20",Trento,TN,Territorio Val D'adige,Italia,www.posteitaliane.it,46.06725,11.12367,199.0,Uffici Postali,,AE-3cf,AE-3abde,AE-1abc,AE-2d,,,,,,,,,,,,,,,2017-11-20 10:03:30.837,2013-01-15
610,POSTE ITALIANE TRENTO 1,563,"VIA TRENER, 5",Trento,TN,Territorio Val D'adige,Italia,www.poste.it,46.0953376,11.1179059,200.0,Uffici Postali,,AE-3cf,AE-3abde,AE-1abc,AE-2d,,,,,,,,,,,,,,,2013-08-19 11:30:52.038,2010-07-08
611,POSTE ITALIANE TRENTO 2,224,"VIA GAZZOLETTI, 43",Trento,TN,Territorio Val D'adige,Italia,www.posteitaliane.it,46.0716107,11.1228924,200.0,Uffici Postali,,AE-3cf,AE-1abc,AE-3abde,,,,,,,,,,,,,,,,2013-08-19 11:33:45.954,2013-01-17
612,POSTE ITALIANE TRENTO 3,768,"VIALE VERONA, 1",Trento,TN,Territorio Val D'adige,Italia,,46.0617076,11.1316072,200.0,Uffici Postali,,AE-3cf,AE-3abde,AE-1abc,AE-2a,,,,,,,,,,,,,,,2013-08-19 11:34:15.737,2010-05-17
613,POSTE ITALIANE TRENTO 4,564,"VIA SCOPOLI, 53",Trento,TN,Territorio Val D'adige,Italia,www.poste.it,46.0758587,11.1181214,200.0,Uffici Postali,,AE-3cf,AE-3abde,AE-1abc,AE-2d,,,,,,,,,,,,,,,2013-08-19 11:31:24.139,2010-07-08
614,POSTE ITALIANE TRENTO 9,307,"Via Muredei, 8",Trento,TN,Territorio Val D'adige,Italia,www.poste.it,46.0568666,11.1181927,180.0,Uffici Postali,,AE-3cf,AE-3abde,AE-1abc,AE-2d,,,,,,,,,,,,,,,2013-08-19 11:34:46.533,2010-05-25
615,POSTE ITALIANE TRENTO,592,"VIA CHINI, 4",Trento,TN,Territorio Val D'adige,Italia,www.poste.it,46.0533425,11.1327931,200.0,Uffici Postali,,AE-3cf,AE-3abde,,,,,,,,,,,,,,,,,2013-08-19 11:32:06.58,2010-05-17
616,POSTE ITALIANE TRENTO,594,"VIA DEGASPERI, 88",Trento,TN,Territorio Val D'adige,Italia,www.poste.it,46.0500361,11.123859,200.0,Uffici Postali,,AE-3cf,AE-3abde,,,,,,,,,,,,,,,,,2013-08-19 11:32:39.952,2010-05-17
617,POSTE ITALIANE,225,"VIA GAZZOLETTI, 43",Trento,TN,Territorio Val D'adige,Italia,www.posteitaliane.it,46.0716107,11.1228924,200.0,Postamat,,AE-4h,AE-1abc,,,,,,,,,,,,,,,,,2013-01-11 11:29:28.363,2010-03-09
618,POSTE ITALIANE,306,"Via Muredei, 8",Trento,TN,Territorio Val D'adige,Italia,,46.0568666,11.1181927,180.0,Postamat,,AE-4h,AE-1abc,AE-2d,,,,,,,,,,,,,,,,2010-12-17 15:06:22,2010-05-25
619,PREMIATA FIORERIA DE BONI,1072,"VIA POZZO, 7",Trento,TN,Territorio Val D'adige,Italia,,46.06983,11.11984,0.0,Attivita commerciali,,AE-3abde,AE-3cf,,,,,,,,,,,,,,,,,2013-03-11 15:40:01.969,2010-09-10
620,PRESIDIO OSPEDALIERO DI VILLA IGEA,252,"VIA MALTA, 16",Trento,TN,Territorio Val D'adige,Italia,www.apss.tn.it,46.0622151,11.12813878,180.0,Ospedali,,AI-6d,AI-5fb,AI-5f,AE-3cf,AE-3abde,AI-6p,AI-6l,AI-6fg,AI-6e,AI-6bc,AI-6ad,AE-1abc,AE-2b,AE-2a,AI-5fa,AI-6i,AI-6r,,2013-05-23 14:49:10.852,2010-04-27
621,PRESTO SERVICE,419,"PIAZZA LODRON, 21",Trento,TN,Territorio Val D'adige,Italia,,46.0679145,11.123204,200.0,Attivita commerciali,,AE-3cf,AE-3abde,AE-1abc,AE-2d,,,,,,,,,,,,,,,2013-01-07 14:46:34.589,2013-01-04
622,PRODIGIO ONLUS,790,"VIA GRAMSCI, 46/A",Trento,TN,Territorio Val D'adige,Italia,www.prodigio.it,46.0533996,11.1257565,200.0,Associazioni,,AI-6d,AE-3cf,AE-3abde,AI-6o,AI-6i,AI-6fg,AI-6bc,AI-6ad,AE-1abc,AI-6p,,,,,,,,,2018-01-18 14:43:04.916,2010-07-13
623,PROGETTO GRANDI OPERE CIVILI,664,"VIA ROMAGNOSI,"" 9 - C/O CENTRO EUROPA",Trento,TN,Territorio Val D'adige,Italia,www.provincia.tn.it,46.0732112,11.1218254,200.0,Uffici Pubblici,,AI-6d,AE-3cf,AE-3abde,AI-6o,AI-6l,AI-6i,AI-6fg,AI-6e,AI-6bc,AI-6ad,AE-2gb,AE-2ga,AE-2g,AE-2d,AE-2a,,,,2011-05-23 09:32:10,2010-07-23
624,PRONTO PIZZA,421,"VIA CHINI, 33",Trento,TN,Territorio Val D'adige,Italia,,46.0534649,11.1320828,200.0,Self Service,Pizzerie,AE-3cf,AE-3abde,AE-2c,,,,,,,,,,,,,,,,2016-02-02 15:51:44.013,2010-08-23
625,PRONTO SOCCORSO OSPEDALE SANTA CHIARA DI TRENTO,673,"VIA PAOLO ORSI, 1",Trento,TN,Territorio Val D'adige,Italia,www.apss.tn.it,46.056645,11.1313576,200.0,Ospedali,,AE-3cf,AE-3abde,AI-6o,AI-6l,AI-6i,AI-6fg,AI-6e,AI-6bc,AI-6ad,,,,,,,,,,2017-11-20 10:07:30.951,2010-04-13
626,PROVINCIA - SALA VERDE,743,"VIA ROMAGNOSI,"" 11/A C/O CENTRO EUROPA",Trento,TN,Territorio Val D'adige,Italia,wwww.provincia.tn.it,46.0731212,11.122093,200.0,Uffici Pubblici,Centri e sale culturali,AI-6d,AE-3cf,AE-3abde,AI-6o,AI-6l,AI-6i,AI-6fg,AI-6e,,,,,,,,,,,2011-05-26 13:29:27,2010-07-28
627,PUB ALLA POSTA,569,"VIA ROCCABRUNA, 2",Trento,TN,Territorio Val D'adige,Italia,,46.06642,11.123271,200.0,Bar,Pub,AI-6d,AE-3cf,AE-3abde,AI-6p,AI-6fg,AI-6e,AE-1abc,AE-2c,AI-6r,AI-6l,,,,,,,,,2013-01-16 09:07:21.392,2013-01-15
628,PUB BOSTON,570,"VIA SAN FRANCESCO D'ASSISI, 8/1",Trento,TN,Territorio Val D'adige,Italia,,46.0669882,11.1260981,200.0,Bar,Pub,AI-5d,AE-3cf,AE-3abde,AI-6p,AI-6l,AI-6i,AI-6e,AE-1abc,AI-6fg,AI-6r,AI-6d,,,,,,,,2013-02-01 08:43:12.555,2013-01-14
629,PUNTO OTTICA SNC - OTTICA E OPTOMETRIA,550,"VIA SANTA CROCE, 54",Trento,TN,Territorio Val D'adige,Italia,,46.0638654,11.1234826,200.0,Ottica,,AE-3cf,AE-3abde,AE-1abc,,,,,,,,,,,,,,,,2011-04-07 14:40:57,2010-07-01
630,Panificio - Dolcesalato,489,"Via Giovanelli, 33",Trento,TN,Territorio Val D'adige,Italia,,46.064276,11.1312471,200.0,Panifici,,AE-3cf,AE-3abde,AE-1abc,,,,,,,,,,,,,,,,2010-09-21 12:21:36,2010-07-14
631,Panificio J. Lemayr,382,"Via S. Croce, 28",Trento,TN,Territorio Val D'adige,Italia,,46.0643573,11.1233572,200.0,Panifici,,AI-5c,AE-3abde,AE-1abc,,,,,,,,,,,,,,,,2010-08-10 12:53:55,2010-06-14
632,Panificio Janes,493,"VIa Piave, 72",Trento,TN,Territorio Val D'adige,Italia,,46.0625758,11.1262886,200.0,Panifici,,AE-3cf,AE-3abde,AE-1abc,,,,,,,,,,,,,,,,2010-09-21 12:44:26,2010-07-14
633,Panificio Janes,496,"Via Perini, 177",Trento,TN,Territorio Val D'adige,Italia,,46.0608372,11.1242107,200.0,Panifici,,AE-3cf,AE-3abde,AE-1abc,AE-2c,,,,,,,,,,,,,,,2010-09-21 13:27:35,2010-07-14
634,Panificio Janes,503,"Via Gorizia, 27",Trento,TN,Territorio Val D'adige,Italia,,46.0588502,11.1308227,200.0,Pub,,AE-3cf,AE-3abde,AI-6e,AI-6ad,AE-1abc,AE-2g,AE-2c,,,,,,,,,,,,2010-09-21 14:15:43,2010-07-27
635,Panificio SOSI,499,"Via Bolghera, 61",Trento,TN,Territorio Val D'adige,Italia,,46.0579905,11.1322987,200.0,Panifici,,AE-3cf,AE-3abde,AE-1abc,AE-2d,,,,,,,,,,,,,,,2010-09-21 13:49:14,2010-07-27
636,Pizza e Pizza,491,"Via San Bernardino, 24",Trento,TN,Territorio Val D'adige,Italia,,46.064006,11.1302953,200.0,Self Service,Pizzerie,AE-3cf,AE-3abde,AE-1abc,AE-2c,,,,,,,,,,,,,,,2016-02-09 09:33:46.149,2010-07-14
637,Pizzeria G.B.,498,"Via Sant'Antonio, 11/17",Trento,TN,Territorio Val D'adige,Italia,,46.0576784,11.1302625,200.0,Pizzerie,,AI-6d,AE-3cf,AE-3abde,AI-6fg,AI-6bc,AI-6ad,AE-1abc,AE-2c,AI-6r,,,,,,,,,,2016-02-09 09:05:27.455,2010-07-27
638,Poliambulatorio Infermieristico ,465,"Via Bronzetti, 1",Trento,TN,Territorio Val D'adige,Italia,www.comune.tn.it,46.059684,11.1208812,200.0,Ambulatori Medici,,AI-6d,AE-3cf,AE-3abde,AI-6l,AI-6fg,AI-6e,AI-6bc,AI-6ad,AE-1abc,AE-2d,AE-2a,,,,,,,,2010-09-09 14:47:34,2010-05-25
639,Polo sociale San Giuseppe - San Chiara - Ravina - Romagnano,184,"Via Fratelli Bronzetti, 1",Trento,TN,Territorio Val D'adige,Italia,www.comune.trento.it,46.059614,11.121091,181.0,Uffici Pubblici,,AI-6d,AE-3cf,AE-3abde,AI-6p,AI-6o,AI-6l,AI-6i,AI-6fg,AI-6e,AI-5fb,AI-5fa,AE-2d,AE-2b,AE-1abc,AI-5f,AE-2a,,,2018-01-22 10:00:35.863,2017-12-19
640,RETTORATO UNIVERSITA' DI TRENTO,740,"VIA CALEPINA, 14",Trento,TN,Territorio Val D'adige,Italia,www.unitn.it,46.069451,11.120878,200.0,Uffici Pubblici,Scuole e universita,AI-6d,AE-3cf,AI-6l,AI-6fg,AE-2a,AI-6r,AI-6i,AI-6e,AE-1abc,AE-2d,AI-5c,AE-3abde,,,,,,,2015-05-11 15:20:44.71,2015-05-05
641,REX CAFFE',36,"VIA OSS MAZZURANA, 41",Trento,TN,Territorio Val D'adige,Italia,,46.06886,11.12246,200.0,Bar,,AI-6d,AE-3cf,AE-3abde,AI-6fg,AI-6bc,AI-6ad,AE-2c,,,,,,,,,,,,2016-02-03 10:36:58.899,2013-01-10
642,RISTO 3 GIULIA,727,"VIA GAZZOLETTI, 15",Trento,TN,Territorio Val D'adige,Italia,www.risto3.it,46.0723868,11.1225131,200.0,Ristoranti,Bar,AI-6d,AI-5d,AE-3cf,AE-3abde,AI-6o,AI-6l,AI-6i,AI-6fg,AI-6e,AE-1abc,AE-2d,,,,,,,,2016-02-02 16:28:42.569,2010-07-29
643,RISTOBAR HAPPY HOUR S.A.S.,191,"VIA PERINI, 57",Trento,TN,Territorio Val D'adige,Italia,,46.05995,11.12047,218.0,Ristoranti,Bar,AI-6d,AI-6p,AI-6l,AI-6fg,AI-6e,AI-6bc,AI-6ad,AE-1abc,AI-6r,AE-3abde,AE-3cf,,,,,,,,2016-02-09 09:14:05.719,2010-02-09
644,RISTORANTE AL VO',753,"VICOLO DEL VO', 11",Trento,TN,Territorio Val D'adige,Italia,www.ristorantealvo.it,46.0707624,11.1240275,200.0,Ristoranti,Bar,AI-5b,AE-3cf,AE-3abde,AE-1abc,AI-6fg,AI-6bc,AI-6ad,AI-6d,AI-6r,,,,,,,,,,2016-02-09 16:12:56.384,2013-01-30
645,RISTORANTE ANTICA TRATTORIA 2 MORI,88,"VIA SAN MARCO, 11",Trento,TN,Territorio Val D'adige,Italia,www.ristoranteduemori.com,46.070279,11.125025,190.0,Ristoranti,Osterie / Trattorie,AI-6d,AI-5b,AE-3cf,AE-3abde,AI-6i,AI-6fg,AI-6ad,AE-1abc,AI-6bc,,,,,,,,,,2017-11-20 10:10:14.03,2013-01-25
646,RISTORANTE PIZZERIA ALLA MOSTRA,6,"PIAZZA MOSTRA, 13",Trento,TN,Territorio Val D'adige,Italia,www.allamostra.it,46.07119,11.12599,202.0,Ristoranti,Pizzerie,AI-6d,AE-3cf,AE-3abde,AI-6l,AI-6i,AI-6fg,AI-6e,AI-6bc,AI-6ad,AE-1abc,,,,,,,,,2016-02-09 10:48:07.478,2013-01-04
647,RISTORANTE PIZZERIA PETRARCA,567,"VIA PETRARCA, 4",Trento,TN,Territorio Val D'adige,Italia,,46.0751525,11.1237391,200.0,Ristoranti,Pizzerie,AI-6d,AI-5b,AE-3cf,AE-3abde,AI-6p,AI-6i,AI-6fg,AI-6bc,AI-6ad,AE-1abc,AE-2c,AI-6r,,,,,,,2013-01-14 12:13:53.141,2010-07-07
648,RISTORANTE PIZZERIA ROSA D'ORO,17,"PIAZZA SANTA MARIA MAGGIORE, 21",Trento,TN,Territorio Val D'adige,Italia,www.ristoranterosadoro.com,46.068368,11.119688,187.0,Ristoranti,Pizzerie,AI-6d,AE-3cf,AE-3abde,AI-6l,AI-6fg,AI-6e,AI-6bc,AI-6ad,AE-1abc,AE-2d,AI-6r,AI-5c,,,,,,,2013-06-06 15:11:22.926,2013-01-21
649,ROBIN,31,"PIAZZA BATTISTI, 25",Trento,TN,Territorio Val D'adige,Italia,,46.06928,11.12368,247.0,Gelaterie,,AE-3cf,AE-3abde,AE-1abc,,,,,,,,,,,,,,,,2016-02-01 12:14:33.406,2013-02-28
650,ROSTICCERIA MOSNA,552,"VIA MANZONI, 21",Trento,TN,Territorio Val D'adige,Italia,,46.0741903,11.1249231,200.0,Rosticcerie,,AE-3cf,AE-3abde,AE-1abc,,,,,,,,,,,,,,,,2011-04-08 08:05:31,2010-07-02
651,ROSTICCERIA RISTORANTE WEEK END,561,"VIA FRATELLI FONTANA, 47",Trento,TN,Territorio Val D'adige,Italia,,46.0766586,11.1203543,200.0,Rosticcerie,,AE-3cf,AE-3abde,AE-1abc,AE-2c,,,,,,,,,,,,,,,2011-04-08 09:00:05,2010-07-07
652,RSA - CASA DI RIPOSO,494,"Via Vittorio Veneto, 63",Trento,TN,Territorio Val D'adige,Italia,www.spestrento.it,46.0591876,11.1249458,200.0,Strutture Residenziali,,AI-6d,AI-5fb,AI-5fa,AI-5f,AE-3cf,AE-3abde,AI-6p,AI-6l,AI-6e,AE-1abc,AE-2d,AE-2a,,,,,,,2010-09-21 13:01:14,2010-07-14
653,RSA CASA FAMIGLIA,577,"VIA BORSIERI, 5",Trento,TN,Territorio Val D'adige,Italia,www.spestrento.it,46.0654468,11.120493,200.0,Strutture Residenziali,,AE-3cf,AI-6p,AI-6o,AI-6l,AI-6i,AI-6fg,AE-1abc,AE-2a,AE-3abde,AI-6e,AI-6d,AE-2g,AE-2gb,AE-2ga,,,,,2013-02-01 16:15:45.672,2013-01-30
654,RSA DI SAN BARTOLOMEO,791,"VIA DELLA MALPENSADA, 156",Trento,TN,Territorio Val D'adige,Italia,www.civicatnapsp.it,46.0454272,11.1324852,200.0,Strutture Residenziali,,AI-6d,AI-5fb,AI-5fa,AI-5f,AE-3cf,AE-3abde,AI-6o,AI-6l,AI-6i,AI-6fg,AI-6e,AI-6bc,AI-6ad,AE-1abc,AE-2gb,AE-2ga,AE-2g,AE-2a,2011-05-30 13:23:23,2010-08-12
655,RSA SOGGIORNO ANZIANI,775,"VIA PIAVE, 108",Trento,TN,Territorio Val D'adige,Italia,www.rsa.iaps.tn.it,46.0641212,11.127659,200.0,Strutture Residenziali,,AE-3cf,AE-3abde,AE-1abc,AE-2d,,,,,,,,,,,,,,,2011-05-27 14:18:55,2010-07-14
656,Rai Radiotelevisione Italiana Spa,497,"Via Perini, 53",Trento,TN,Territorio Val D'adige,Italia,www.tgr.rai.it,46.0600961,11.1205041,200.0,Uffici Pubblici,,AE-3cf,AE-3abde,AE-1abc,AE-2d,,,,,,,,,,,,,,,2010-09-21 13:33:00,2010-07-14
657,S. ANTONIO ERBORISTERIA S.N.C.,764,"VIA SUFFRAGIO, 91",Trento,TN,Territorio Val D'adige,Italia,,46.0702444,11.1246354,200.0,Erboristerie,,AE-3cf,AE-3abde,AE-1abc,,,,,,,,,,,,,,,,2013-01-07 12:02:27.527,2013-01-04
658,S.A.S.S. Spazio Archeologico Sotterraneo del Sas,411,Piazza Cesare Battisti,Trento,TN,Territorio Val D'adige,Italia,www.trentocultura.net,46.0694564,11.1234495,200.0,Musei,,AI-6d,AI-6fg,AI-5fa,AI-6r,AI-6i,AI-5fb,AI-5f,AE-2b,AE-1abc,AE-3abde,AE-3cf,AE-2a,,,,,,,2016-12-30 11:58:10.012,2010-08-18
659,"SALA CALEPINI - CAMERA DI COMMERCIO, INDUSTRIA, ARTIGIANATO E AGRICOLTURA",204,"VIA CALEPINA, 13",Trento,TN,Territorio Val D'adige,Italia,,46.0669328,11.1228213,195.0,Edifici Storici,,AI-6d,AI-5fa,AI-5f,AE-3cf,AE-3abde,AI-6fg,AI-6e,AE-2d,AI-5fb,AI-6r,AI-5c,AI-6l,AI-6p,AE-1abc,,,,,2016-05-03 15:05:28.528,2013-01-10
660,SALA CONFERENZA C/O CENTRO CULTURALE SANTA CHIARA,148,"VIA SANTA CROCE, 67",Trento,TN,Territorio Val D'adige,Italia,,46.0638997,11.1234869,230.0,Centri e sale culturali,,AI-6d,AI-5g,AI-5f,AE-3cf,AI-6l,AI-6i,AI-6e,AE-1abc,AE-2d,AI-6fg,AE-3abde,,,,,,,,2013-01-07 14:33:33.364,2010-01-21
661,SALA CONFERENZE C/O OSPEDALE SAN CAMILLO,251,VIA BONELLI,Trento,TN,Territorio Val D'adige,Italia,www.sancamillo.com,46.0646823,11.1324542,190.0,Centri e sale culturali,,AI-6d,AI-5fb,AI-5fa,AI-5f,AE-3abde,AI-6p,AI-6o,AI-6l,AI-6i,AI-6fg,AI-6e,AE-1abc,AE-2d,,,,,,2017-11-20 10:12:11.287,2010-04-27
662,SALA DEGASPERI - CONSORZIO COMUNI TRENTINI,1524,"VIA TORRE VERDE, 23",Trento,TN,Territorio Val D'adige,Italia,,46.070833,11.122478,0.0,Centri e sale culturali,,AI-6fg,AI-6l,AI-6e,AI-6d,AI-5c,AI-5fb,AI-5fa,AI-5f,AE-3cf,AE-3abde,AE-2a,AE-2b,AE-1abc,,,,,,2021-02-15 16:10:30.735,2016-11-09
663,SALA DON GUETTI C/O CASSA CENTRALE CASSE RURALI TRENTINE - SALA DON GUETTI,126,"VIA VANNETTI, 8",Trento,TN,Territorio Val D'adige,Italia,www.cassacentrale.it,46.0748154,11.1233465,150.0,Centri e sale culturali,,AI-6d,AE-3cf,AE-3abde,AI-6i,AI-6fg,AI-6e,AE-1abc,AI-6l,,,,,,,,,,,2013-01-07 12:21:01.761,2009-12-10
664,SALA POLIVALENTE C/O CENTRO S. VIGILIO DI MATTARELLO,1486,"VIA G. POLI, 4",Trento,TN,Territorio Val D'adige,Italia,,46.006065,11.128441,0.0,Centri e sale culturali,,AI-6r,AI-6ad,AI-6l,AI-6i,AI-6fg,AI-6e,AI-6d,AE-3cf,AE-3abde,AE-2d,AE-1abc,,,,,,,,2018-07-13 14:19:30.47,2016-11-02
665,SAMUELE COOPERATIVA SOCIALE - punto vendita,97,"VIA S. MARCO, 18",Trento,TN,Territorio Val D'adige,Italia,www.samuele-cooperativa.it,46.07017,11.12479,142.0,Attivita commerciali,Cooperative e Laboratori Sociali,AE-3cf,AE-3abde,AE-1abc,AE-2c,,,,,,,,,,,,,,,2018-01-05 15:45:25,2013-01-25
666,SANBAPOLIS,1298,"VIA MALPENSADA, 90",Trento,TN,Territorio Val D'adige,Italia,www.sanbapolis.it,46.04583,11.132851,0.0,Impianti Sportivi,Centri e sale culturali,AE-4h,AE-3abde,AI-5fb,AI-6fg,AI-5fa,AI-6bc,AE-2d,AE-1abc,AI-6r,AI-6i,AI-5f,AI-6l,AI-6e,AE-3cf,AI-6p,AI-6d,AI-6ad,,2017-11-20 10:23:51.469,2013-11-18
667,SANIT SERVICE SRL,345,"VIA GRAZIOLI, 18",Trento,TN,Territorio Val D'adige,Italia,,46.0671185,11.1285404,180.0,Ortopedie e Sanitarie,,AI-5c,AE-3cf,AE-3abde,AE-1abc,AE-2c,,,,,,,,,,,,,,2010-06-22 12:12:42,2010-05-25
668,SANITARIA ORTOPEDIA,340,"VIA GOCCIADORO, 74/76",Trento,TN,Territorio Val D'adige,Italia,,46.0559475,11.1317727,180.0,Ortopedie e Sanitarie,,AE-3cf,AE-3abde,,,,,,,,,,,,,,,,,2010-06-16 14:36:41,2010-05-17
669,SCRIGNO DEL DUOMO c/o PALAZZO BALDUINI,734,"PIAZZA DUOMO, 29",Trento,TN,Territorio Val D'adige,Italia,www.scrignodelduomo.com,46.0673872,11.1209909,200.0,Ristoranti,Bar,AI-6d,AI-5b,AE-3cf,AE-3abde,AI-6l,AI-6i,AI-6fg,AI-6e,AE-1abc,AE-2d,AI-6r,AI-6p,,,,,,,2016-02-10 16:54:43.843,2013-01-16
670,SCUOLA TRIDENTUM SRL,66,"VIA OSS MAZZURANA, 8",Trento,TN,Territorio Val D'adige,Italia,www.scuolatridentum.it,46.0695,11.12269,200.0,Centri e sale culturali,,AI-6d,AI-5c,AE-3cf,AE-3abde,AI-6fg,AI-6ad,AE-1abc,AE-2ga,AE-2g,AE-2b,AE-2a,AI-6bc,,,,,,,2017-11-20 10:24:54.772,2013-01-14
671,SEGRETERIA GENERALE DELLA PROVINCIA AUTONOMA DI TRENTO,581,"PIAZZA DANTE, 16",Trento,TN,Territorio Val D'adige,Italia,www.provincia.tn.it,46.072283,11.1207961,200.0,Uffici Pubblici,,AI-6d,AI-5fb,AI-5fa,AI-5f,AE-3cf,AE-3abde,AI-6p,AI-6o,AI-6l,AI-6i,AI-6fg,AI-6e,AE-1abc,,,,,,2011-04-08 13:45:10,2010-06-30
672,SERE E STEFI s.n.c - BAR GELATERIA TORRE VERDE,5,"VIA SUFFRAGIO, 2",Trento,TN,Territorio Val D'adige,Italia,,46.07205,11.12512,225.0,Bar,,AI-6d,AI-5c,AE-3cf,AI-6l,AI-6i,AI-6fg,AI-6e,AI-6bc,AI-6ad,AE-1abc,AE-2d,AE-3abde,,,,,,,2016-02-03 10:29:57.005,2013-01-10
673,SERVIZIO ATTIVITA' CULTURALI ,663,"VIA ROMAGNOSI,"" 5 - C/O CENTRO EUROPA",Trento,TN,Territorio Val D'adige,Italia,www.provincia.tn.it,46.073377,11.121332,200.0,Uffici Pubblici,,AI-6d,AE-3cf,AE-3abde,AI-6o,AI-6l,AI-6i,AI-6fg,AI-6e,AE-2d,AE-2a,,,,,,,,,2011-05-23 09:24:15,2010-07-23
674,SERVIZIO AUTONOMIE LOCALI,688,"VIA ROMAGNOSI,"" 11/A C/O CENTRO EUROPA",Trento,TN,Territorio Val D'adige,Italia,wwww.provincia.tn.it,46.0731212,11.122093,200.0,Uffici Pubblici,,AI-6d,AE-3cf,AE-3abde,AI-6o,AI-6l,AI-6i,AI-6fg,AI-6e,AE-2gb,AE-2ga,AE-2g,AE-2a,,,,,,,2011-05-24 13:13:40,2010-07-23
675,SERVIZIO CONSERVAZIONE DELLA NATURA E VALORIZZAZIONE AMBIENTALE,679,"VIA GUARDINI, 75",Trento,TN,Territorio Val D'adige,Italia,www.provincia.tn.it,46.094576,11.1176606,200.0,Uffici Pubblici,,AI-6d,AI-5fb,AI-5fa,AI-5f,AE-3cf,AE-3abde,AI-6fg,AI-6e,AE-1abc,AE-2a,AI-6r,,,,,,,,2013-01-15 20:28:54.361,2010-07-16
676,SERVIZIO GESTIONE STRADE,693,"VIA GAZZOLETTI, 33 - PALAZZO GIULIA",Trento,TN,Territorio Val D'adige,Italia,wwww.provincia.tn.it,46.0719662,11.1222284,200.0,Uffici Pubblici,,AI-6d,AI-5fb,AI-5fa,AI-5f,AE-3cf,AE-3abde,AI-6o,AI-6l,AI-6i,AI-6fg,AI-6e,AE-1abc,AE-2d,AE-2a,,,,,2013-01-17 10:53:01.751,2013-01-14
677,SERVIZIO MINERARIO,687,"VIA TRENER, 3 TORRINO",Trento,TN,Territorio Val D'adige,Italia,wwww.provincia.tn.it,46.0948131,11.1152147,200.0,Uffici Pubblici,,AI-6d,AI-5fb,AI-5fa,AI-5f,AE-3cf,AE-3abde,AI-6o,AI-6l,AI-6i,AI-6fg,AI-6e,AE-1abc,AE-2a,,,,,,2011-05-24 13:05:34,2010-07-16
678,SERVIZIO OPERE AMBIENTALI (APOP),1059,"VIA S. GIOVANNI, 36",Trento,TN,Territorio Val D'adige,Italia,www.provincia.tn.it,46.068802,11.119041,0.0,Uffici Pubblici,,AI-5fb,AI-5fa,AE-1abc,AI-6i,AI-5d,AI-5c,AI-5f,AE-2a,AE-3cf,AI-6d,AI-6p,AI-6e,AE-3abde,AI-6fg,AI-6r,AI-6l,AI-6bc,AI-6ad,2017-11-20 10:26:33.813,2013-02-19
679,SERVIZIO PER LA PROMOZIONE DELLE MINORANZE LINGUISTICHE LOCALI,690,"PIAZZA DANTE, 15",Trento,TN,Territorio Val D'adige,Italia,www.minoranzelinguistiche.provincia.tn.it,46.072336,11.120972,200.0,Uffici Pubblici,,AI-6d,AI-5fb,AI-5fa,AI-5f,AE-3cf,AE-3abde,AI-6l,AI-6i,AI-6e,AI-6bc,AI-6ad,AE-1abc,AE-2a,AI-6fg,AI-6o,AI-5c,AE-2d,AE-2b,2013-03-05 09:48:57.273,2013-03-04
680,SERVIZIO POLITICHE SOCIALI E ABITATIVE,682,"VIA ZAMBRA, 42 TORRE B SUD TOP CENTER",Trento,TN,Territorio Val D'adige,Italia,wwww.provincia.tn.it,46.0915976,11.1170217,200.0,Uffici Pubblici,,AI-6d,AI-5fb,AI-5fa,AI-5f,AE-3cf,AE-3abde,AI-6o,AI-6l,AI-6i,AI-6fg,AI-6e,AE-1abc,AE-2d,AE-2a,,,,,2011-05-23 14:15:42,2010-06-09
681,SERVIZIO PREVENZIONE RISCHI,681,"VIA ZAMBRA, 42 TORRE B SUD TOP CENTER",Trento,TN,Territorio Val D'adige,Italia,www.provincia.tn.it,46.0915976,11.1170217,200.0,Uffici Pubblici,,AI-6d,AI-5fb,AI-5fa,AI-5f,AE-3cf,AE-3abde,AI-6o,AI-6l,AI-6i,AI-6fg,AI-6e,AE-1abc,AE-2d,AE-2a,,,,,2011-05-23 13:56:43,2010-06-09
682,SERVIZIO TRASPORTI PUBBLICI,641,"VIA VANNETTI, 32",Trento,TN,Territorio Val D'adige,Italia,www.provincia.tn.it,46.0721708,11.1215888,200.0,Uffici Pubblici,,AI-6d,AI-5fb,AI-5fa,AI-5f,AI-5c,AE-3cf,AE-3abde,AI-6p,AI-6o,AI-6l,AI-6i,AI-6fg,AI-6e,AI-6bc,AI-6ad,AE-1abc,AE-2d,AE-2a,2011-05-11 10:39:46,2010-07-23
683,SERVIZIO UTILIZZAZIONE DELLE ACQUE PUBBLICHE,672,"PIAZZA SILVIO PELLICO, 8",Trento,TN,Territorio Val D'adige,Italia,www.suap.provincia.tn.it,46.0718978,11.1237939,200.0,Uffici Pubblici,,AE-3cf,AE-3abde,AE-1abc,AE-2d,AE-2a,,,,,,,,,,,,,,2013-01-17 10:54:28.166,2013-01-14
684,SIAPAT - SINDACATO INQUILINI ED ASSEGNATORI,695,"VIA VENETO, 24",Trento,TN,Territorio Val D'adige,Italia,,46.0579773,11.1203449,200.0,Associazioni,,AI-6d,AI-5fa,AI-5f,AE-3cf,AE-3abde,AI-6fg,AI-6e,AI-6bc,AI-6ad,AE-1abc,AE-2a,AI-6r,,,,,,,2013-01-15 20:19:18.004,2010-07-16
685,SNOW PARK MONTE BONDONE,1325,LOCALITA' NORGE,Trento,TN,Territorio Val D'adige,Italia,www.discovertrento.it,46.045603,11.065887,0.0,Impianti Sportivi,,,,,,,,,,,,,,,,,,,,2017-11-20 10:46:22.622,2013-12-04
686,SOCIETA' FILARMONICA DI TRENTO,635,"VIA VERDI, 30",Trento,TN,Territorio Val D'adige,Italia,www.filarmonica-trento.it,46.0668514,11.1204127,200.0,Associazioni,Centri e sale culturali,AI-6d,AI-5fb,AI-5fa,AI-5f,AE-3cf,AE-3abde,AI-6p,AI-6l,AI-6i,AI-6fg,AI-6e,AI-6bc,AI-6ad,AI-6r,AE-1abc,,,,2019-05-03 11:50:20.824,2016-05-03
687,SOSAT - Associazione Alpinisti Trentini,328,"Via Malpaga, 17 ",Trento,TN,Territorio Val D'adige,Italia,www.sosat.it,46.0683547,11.123475,180.0,Associazioni,,AI-6d,AE-3abde,AI-6fg,AE-2c,AI-5fb,AI-5fa,AI-5f,AE-3cf,AE-2a,AI-6ad,AI-6p,AI-6bc,AI-6r,,,,,,2019-05-03 11:34:19.251,2013-02-28
688,SOSI ,548,"CORSO 3 NOVEMBRE, 38",Trento,TN,Territorio Val D'adige,Italia,,46.0621807,11.1238426,200.0,Panifici,,AE-3cf,AE-3abde,AE-1abc,,,,,,,,,,,,,,,,2011-04-07 14:31:03,2010-07-01
689,SOSI L'ARTE DEL PANE,610,"VIA ANTONIO ROSMINI, 20",Trento,TN,Territorio Val D'adige,Italia,www.panificiososi.net,46.06795,11.118717,200.0,Panifici,,AE-3cf,AE-2c,AE-3abde,AE-1abc,,,,,,,,,,,,,,,2013-01-21 16:49:52.118,2013-01-21
690,SOSI SRL,774,"PIAZZA VENEZIA, 10",Trento,TN,Territorio Val D'adige,Italia,,46.0698359,11.1278498,200.0,Panifici,,AE-3abde,AE-1abc,AI-5b,AE-3cf,,,,,,,,,,,,,,,2013-01-16 14:35:11.804,2013-01-16
691,SOSI,423,"GALLERIA TIRRENA, 1",Trento,TN,Territorio Val D'adige,Italia,www.panificiososi.net,46.0684498,11.1213801,200.0,Panifici,,AE-3cf,AE-3abde,AE-1abc,,,,,,,,,,,,,,,,2013-01-16 09:16:08.543,2013-01-15
692,SOSI,555,"VIA SUFFRAGIO, 78",Trento,TN,Territorio Val D'adige,Italia,,46.0709282,11.1247819,200.0,Panifici,,AE-2d,AE-1abc,AE-3abde,,,,,,,,,,,,,,,,2013-01-08 08:46:01.019,2013-01-04
693,SPARKASSE,312,VIALE VERONA,Trento,TN,Territorio Val D'adige,Italia,,46.0500103,11.1307914,180.0,Bancomat,,AE-3cf,AE-3abde,AE-2d,,,,,,,,,,,,,,,,2010-06-11 12:25:37,2010-05-25
694,SPARKASSE,67,"VIA MANCI, 23",Trento,TN,Territorio Val D'adige,Italia,,46.06984,11.12326,208.0,Bancomat,,AE-4h,AE-1abc,,,,,,,,,,,,,,,,,2010-12-21 10:41:19,2009-10-30
695,SPAZIO OFF,636,"VIA VENEZIA, 5",Trento,TN,Territorio Val D'adige,Italia,www.spaziooff.com,46.0694678,11.1286691,200.0,Centri e sale culturali,,AI-5b,AE-3cf,AE-3abde,AE-1abc,AE-2d,,,,,,,,,,,,,,2018-07-12 14:06:34.966,2011-05-06
696,SPES SOCIETA' COOPERATIVA SOCIALE,796,"PIAZZA VENEZIA, 34",Trento,TN,Territorio Val D'adige,Italia,www.spestrento.it,46.0698062,11.1278386,200.0,Cooperative e Laboratori Sociali,,AE-3cf,AE-3abde,AE-1abc,AE-2a,AE-2b,,,,,,,,,,,,,,2013-07-01 10:40:58.655,2013-02-28
697,SPORTELLO BANCOMAT BANCA DI TRENTO E BOLZANO,532,"VIA MANZONI, 23/3",Trento,TN,Territorio Val D'adige,Italia,,46.0741697,11.1249222,200.0,Bancomat,,AE-3cf,AE-3abde,AE-1abc,AE-2c,,,,,,,,,,,,,,,2011-04-07 15:51:07,2010-07-20
698,SPORTELLO BANCOMAT BANCA SELLA NORD EST BOVIO CALDERARI,778,"VIA BRENNERO, 316",Trento,TN,Territorio Val D'adige,Italia,,46.0920944,11.1153865,200.0,Bancomat,,AE-4h,AE-1abc,AE-2d,,,,,,,,,,,,,,,,2011-05-27 14:32:09,2010-06-24
699,SPORTELLO BANCOMAT UNICREDIT,719,"VIA TRENER, 16 - C/O BREN CENTER",Trento,TN,Territorio Val D'adige,Italia,,46.0947881,11.1152302,200.0,Bancomat,,AE-4h,,,,,,,,,,,,,,,,,,2011-05-25 13:42:10,2010-08-05
700,SPORTELLO BANCOMAT UNICREDIT,720,"VIA TRENER, 16 - C/O BREN CENTER",Trento,TN,Territorio Val D'adige,Italia,,46.0947881,11.1152302,200.0,Bancomat,,AE-4h,,,,,,,,,,,,,,,,,,2011-05-25 13:44:35,2010-08-05
701,SPORTELLO FAMIGLIA DEL COORDINAMENTO POLITICHE FAMIGLIARI DELLA PROVINCIA AUTONOMA DI TRENTO,431,"VIA JACOPO ACONCIO, 5",Trento,TN,Territorio Val D'adige,Italia,www.provincia.tn.it,46.0746387,11.1221533,200.0,Uffici Pubblici,,AI-6d,AI-5fb,AI-5fa,AI-5f,AE-3cf,AE-3abde,AI-6p,AI-6o,AI-6l,AI-6i,AI-6fg,AI-6e,AI-6bc,AI-6ad,AE-1abc,,,,2010-09-02 12:31:00,2010-08-11
702,SPORTELLO POSTAMAT,541,"VIA SCOPOLI, 53",Trento,TN,Territorio Val D'adige,Italia,www.poste.it,46.0758587,11.1181214,200.0,Postamat,,AE-1abc,,,,,,,,,,,,,,,,,,2011-04-07 18:55:29,2010-07-08
703,SPORTELLO POSTAMAT,767,"VIALE VERONA, 1",Trento,TN,Territorio Val D'adige,Italia,,46.0583833,11.1276465,200.0,Postamat,,AE-1abc,,,,,,,,,,,,,,,,,,2011-05-27 13:23:06,2010-05-17
704,SPORTELLO UNICREDIT BANCA,14,"PIAZZA SANTA MARIA MAGGIORE, 6",Trento,TN,Territorio Val D'adige,Italia,www.unicredit.it,46.068727,11.11876,221.0,Bancomat,,AE-4h,AE-3cf,AE-3abde,AE-1abc,AE-2c,,,,,,,,,,,,,,2013-06-06 14:38:07.283,2013-01-21
705,STADIO BRIAMASCO,245,VIA SAN SEVERINO,Trento,TN,Territorio Val D'adige,Italia,www.asisitn.it,46.0571528,11.1124669,200.0,Impianti Sportivi,,AI-6d,AI-6l,AI-6e,AE-2d,,,,,,,,,,,,,,,2013-01-10 20:47:57.622,2010-05-05
706,STAZIONE TRENITALIA,267,PIAZZA DANTE 1,Trento,TN,Territorio Val D'adige,Italia,www.fsitaliane.it,46.071936,11.119567,167.0,Stazioni,,AI-5fb,AI-5f,AE-3cf,AE-3abde,AI-6p,AI-6l,AI-6i,AI-6fg,AI-6e,AI-6bc,AI-6ad,AE-1abc,AI-6d,AI-5fa,AI-6r,,,,2013-02-04 10:19:32.196,2013-01-31
707,STAZIONE TRENTO MALE' MARILLEVA,268,VIA DOGANA 1,Trento,TN,Territorio Val D'adige,Italia,,46.0733919,11.1206629,138.0,Stazioni,,AI-6d,AE-3cf,AE-3abde,AI-6p,AI-6o,AI-6l,AI-6i,AI-6fg,AI-6e,AE-1abc,,,,,,,,,2013-01-10 21:50:37.506,2010-03-23
708,STRUTTURA MULTIFUNZIONALE TERRITORIALE - AD PERSONAM,642,"VIA PRANZELORES, 71",Trento,TN,Territorio Val D'adige,Italia,www.fse.provincia.tn.it,46.0891694,11.1190876,200.0,Uffici Pubblici,,AI-6d,AE-3cf,AE-3abde,AI-6p,AI-6o,AI-6l,AI-6i,AI-6fg,AI-6e,AI-6bc,AI-6ad,AE-2d,,,,,,,2011-05-11 10:48:36,2010-07-16
709,STUDENTATO DI SAN BARTOLOMEO,668,VIA DELLA MALPENSADA 90/140,Trento,TN,Territorio Val D'adige,Italia,www.operauni.tn.it,46.0454272,11.1324852,200.0,Scuole e universita,,AI-6d,AI-5fb,AI-5fa,AI-5f,AI-6o,AI-6l,AI-6i,AI-6fg,AI-6e,AI-6bc,AI-6ad,,,,,,,,2017-11-20 10:47:27.869,2010-07-13
710,STUDIO D'ARTE ANDROMEDA,333,"VIA MALPAGA, 17",Trento,TN,Territorio Val D'adige,Italia,www.studioandromeda.net,46.0683547,11.123475,180.0,Centri e sale culturali,,AE-3cf,AE-3abde,,,,,,,,,,,,,,,,,2013-01-14 14:00:10.902,2013-01-11
711,Sezione Veicoli del Servizio Antincendi,360,"Via Secondo da Trento, 2",Trento,TN,Territorio Val D'adige,Italia,www.vvftrento.it,46.0766559,11.1227336,200.0,Carabinieri - Guardia di Finanza - Polizia - Polizia Municipale - Vigili del Fuoco,,AI-5fb,AI-5fa,AI-5f,AE-3cf,AE-3abde,AE-1abc,AE-2c,,,,,,,,,,,,2017-11-20 10:48:42.587,2010-06-30
712,TASIN VIAGGI,425,"VIA POZZO, 4",Trento,TN,Territorio Val D'adige,Italia,www.tasinviaggi.it,46.070793,11.119393,200.0,Agenzie viaggi e Promozione Turistica,,AE-3abde,AE-1abc,AI-5c,,,,,,,,,,,,,,,,2013-02-04 09:03:24.763,2013-02-01
713,TEATRO COMUNALE DI ALDENO,1489,"PIAZZA CESARE BATTISTI, 5",Trento,TN,Territorio Val D'adige,Italia,,45.977098,11.091494,0.0,Teatri e Auditorium,,AE-2c,AI-6fg,AI-5fa,AI-6bc,AE-1abc,AI-6i,AE-3abde,AI-5fb,AI-5f,AE-3cf,AI-6d,AI-6ad,,,,,,,2018-07-13 16:13:59.942,2016-12-06
714,TEATRO CONCORDIA,1069,"VIA DON TOMMASO DALLA FIOR, 1",Trento,TN,Territorio Val D'adige,Italia,www.mymovies.it,46.06496,11.15422,0.0,Teatri e Auditorium,,AI-6o,AI-6i,AI-6e,AI-6p,AI-6d,AI-6fg,AE-3abde,AE-3cf,AI-6l,,,,,,,,,,2016-11-09 15:57:04.458,2010-05-12
715,TEATRO DELL'ARGENTARIO,1484,VIA PONTE ALTO 2/1 ,Trento,TN,Territorio Val D'adige,Italia,,46.074796,11.146104,0.0,Teatri e Auditorium,,AE-1abc,AI-6fg,AI-6bc,AI-6o,AI-6i,AE-3abde,AE-2a,AI-6l,AI-6e,AE-3cf,AI-6ad,AI-6d,AE-2e,,,,,,2018-07-16 11:23:32.881,2011-12-29
716,TEATRO PORTLAND,1068,"VIA PAPIRIA, 8",Trento,TN,Territorio Val D'adige,Italia,www.teatroportland.it,46.07014,11.11191,0.0,Teatri e Auditorium,,AE-2d,AE-3cf,AE-1abc,AI-6d,AE-3abde,AI-6r,AI-6fg,,,,,,,,,,,,2018-07-12 14:14:40.146,2010-05-12
717,TEATRO SAN MARCO,128,"VIA SAN BERNARDINO, 8",Trento,TN,Territorio Val D'adige,Italia,,46.0642915,11.1285536,130.0,Teatri e Auditorium,,AI-6d,AE-3cf,AE-3abde,AI-6l,AI-6i,AI-6fg,AI-6e,AE-1abc,,,,,,,,,,,2013-01-07 12:28:37.142,2009-12-10
718,TEATRO SOCIALE,136,"VIA OSS MAZZURANA, 19",Trento,TN,Territorio Val D'adige,Italia,www.centrosantachiara.it,46.06915,11.12242,133.0,Teatri e Auditorium,,AI-6d,AI-5f,AE-3cf,AE-3abde,AI-6l,AI-6i,AI-6fg,AI-6e,AE-1abc,AE-2d,AI-5c,AI-6o,AI-6p,AI-5fa,AI-5fb,,,,2019-05-03 12:12:27.472,2016-05-03
719,TERRE DI HARA,772,"VICOLO DEL VO', 66",Trento,TN,Territorio Val D'adige,Italia,www.erboristeriaterradihara.com,46.0705792,11.1240185,200.0,Erboristerie,,AI-5b,AE-3cf,AE-3abde,AE-2c,,,,,,,,,,,,,,,2013-01-28 11:29:33.917,2013-01-25
720,TJ BAR TARTINE,37,"VIA DELLE ORNE, 7",Trento,TN,Territorio Val D'adige,Italia,,46.06892,11.12229,207.0,Bar,,AI-6d,AI-5b,AE-3abde,AI-6fg,AI-6bc,AI-6ad,AE-2c,AE-3cf,,,,,,,,,,,2016-02-03 10:32:19.552,2009-11-11
721,TOP CENTER,705,"VIA BRENNERO, 320",Trento,TN,Territorio Val D'adige,Italia,,46.0920846,11.1153921,200.0,Attivita commerciali,,AI-6d,AI-5fb,AI-5fa,AI-5f,AE-3cf,AE-3abde,AI-6o,AI-6l,AI-6i,AI-6fg,AI-6e,AE-1abc,,,,,,,2011-05-25 09:45:05,2010-07-15
722,TORRE DELLA TROMBA - SALA MOSTRA,133,"VIA BELENZANI, 20",Trento,TN,Territorio Val D'adige,Italia,www.comune.trento.tn.it,46.0691921,11.1211932,254.0,Edifici Storici,,AI-6d,AE-3cf,AE-3abde,AI-6l,AI-6i,AI-6fg,AI-6e,AE-2c,AI-6o,AE-1abc,,,,,,,,,2017-11-20 10:49:51.235,2013-01-22
723,TORRE VANGA (SALA MOSTRA),409,"Piazza della Portela, 1",Trento,TN,Territorio Val D'adige,Italia,www.trentinocultura.net,46.0696286,11.1185794,200.0,Musei,,AI-6d,AI-5fb,AI-5fa,AI-5f,AE-3abde,AI-6ad,AE-3cf,AI-6r,AI-6l,AI-6p,AI-6i,AI-6fg,AI-6e,AI-6bc,AE-1abc,AE-2d,,,2015-03-23 15:55:17.201,2013-01-23
724,TRATTORIA AL MERCATO,73,"PIAZZA GARZETTI, 15",Trento,TN,Territorio Val D'adige,Italia,,46.066,11.12393,199.0,Osterie / Trattorie,,AI-6d,AI-5d,AE-3cf,AI-6l,AI-6i,AI-6fg,AI-6e,AI-6bc,AI-6ad,AE-1abc,AE-3abde,AI-5b,AI-6r,,,,,,2016-02-09 12:18:05.144,2013-01-09
725,TRATTORIA AL TINO,50,"VIA SS. TRINITA', 11",Trento,TN,Territorio Val D'adige,Italia,,46.06637,11.12297,201.0,Osterie / Trattorie,,AI-6d,AE-3cf,AE-3abde,AI-6i,AI-6fg,AI-6e,AI-6bc,AI-6ad,AE-1abc,AI-5c,AI-6l,,,,,,,,2016-02-09 11:44:28.363,2013-01-22
726,TRATTORIA ORSO GRIGIO,574,"VIA DEGLI ORTI, 19",Trento,TN,Territorio Val D'adige,Italia,www.orsogrigiotrento.com,46.0655631,11.1223746,200.0,Ristoranti,,AI-6d,AE-3cf,AE-3abde,AI-6p,AI-6o,AI-6l,AI-6i,AI-6fg,AI-6e,AE-1abc,AE-2d,,,,,,,,2013-01-15 10:40:07.139,2013-01-14
727,TRATTORIA PIEDICASTELLO,237,"PIAZZA PIEDICASTELLO, 12",Trento,TN,Territorio Val D'adige,Italia,,46.0710746,11.1131468,185.0,Osterie / Trattorie,,AI-6d,AE-3cf,AE-3abde,AI-6p,AI-6o,AI-6l,AI-6i,AI-6fg,AI-6e,AI-6bc,AI-6ad,AE-1abc,,,,,,,2010-05-11 08:21:17,2010-05-06
728,TRE TORRI CAFE,625,"VIA GUARDINI, 54",Trento,TN,Territorio Val D'adige,Italia,,46.0943642,11.1178123,200.0,Bar,,AI-6d,AE-3cf,AE-3abde,AI-6p,AI-6i,AI-6fg,AI-6e,AI-6bc,AI-6ad,AI-6l,AI-6r,,,,,,,,2017-09-29 10:42:49.205,2010-08-06
729,TRENTINO SPA,551,"VIA ROMAGNOSI, 11",Trento,TN,Territorio Val D'adige,Italia,www.trentino.to,46.0731212,11.12122093,200.0,Uffici Pubblici,,AI-6d,AI-5fb,AI-5fa,AI-5f,AE-3cf,AE-3abde,AI-6p,AI-6o,AI-6l,AI-6i,AI-6fg,AI-6e,AE-1abc,AE-2d,,,,,2011-04-07 14:50:15,2010-06-02
730,TRENTO FIERE CTE,742,"VIA BRIAMASCO, 2",Trento,TN,Territorio Val D'adige,Italia,www.trentofieraspa.191.it,46.0651303,11.1165621,200.0,Centri e sale culturali,,AI-5fb,AI-5fa,AI-5f,AE-3cf,AE-3abde,AE-2d,,,,,,,,,,,,,2011-05-26 13:24:59,2010-07-28
731,TRENTO OTTICA GIOIELLERIA OROLOGERIA,304,"VIA SAN PIO X, 45",Trento,TN,Territorio Val D'adige,Italia,,46.052814,11.1209326,180.0,Ottica,,AE-3cf,AE-3abde,AE-1abc,AE-2c,,,,,,,,,,,,,,,2010-06-15 14:56:40,2010-05-25
732,TRIBUNALE DI TRENTO,369,"Via Pilati, 2",Trento,TN,Territorio Val D'adige,Italia,www.tribunale.trento.it,46.0661341,11.1258105,200.0,Uffici Giudiziari,,AI-6d,AI-5fb,AI-5fa,AI-5f,AE-3cf,AE-3abde,AI-6l,AI-6i,AI-6fg,AI-6e,AE-1abc,AE-2a,,,,,,,2013-01-15 10:35:38.928,2013-01-14
733,TRIBUNALE DI TRENTO,725,"VIA JACOPO ACONCIO, 2",Trento,TN,Territorio Val D'adige,Italia,www.tribunale.trento.it,46.074393,11.1230412,200.0,Uffici Giudiziari,Uffici Pubblici,AI-6d,AI-5fb,AI-5fa,AI-5f,AE-3cf,AE-3abde,AI-6o,AI-6l,AI-6i,AI-6fg,AI-6e,AE-1abc,AE-2d,,,,,,2011-05-26 08:36:53,2010-07-29
734,TRIBUNALE PER I DIRITTI DEL MALATO,666,"VIA ORSI, 1",Trento,TN,Territorio Val D'adige,Italia,www.cittadinanzattiva.it,46.056645,11.1313576,200.0,Uffici Pubblici,,AE-3cf,AE-3abde,AI-6i,AI-6fg,AI-6e,AI-6bc,AI-6ad,AE-2gb,AE-2ga,AE-2g,AE-2d,AE-2a,,,,,,,2011-05-23 09:53:55,2010-07-13
735,TRIBUNALE REGIONALE DI GIUSTIZIA AMMINISTRATIVA DEL TRENTINO ALTO ADIGE c/o PALAZZO LODRON,724,"VIA CALEPINA, 50 ",Trento,TN,Territorio Val D'adige,Italia,www.tar.tn.it,46.0672044,11.1255288,200.0,Uffici Pubblici,,AI-6d,AE-3cf,AI-6o,AI-6i,AI-6fg,AE-1abc,AE-2a,AE-3abde,,,,,,,,,,,2014-01-28 09:36:27.711,2013-01-16
736,Tecnomed,389,"Piazza Ezio Mosna, 8",Trento,TN,Territorio Val D'adige,Italia,,46.067082,11.115096,200.0,Ambulatori Medici,,AI-6d,AI-5fb,AI-5fa,AI-5f,AE-3cf,AE-3abde,AI-6p,AI-6l,AI-6i,AI-6fg,AI-6e,AE-1abc,AE-2a,AI-6o,,,,,2010-08-10 14:09:00,2010-04-21
737,Transilvania,376,"Via Pranzelores, 78",Trento,TN,Territorio Val D'adige,Italia,,46.086622,11.1201942,200.0,Paninoteche,,AE-3abde,AE-1abc,AE-3cf,,,,,,,,,,,,,,,,2016-02-02 15:45:44.697,2010-08-04
738,U.I.C. Unione Italiana dei Ciechi e degli Ipovedenti ,300,"Corso 3 Novembre, 132",Trento,TN,Territorio Val D'adige,Italia,www.uictrento.it,46.0605271,11.1252182,180.0,Associazioni,,AI-6d,AE-3cf,AE-3abde,AI-6fg,AI-6e,AE-1abc,AE-2gb,AE-2ga,AE-2g,AE-2a,,,,,,,,,2012-05-02 13:06:44,2010-05-18
739,U.I.S.P. Unione italiana sport per tutti,1493,"Via al Torrione, 6",Trento,TN,Territorio Val D'adige,Italia,www.uisp.it/trento,46.065148,11.122281,200.0,Associazioni,,AE-3abde,AI-5fb,AI-6fg,AI-5fa,AI-6r,AI-6bc,AE-1abc,AE-2d,AE-2b,AI-6i,AI-5f,AE-2a,AI-6l,AI-6e,AE-3cf,AI-6p,AI-6d,AI-6ad,2019-06-05 14:08:10.38,2010-05-18
740,U.N.M.S. UNIONE NAZIONALE MUTILATI INVALIDI PER SERVIZIO,667,"VIA SAN MARTINO, 33",Trento,TN,Territorio Val D'adige,Italia,www.unms.it,46.0735473,11.1254729,200.0,Associazioni,,AI-6d,AI-5b,AE-3abde,AI-6i,AI-6fg,AI-6e,AE-1abc,AE-2a,AI-6r,,,,,,,,,,2018-01-11 16:48:35.612,2010-07-13
741,UNICREDIT BANCA (OSPEDALE S. CHIARA),209,"LARGO MEDAGLIE D'ORO, 1",Trento,TN,Territorio Val D'adige,Italia,,46.0578948,11.1329703,180.0,Bancomat,,AE-4h,AE-3cf,AE-3abde,AE-1abc,AE-2d,,,,,,,,,,,,,,2013-01-07 17:01:12.91,2010-04-13
742,UNICREDIT BANCA,163,"VIA SAN PIETRO, 49",Trento,TN,Territorio Val D'adige,Italia,,46.06913,11.12428,183.0,Bancomat,,AE-4h,AE-1abc,,,,,,,,,,,,,,,,,2010-12-21 13:07:33,2010-01-28
743,UNICREDIT BANCA,180,"CORSO 3 NOVEMBRE, 130",Trento,TN,Territorio Val D'adige,Italia,,46.06065,11.12501,203.0,Postamat,,AE-4h,,,,,,,,,,,,,,,,,,2010-12-17 15:07:57,2010-02-03
744,UNICREDIT BANCA,271,"VIA DOGANA, 4",Trento,TN,Territorio Val D'adige,Italia,,46.07318,11.12061,138.0,Bancomat,,AE-4h,AE-1abc,,,,,,,,,,,,,,,,,2010-12-21 10:43:49,2010-03-23
745,UNICREDIT BANCA,281,"VIA MATTEOTTI, 1",Trento,TN,Territorio Val D'adige,Italia,,46.0553637,11.1222831,190.0,Bancomat,,AE-4h,AE-1abc,,,,,,,,,,,,,,,,,2010-12-21 10:57:39,2010-05-25
746,UNICREDIT BANCA,326,"VIA SAN ANTONIO, 7",Trento,TN,Territorio Val D'adige,Italia,,46.0574537,11.1301481,180.0,Bancomat,,AE-4h,,,,,,,,,,,,,,,,,,2010-12-21 13:06:45,2010-05-17
747,UNICREDIT BANCA,374,"Via Brennero, 320 c/o TOP CENTER",Trento,TN,Territorio Val D'adige,Italia,,46.0920846,11.1153921,200.0,Bancomat,,AE-3cf,AE-3abde,,,,,,,,,,,,,,,,,2017-11-20 10:55:17.926,2010-08-04
748,UNICREDIT BANCA,402,"Piazza Dante, 16",Trento,TN,Territorio Val D'adige,Italia,,46.072002,11.1198094,200.0,Bancomat,,AE-4h,AE-1abc,,,,,,,,,,,,,,,,,2010-12-21 13:08:20,2010-08-17
749,UNICREDIT BANCA,54,"VIA GARIBALDI, 29",Trento,TN,Territorio Val D'adige,Italia,,46.066978,11.122195,210.0,Bancomat,,AI-5c,AE-1abc,AE-2d,,,,,,,,,,,,,,,,2017-11-20 10:56:16.471,2013-01-09
750,UNION CASA DEL CAFFE',162,"VIA SAN PIETRO, 38",Trento,TN,Territorio Val D'adige,Italia,,46.06928,11.12442,211.0,Dolciumi,Bar,AI-6d,AE-3cf,AE-3abde,AI-6p,AI-6l,AI-6i,AI-6fg,AI-6e,AE-1abc,AE-2d,AI-6o,,,,,,,,2016-02-03 11:36:09.958,2013-01-04
751,UNISPORT,113,"VIA G. PRATI, 10",Trento,TN,Territorio Val D'adige,Italia,www.unisport.tn.it,46.0659856,11.1195893,0.0,Uffici Pubblici,Scuole e universita,AE-3cf,AE-3abde,AI-6l,AI-6fg,AI-6e,AE-1abc,AI-6i,AE-2d,AI-6bc,AI-6r,AI-6ad,AI-6d,,,,,,,2017-11-20 10:57:34.027,2014-02-18
752,URBANISTICA E PIANIFICAZIONE DELLA MOBILITA',519,"VIA DEL BRENNERO, 312",Trento,TN,Territorio Val D'adige,Italia,www.comune.trento.it,46.0921043,11.1153209,200.0,Uffici Pubblici,,AI-6d,AI-5fb,AI-5fa,AI-5f,AE-3cf,AE-3abde,AI-6p,AI-6o,AI-6l,AI-6i,AI-6fg,AI-6e,AE-1abc,,,,,,2011-04-06 18:00:46,2010-08-01
753,UVA E MENTA,44,"VIA DIETRO LE MURA A, 35",Trento,TN,Territorio Val D'adige,Italia,,46.06543,11.12465,216.0,Ristoranti,Pizzerie,AI-6d,AE-3cf,AI-6fg,AI-6bc,AE-1abc,AI-5b,AI-6ad,AE-3abde,,,,,,,,,,,2016-02-09 11:22:46.099,2013-01-09
754,UXA S.N.C. ,105,"VIA MANZONI, 15",Trento,TN,Territorio Val D'adige,Italia,,46.0742521,11.1249259,300.0,Fast Food,,AE-3cf,AE-3abde,AE-1abc,AE-2d,,,,,,,,,,,,,,,2016-02-03 10:04:19.77,2009-10-30
755,VIA BELENZANI,652,VIA BELENZANI,Trento,TN,Territorio Val D'adige,Italia,,46.0687262,11.1212668,200.0,Piazza,,AE-1abc,,,,,,,,,,,,,,,,,,2017-11-20 11:14:15.828,2011-04-28
756,VIAGGI BOLGIA,394,"Via Alfieri, 6",Trento,TN,Territorio Val D'adige,Italia,www.viaggibolgia.it,46.070516,11.121487,200.0,Agenzie viaggi e Promozione Turistica,,AE-3cf,AE-3abde,AE-1abc,AE-2d,,,,,,,,,,,,,,,2013-02-04 08:41:29.165,2013-02-01
757,VIAGGI DEL BUONCONSIGLIO,395,"Via Roma, 16",Trento,TN,Territorio Val D'adige,Italia,www.viaggibuonconsiglio.it,46.069589,11.119245,200.0,Agenzie viaggi e Promozione Turistica,,AE-3cf,AE-3abde,AE-1abc,,,,,,,,,,,,,,,,2013-01-24 11:03:25.931,2013-01-23
758,VILLA BORTOLAZZI DI MATTARELLO,1487,"LOCALITA' ACQUAVIVA, 10",Trento,TN,Territorio Val D'adige,Italia,www.villabortolazzi.it,45.984068,11.119997,0.0,Ristoranti,Edifici Storici,AI-6e,AI-6i,AE-2b,AE-3abde,AE-2a,AI-6fg,AE-3cf,,,,,,,,,,,,2018-07-13 15:08:42.047,2016-12-06
759,VILLA FONTANA,808,"VIA FRATELLI FONTANA, 11",Trento,TN,Territorio Val D'adige,Italia,www.villafontana.it,46.077564,11.11685,200.0,Bed & Breakfast,,AI-6d,AI-5f,AE-3cf,AE-3abde,AI-6bc,AI-6ad,AE-1abc,AI-8i,AI-8n,AI-8a,AI-7a,AI-7bcdef,AI-6fg,AI-8efg,AI-8cd,AI-5fa,AI-6r,AE-2a,2016-03-17 12:11:24.855,2010-08-27
760,VILLA MARGON,1488,LOCALITA' MARGON - RAVINA,Trento,TN,Territorio Val D'adige,Italia,www.cantineferrari.it,46.028006,11.101766,0.0,Edifici Storici,,AI-6i,AE-3abde,AI-6fg,AI-6e,AE-3cf,AI-5b,,,,,,,,,,,,,2018-07-13 15:28:34.545,2016-12-06
761,VILLA MERSI DI VILLAZZANO,1485,VIA DELLA VILLA 6,Trento,TN,Territorio Val D'adige,Italia,www.comune.trento.it,46.047861,11.145541,0.0,Edifici Storici,,AI-6l,AI-6i,AI-6fg,AI-6e,AI-6d,AI-5fa,AI-5f,AE-3cf,AE-3abde,AE-2d,AE-1abc,,,,,,,,2018-07-13 10:04:11.956,2016-12-06
762,VOLKSBANK,70,PIAZZA LODRON 30,Trento,TN,Territorio Val D'adige,Italia,,46.06796,11.1228,220.0,Bancomat,,AE-3cf,AE-3abde,AE-1abc,AE-4h,,,,,,,,,,,,,,,2013-02-01 10:02:48.118,2013-01-04
763,ZORBA'S,794,"VIA VENETO, 77/79",Trento,TN,Territorio Val D'adige,Italia,,46.0597034,11.1256557,200.0,Pub,Bar,AI-6d,AE-3cf,AE-3abde,AI-6fg,AE-1abc,AE-2c,AI-6r,AI-6p,,,,,,,,,,,2016-01-12 14:01:11.144,2010-07-01
